{"type":"FeatureCollection","features":[{"type":"Feature","properties":{"leaid":"6000030","name":"American Samoa Department of Education","kind":"Unified","gradeLow":"PK","gradeHigh":"12","state":"AS"},"geometry":{"type":"MultiPolygon","coordinates":[[[[-168.1446,-14.5486],[-168.1458,-14.5479],[-168.1451,-14.5453],[-168.1433,-14.5472],[-168.1446,-14.5486]]],[[[-168.1514,-14.5358],[-168.1509,-14.5373],[-168.1521,-14.5362],[-168.1514,-14.5358]]],[[[-170.7732,-14.3625],[-170.7731,-14.3625],[-170.7731,-14.3626],[-170.7732,-14.3625]]],[[[-170.7737,-14.3621],[-170.7738,-14.3622],[-170.7737,-14.362],[-170.7737,-14.3621]]],[[[-170.8291,-14.3316],[-170.8293,-14.3321],[-170.8295,-14.332],[-170.8291,-14.3316]]],[[[-170.8381,-14.3249],[-170.8383,-14.325],[-170.8382,-14.3249],[-170.8381,-14.3249]]],[[[-170.6519,-14.2896],[-170.6515,-14.2899],[-170.6519,-14.2899],[-170.6519,-14.2896]]],[[[-170.6502,-14.2885],[-170.6505,-14.2887],[-170.6504,-14.2884],[-170.6502,-14.2885]]],[[[-170.768,-14.2875],[-170.7677,-14.2878],[-170.7681,-14.2881],[-170.768,-14.2875]]],[[[-170.6455,-14.2871],[-170.6452,-14.2879],[-170.6454,-14.2885],[-170.6457,-14.2881],[-170.6455,-14.2871]]],[[[-170.7326,-14.2804],[-170.7323,-14.2806],[-170.7325,-14.2808],[-170.7326,-14.2804]]],[[[-170.7016,-14.2524],[-170.7008,-14.2522],[-170.701,-14.2526],[-170.7016,-14.2524]]],[[[-170.6716,-14.2388],[-170.6648,-14.2482],[-170.6616,-14.2469],[-170.661,-14.2454],[-170.6535,-14.2488],[-170.6451,-14.2494],[-170.6398,-14.2471],[-170.6387,-14.2496],[-170.6357,-14.2499],[-170.634,-14.2474],[-170.628,-14.2488],[-170.6258,-14.2506],[-170.6225,-14.2485],[-170.613,-14.2515],[-170.6087,-14.2547],[-170.6038,-14.2538],[-170.6033,-14.255],[-170.599,-14.2563],[-170.5979,-14.2549],[-170.598,-14.2561],[-170.5933,-14.2583],[-170.5859,-14.2539],[-170.5846,-14.251],[-170.581,-14.2514],[-170.5777,-14.2478],[-170.5777,-14.2463],[-170.571,-14.2486],[-170.5672,-14.2481],[-170.5619,-14.2454],[-170.5646,-14.2484],[-170.5642,-14.2547],[-170.5618,-14.2582],[-170.5646,-14.2702],[-170.5508,-14.2799],[-170.549,-14.2796],[-170.5469,-14.2811],[-170.5459,-14.2857],[-170.5507,-14.2891],[-170.5545,-14.2875],[-170.5578,-14.2885],[-170.5766,-14.274],[-170.5802,-14.2748],[-170.5813,-14.2734],[-170.584,-14.2735],[-170.5911,-14.2797],[-170.5959,-14.2803],[-170.5958,-14.2813],[-170.5971,-14.2809],[-170.6019,-14.2842],[-170.6066,-14.2805],[-170.624,-14.2742],[-170.6274,-14.2765],[-170.6295,-14.2806],[-170.6383,-14.2803],[-170.6402,-14.2865],[-170.6456,-14.2867],[-170.6508,-14.2883],[-170.6515,-14.2891],[-170.6534,-14.2881],[-170.6567,-14.2898],[-170.6609,-14.2891],[-170.6633,-14.2911],[-170.6768,-14.2952],[-170.68,-14.3003],[-170.6888,-14.302],[-170.6899,-14.3052],[-170.6932,-14.3061],[-170.6952,-14.3099],[-170.6979,-14.3115],[-170.7027,-14.3221],[-170.7024,-14.3257],[-170.6994,-14.3247],[-170.6997,-14.3271],[-170.708,-14.3317],[-170.7082,-14.3329],[-170.7092,-14.3322],[-170.7123,-14.3341],[-170.7125,-14.3355],[-170.7217,-14.3398],[-170.7208,-14.3446],[-170.7217,-14.3442],[-170.7239,-14.3479],[-170.7273,-14.3476],[-170.732,-14.3555],[-170.7371,-14.3584],[-170.7403,-14.365],[-170.7419,-14.3654],[-170.7445,-14.364],[-170.7539,-14.3657],[-170.7538,-14.3672],[-170.7595,-14.3738],[-170.7625,-14.3677],[-170.7694,-14.3654],[-170.7702,-14.3635],[-170.7727,-14.3621],[-170.7739,-14.362],[-170.7739,-14.3622],[-170.7745,-14.3623],[-170.7754,-14.3621],[-170.7786,-14.3591],[-170.7854,-14.3574],[-170.7851,-14.3505],[-170.7882,-14.3459],[-170.7855,-14.34],[-170.7877,-14.3375],[-170.7996,-14.3341],[-170.8007,-14.3319],[-170.8042,-14.3324],[-170.8064,-14.3308],[-170.8181,-14.3324],[-170.819,-14.3312],[-170.828,-14.329],[-170.8292,-14.3314],[-170.8386,-14.324],[-170.842,-14.3245],[-170.8468,-14.323],[-170.8465,-14.3202],[-170.8431,-14.3209],[-170.8359,-14.3189],[-170.8333,-14.3111],[-170.8263,-14.3071],[-170.8243,-14.3046],[-170.825,-14.3035],[-170.8214,-14.3021],[-170.8217,-14.3007],[-170.8136,-14.3005],[-170.8119,-14.2987],[-170.8114,-14.2951],[-170.8068,-14.2936],[-170.8063,-14.2924],[-170.8038,-14.2932],[-170.8034,-14.2919],[-170.7998,-14.2918],[-170.7984,-14.2893],[-170.7969,-14.2915],[-170.7904,-14.2897],[-170.79,-14.2913],[-170.7883,-14.2916],[-170.7854,-14.2899],[-170.7851,-14.2876],[-170.7833,-14.2873],[-170.7751,-14.291],[-170.7738,-14.2932],[-170.7668,-14.289],[-170.7643,-14.29],[-170.7631,-14.2878],[-170.7614,-14.2874],[-170.7552,-14.2917],[-170.7478,-14.2911],[-170.7463,-14.2923],[-170.7427,-14.2914],[-170.7395,-14.2886],[-170.74,-14.2877],[-170.7332,-14.2844],[-170.7321,-14.2822],[-170.7218,-14.274],[-170.7225,-14.2725],[-170.719,-14.2719],[-170.7158,-14.2664],[-170.7136,-14.2667],[-170.7136,-14.2651],[-170.7121,-14.2648],[-170.7127,-14.2619],[-170.7094,-14.2622],[-170.7094,-14.2607],[-170.7076,-14.261],[-170.7073,-14.2626],[-170.7046,-14.2622],[-170.7031,-14.2598],[-170.7033,-14.2571],[-170.7017,-14.2563],[-170.7018,-14.2541],[-170.6952,-14.2536],[-170.6946,-14.2511],[-170.6875,-14.2467],[-170.6836,-14.2477],[-170.6828,-14.2441],[-170.6819,-14.2452],[-170.679,-14.2449],[-170.6716,-14.2388]]],[[[-170.6714,-14.2298],[-170.6702,-14.2341],[-170.6712,-14.2384],[-170.6718,-14.2362],[-170.6714,-14.2298]]],[[[-169.4277,-14.2118],[-169.4206,-14.2172],[-169.419,-14.2199],[-169.4195,-14.2298],[-169.4213,-14.2362],[-169.421,-14.2445],[-169.4237,-14.2564],[-169.426,-14.2573],[-169.432,-14.2555],[-169.4379,-14.2555],[-169.445,-14.2501],[-169.4503,-14.2482],[-169.4607,-14.2486],[-169.4713,-14.2542],[-169.4815,-14.2675],[-169.483,-14.2679],[-169.4834,-14.2705],[-169.4877,-14.2727],[-169.4922,-14.271],[-169.4977,-14.2641],[-169.4994,-14.2551],[-169.5035,-14.2456],[-169.5114,-14.2403],[-169.5102,-14.2396],[-169.5132,-14.2375],[-169.5186,-14.2218],[-169.5179,-14.22],[-169.5167,-14.2203],[-169.5153,-14.2187],[-169.5098,-14.2176],[-169.5102,-14.2163],[-169.507,-14.213],[-169.5019,-14.2175],[-169.4994,-14.2181],[-169.4887,-14.2155],[-169.4845,-14.2166],[-169.4718,-14.2153],[-169.4673,-14.2162],[-169.4638,-14.2138],[-169.4552,-14.212],[-169.441,-14.2142],[-169.4277,-14.2118]]],[[[-169.6783,-14.1741],[-169.6782,-14.1742],[-169.6783,-14.1742],[-169.6783,-14.1741]]],[[[-169.68,-14.159],[-169.6791,-14.16],[-169.6705,-14.1608],[-169.6678,-14.1635],[-169.6539,-14.1667],[-169.6452,-14.1678],[-169.638,-14.1664],[-169.6325,-14.1685],[-169.6381,-14.1708],[-169.64,-14.1702],[-169.6464,-14.172],[-169.6599,-14.1825],[-169.6705,-14.1855],[-169.6749,-14.1827],[-169.6773,-14.1792],[-169.6779,-14.1734],[-169.6842,-14.1726],[-169.6847,-14.1702],[-169.686,-14.1696],[-169.6852,-14.1675],[-169.6876,-14.1647],[-169.6822,-14.1636],[-169.68,-14.159]]],[[[-169.6127,-14.1553],[-169.6095,-14.1577],[-169.6103,-14.1699],[-169.6064,-14.18],[-169.6129,-14.1934],[-169.613,-14.1912],[-169.6215,-14.1821],[-169.6268,-14.1737],[-169.632,-14.1689],[-169.6205,-14.1644],[-169.6159,-14.1567],[-169.6127,-14.1553]]],[[[-171.077,-11.0648],[-171.0828,-11.0645],[-171.0878,-11.0598],[-171.0899,-11.0549],[-171.0896,-11.0519],[-171.0841,-11.0494],[-171.0719,-11.0481],[-171.0671,-11.0519],[-171.0662,-11.0558],[-171.077,-11.0648]]]]}}]}