{"type":"FeatureCollection","features":[{"type":"Feature","properties":{"leaid":"1100030","name":"District of Columbia Public Schools","kind":"Unified","gradeLow":"PK","gradeHigh":"12","state":"DC"},"geometry":{"type":"MultiPolygon","coordinates":[[[[-77.021,38.8057],[-77.0255,38.8022],[-77.024,38.8047],[-77.021,38.8057]]],[[[-77.029,38.8089],[-77.0311,38.8082],[-77.0308,38.811],[-77.0303,38.8099],[-77.029,38.8089]]],[[[-77.0389,38.8205],[-77.0381,38.8156],[-77.0358,38.8149],[-77.0389,38.8008],[-77.0386,38.7919],[-77.039,38.7916],[-77.0392,38.8005],[-77.0373,38.8105],[-77.0373,38.8146],[-77.0375,38.815],[-77.038,38.8154],[-77.0384,38.8161],[-77.0389,38.8195],[-77.04,38.8207],[-77.0394,38.8215],[-77.0389,38.8205]]],[[[-77.0391,38.8241],[-77.0406,38.8233],[-77.0408,38.8221],[-77.041,38.8233],[-77.0391,38.8241]]],[[[-77.0389,38.8242],[-77.039,38.8242],[-77.0389,38.8244],[-77.0389,38.8242]]],[[[-77.0388,38.8246],[-77.0388,38.8246],[-77.0388,38.8246],[-77.0388,38.8246]]],[[[-77.0388,38.825],[-77.0388,38.825],[-77.0388,38.825],[-77.0388,38.825]]],[[[-77.0386,38.826],[-77.0386,38.8256],[-77.0387,38.8257],[-77.0386,38.826]]],[[[-77.0385,38.8262],[-77.0386,38.8261],[-77.0386,38.8262],[-77.0385,38.8262]]],[[[-77.0383,38.8273],[-77.0384,38.8272],[-77.0384,38.8273],[-77.0383,38.8273]]],[[[-77.0447,38.8345],[-77.0435,38.8332],[-77.0426,38.8338],[-77.0412,38.8337],[-77.0392,38.8322],[-77.0392,38.8322],[-77.0422,38.8337],[-77.042,38.8315],[-77.043,38.8312],[-77.0447,38.8345]]],[[[-77.0441,38.8402],[-77.044,38.8402],[-77.0442,38.8402],[-77.0441,38.8402]]],[[[-77.0434,38.8406],[-77.0433,38.8402],[-77.0439,38.8402],[-77.0434,38.8406]]],[[[-77.048,38.8413],[-77.0459,38.8411],[-77.045,38.8385],[-77.0449,38.8351],[-77.0459,38.8401],[-77.048,38.8413]]],[[[-77.0341,38.8415],[-77.0323,38.848],[-77.0322,38.8514],[-77.0317,38.8505],[-77.0328,38.8417],[-77.0341,38.8415]]],[[[-77.0378,38.8619],[-77.0374,38.8612],[-77.0376,38.8613],[-77.0378,38.8619]]],[[[-77.0399,38.8626],[-77.0409,38.8626],[-77.0416,38.8632],[-77.0399,38.8626]]],[[[-77.0427,38.8633],[-77.0421,38.8638],[-77.0418,38.8637],[-77.0427,38.8633]]],[[[-77.0441,38.8745],[-77.0437,38.8743],[-77.0444,38.8747],[-77.0441,38.8745]]],[[[-77.0515,38.8758],[-77.0498,38.8715],[-77.0506,38.872],[-77.0516,38.8737],[-77.0515,38.8758]]],[[[-77.0606,38.8888],[-77.0461,38.8758],[-77.0484,38.8744],[-77.0549,38.8806],[-77.0587,38.8805],[-77.0643,38.889],[-77.064,38.8909],[-77.0638,38.8896],[-77.0606,38.8888]]],[[[-77.0647,38.8923],[-77.0644,38.8914],[-77.0647,38.8923],[-77.0647,38.8923]]],[[[-76.9657,38.8909],[-76.9672,38.8905],[-76.966,38.894],[-76.9657,38.8909]]],[[[-77.0597,38.8922],[-77.0612,38.8906],[-77.0622,38.8916],[-77.0665,38.8994],[-77.0624,38.8994],[-77.0599,38.8977],[-77.0597,38.8922]]],[[[-77.0673,38.8992],[-77.0653,38.8938],[-77.0676,38.8981],[-77.0673,38.8992]]],[[[-77.0681,38.8997],[-77.068,38.8997],[-77.0681,38.8997],[-77.0681,38.8997]]],[[[-77.0735,38.9011],[-77.0731,38.9011],[-77.0734,38.9011],[-77.0735,38.9011]]],[[[-77.0869,38.9033],[-77.0852,38.9028],[-77.0866,38.903],[-77.0869,38.9033]]],[[[-77.0887,38.9038],[-77.0878,38.9035],[-77.088,38.9035],[-77.0887,38.9038]]],[[[-76.9549,38.9055],[-76.9557,38.9017],[-76.9595,38.9021],[-76.9576,38.9056],[-76.9549,38.9055]]],[[[-76.9657,38.8973],[-76.9587,38.9071],[-76.9625,38.8997],[-76.9621,38.8968],[-76.9644,38.8897],[-76.9694,38.8842],[-76.9651,38.8897],[-76.9657,38.8973]]],[[[-76.9458,38.914],[-76.947,38.9128],[-76.949,38.9132],[-76.9458,38.914]]],[[[-76.9428,38.9151],[-76.9441,38.9149],[-76.9436,38.9153],[-76.9428,38.9151]]],[[[-77.1057,38.9182],[-77.1052,38.9173],[-77.1056,38.9176],[-77.1057,38.9182]]],[[[-76.9416,38.9184],[-76.9094,38.8929],[-77.0157,38.8098],[-77.0249,38.8109],[-77.0279,38.816],[-77.0263,38.8294],[-77.0248,38.8341],[-77.0239,38.833],[-77.0247,38.8349],[-77.0206,38.8479],[-77.0144,38.8583],[-77.0072,38.8626],[-77.0016,38.8696],[-76.9943,38.8682],[-76.9838,38.8735],[-76.9729,38.8772],[-76.9641,38.8862],[-76.9604,38.9012],[-76.9551,38.9016],[-76.9546,38.906],[-76.9574,38.9059],[-76.9555,38.909],[-76.951,38.9099],[-76.9503,38.9115],[-76.9471,38.9094],[-76.9456,38.9094],[-76.9454,38.9107],[-76.9438,38.9101],[-76.9443,38.9113],[-76.9482,38.9111],[-76.9482,38.912],[-76.9446,38.9117],[-76.9457,38.9136],[-76.9425,38.9141],[-76.9418,38.9155],[-76.9436,38.916],[-76.9451,38.9147],[-76.9484,38.9137],[-76.9511,38.9138],[-76.9507,38.912],[-76.9526,38.9118],[-76.955,38.9092],[-76.9528,38.914],[-76.9459,38.9149],[-76.9416,38.9184]]],[[[-77.1062,38.919],[-77.1061,38.9187],[-77.1062,38.919],[-77.1062,38.919]]],[[[-77.116,38.9282],[-77.116,38.9282],[-77.116,38.9282],[-77.116,38.9282]]],[[[-77.1179,38.9324],[-77.1174,38.9309],[-77.1194,38.9338],[-77.1179,38.9324]]],[[[-76.9657,38.8973],[-76.9685,38.8933],[-76.9675,38.8897],[-76.9733,38.8791],[-76.9795,38.8774],[-76.9931,38.871],[-76.9993,38.8726],[-77.0063,38.8712],[-77.011,38.8642],[-77.0149,38.8639],[-77.0155,38.8614],[-77.0175,38.8606],[-77.0188,38.8611],[-77.0195,38.8718],[-77.0221,38.8763],[-77.029,38.8816],[-77.0325,38.8816],[-77.025,38.8752],[-77.0222,38.8707],[-77.021,38.8605],[-77.0219,38.8564],[-77.0294,38.869],[-77.0391,38.8785],[-77.0396,38.8799],[-77.0373,38.8818],[-77.0338,38.8819],[-77.0374,38.8871],[-77.0403,38.8874],[-77.044,38.8842],[-77.0412,38.8829],[-77.0402,38.8802],[-77.041,38.8796],[-77.0523,38.888],[-77.0553,38.8919],[-77.0571,38.8996],[-77.0692,38.9036],[-77.0826,38.9044],[-77.0932,38.9076],[-77.1017,38.9134],[-77.1027,38.9186],[-77.1037,38.919],[-77.1037,38.9181],[-77.1159,38.9287],[-77.1169,38.9319],[-77.1193,38.9348],[-77.0409,38.9958],[-76.9422,38.9188],[-76.9458,38.9158],[-76.9535,38.9149],[-76.958,38.9077],[-76.9623,38.9069],[-76.966,38.9018],[-76.9657,38.8973]]]]}}]}