{"type":"FeatureCollection","features":[{"type":"Feature","properties":{"leaid":"1000080","name":"Appoquinimink School District","kind":"Unified","gradeLow":"PK","gradeHigh":"12","state":"DE"},"geometry":{"type":"MultiPolygon","coordinates":[[[[-75.5985,39.4033],[-75.5985,39.4033],[-75.5985,39.4033],[-75.5985,39.4033]]],[[[-75.6082,39.4168],[-75.6097,39.4163],[-75.608,39.417],[-75.6082,39.4168]]],[[[-75.6057,39.4184],[-75.6058,39.4184],[-75.6055,39.4185],[-75.6057,39.4184]]],[[[-75.6029,39.4195],[-75.6048,39.4187],[-75.6022,39.42],[-75.6029,39.4195]]],[[[-75.5991,39.425],[-75.6017,39.4219],[-75.6017,39.4223],[-75.5991,39.425]]],[[[-75.5993,39.4272],[-75.5999,39.4271],[-75.599,39.4276],[-75.5993,39.4272]]],[[[-75.5977,39.4302],[-75.5984,39.4295],[-75.5991,39.4296],[-75.5977,39.4302]]],[[[-75.5916,39.4305],[-75.5917,39.4304],[-75.5912,39.4306],[-75.5916,39.4305]]],[[[-75.6007,39.4308],[-75.6009,39.4307],[-75.6009,39.4309],[-75.6007,39.4308]]],[[[-75.589,39.4307],[-75.5891,39.4307],[-75.5888,39.4309],[-75.589,39.4307]]],[[[-75.6037,39.4766],[-75.6056,39.4763],[-75.6075,39.4771],[-75.6037,39.4766]]],[[[-75.6716,39.5429],[-75.6722,39.5398],[-75.6704,39.537],[-75.6692,39.5381],[-75.6657,39.5341],[-75.664,39.5343],[-75.6634,39.5329],[-75.6597,39.5318],[-75.662,39.5298],[-75.6635,39.5308],[-75.6698,39.5302],[-75.6691,39.5261],[-75.6649,39.5251],[-75.6687,39.5221],[-75.6609,39.5114],[-75.6557,39.5101],[-75.6553,39.5077],[-75.6527,39.5048],[-75.6465,39.5047],[-75.6366,39.5096],[-75.6316,39.5138],[-75.624,39.5135],[-75.621,39.5107],[-75.6209,39.5065],[-75.6197,39.5052],[-75.6153,39.5036],[-75.6082,39.5038],[-75.606,39.5018],[-75.6085,39.5036],[-75.6107,39.5034],[-75.6056,39.5007],[-75.5922,39.4974],[-75.596,39.4936],[-75.5937,39.4943],[-75.592,39.4969],[-75.5877,39.4954],[-75.5882,39.4902],[-75.5926,39.4794],[-75.5958,39.4793],[-75.6013,39.4768],[-75.6087,39.4778],[-75.6113,39.4803],[-75.6144,39.4808],[-75.6066,39.4759],[-75.5931,39.478],[-75.5921,39.4674],[-75.5894,39.4608],[-75.5802,39.451],[-75.5821,39.4472],[-75.5839,39.4472],[-75.586,39.4492],[-75.5907,39.4489],[-75.5914,39.4459],[-75.5955,39.4459],[-75.5964,39.4489],[-75.6016,39.4474],[-75.6115,39.4538],[-75.6086,39.4616],[-75.6097,39.4639],[-75.6168,39.4676],[-75.6201,39.4677],[-75.6216,39.4665],[-75.6246,39.468],[-75.6262,39.4663],[-75.6253,39.4629],[-75.6341,39.4636],[-75.6363,39.4609],[-75.641,39.4618],[-75.647,39.4594],[-75.6494,39.455],[-75.6555,39.4527],[-75.6541,39.4483],[-75.6569,39.4494],[-75.6565,39.4477],[-75.6603,39.4462],[-75.6591,39.4444],[-75.6614,39.4451],[-75.6648,39.4436],[-75.6645,39.4415],[-75.6664,39.4385],[-75.6707,39.4398],[-75.6721,39.4417],[-75.6742,39.4409],[-75.6732,39.4398],[-75.6749,39.4381],[-75.6753,39.4397],[-75.6778,39.4385],[-75.6817,39.4398],[-75.683,39.4391],[-75.6807,39.4392],[-75.6796,39.4379],[-75.6759,39.4391],[-75.676,39.4378],[-75.6742,39.4375],[-75.6725,39.4409],[-75.6712,39.4393],[-75.665,39.438],[-75.6656,39.4392],[-75.6637,39.4393],[-75.6643,39.4434],[-75.6614,39.4446],[-75.6591,39.4438],[-75.6584,39.4451],[-75.6596,39.4459],[-75.6559,39.4475],[-75.6564,39.4488],[-75.6536,39.4478],[-75.6546,39.4524],[-75.6504,39.4535],[-75.6467,39.4589],[-75.6409,39.4613],[-75.636,39.46],[-75.6335,39.463],[-75.6251,39.462],[-75.6243,39.4637],[-75.6254,39.466],[-75.624,39.4672],[-75.6221,39.4658],[-75.6179,39.467],[-75.6101,39.463],[-75.6101,39.4586],[-75.6127,39.4556],[-75.6122,39.4531],[-75.6088,39.4521],[-75.6013,39.4465],[-75.597,39.4479],[-75.5956,39.4449],[-75.5911,39.4451],[-75.5898,39.4461],[-75.5902,39.4477],[-75.586,39.4483],[-75.5831,39.4465],[-75.5791,39.448],[-75.578,39.4461],[-75.5732,39.4453],[-75.5705,39.4426],[-75.5738,39.441],[-75.5752,39.4385],[-75.5784,39.4405],[-75.5812,39.4391],[-75.5799,39.4367],[-75.583,39.4353],[-75.5809,39.4319],[-75.5845,39.4313],[-75.587,39.4323],[-75.5926,39.4309],[-75.5934,39.4326],[-75.5958,39.4326],[-75.5967,39.4298],[-75.5973,39.4306],[-75.599,39.4301],[-75.6014,39.4313],[-75.5995,39.4278],[-75.6017,39.4267],[-75.5996,39.4255],[-75.6021,39.423],[-75.6023,39.4208],[-75.6128,39.416],[-75.6102,39.414],[-75.6062,39.4156],[-75.6053,39.4126],[-75.6027,39.4149],[-75.6027,39.4112],[-75.6002,39.4094],[-75.601,39.4073],[-75.5991,39.4064],[-75.5995,39.4034],[-75.5965,39.4018],[-75.5978,39.4],[-75.5964,39.3967],[-75.5976,39.3943],[-75.6019,39.3929],[-75.6025,39.3949],[-75.6053,39.3956],[-75.6066,39.3939],[-75.6091,39.3948],[-75.6158,39.3934],[-75.6165,39.3965],[-75.618,39.3972],[-75.6175,39.3959],[-75.6195,39.3959],[-75.62,39.3937],[-75.6219,39.394],[-75.6246,39.3922],[-75.6229,39.3909],[-75.6242,39.3903],[-75.6238,39.3887],[-75.6318,39.3856],[-75.6343,39.3888],[-75.6376,39.3885],[-75.6385,39.3846],[-75.6403,39.3858],[-75.643,39.3839],[-75.6422,39.3826],[-75.6468,39.3817],[-75.6469,39.3789],[-75.6443,39.3773],[-75.6483,39.3764],[-75.6477,39.3756],[-75.6437,39.3768],[-75.6455,39.3814],[-75.6423,39.3817],[-75.6403,39.3852],[-75.6383,39.384],[-75.6369,39.3882],[-75.6331,39.3872],[-75.6334,39.3853],[-75.6316,39.3841],[-75.6225,39.3887],[-75.6222,39.3926],[-75.6201,39.393],[-75.6189,39.3948],[-75.6168,39.3946],[-75.6167,39.3932],[-75.615,39.3931],[-75.6057,39.3846],[-75.6011,39.3737],[-75.6074,39.3719],[-75.608,39.3699],[-75.6162,39.3667],[-75.6186,39.3627],[-75.6254,39.3577],[-75.6257,39.3542],[-75.6292,39.3544],[-75.6322,39.3517],[-75.6319,39.3484],[-75.6418,39.3507],[-75.6604,39.3421],[-75.6612,39.3443],[-75.6641,39.3435],[-75.6649,39.3446],[-75.6641,39.3395],[-75.6854,39.3376],[-75.685,39.3308],[-75.6977,39.3337],[-75.7029,39.3361],[-75.7183,39.3463],[-75.7256,39.3529],[-75.7296,39.3541],[-75.745,39.3575],[-75.7586,39.3485],[-75.7643,39.3493],[-75.7793,39.5345],[-75.7738,39.5339],[-75.7562,39.539],[-75.7276,39.5404],[-75.712,39.5426],[-75.6843,39.5409],[-75.6716,39.5429]]],[[[-75.7002,39.5469],[-75.6937,39.5446],[-75.693,39.543],[-75.7105,39.5444],[-75.7002,39.5469]]],[[[-75.7702,39.586],[-75.7578,39.5896],[-75.758,39.5921],[-75.7416,39.5932],[-75.7422,39.5878],[-75.7336,39.5882],[-75.7322,39.585],[-75.7283,39.5841],[-75.7279,39.5827],[-75.7232,39.5831],[-75.723,39.5862],[-75.72,39.5859],[-75.7201,39.5834],[-75.7136,39.5839],[-75.7131,39.5789],[-75.7103,39.5758],[-75.7099,39.5729],[-75.7129,39.5726],[-75.7087,39.5631],[-75.7102,39.5597],[-75.7094,39.5558],[-75.7064,39.5522],[-75.7032,39.5506],[-75.7031,39.5489],[-75.7109,39.5474],[-75.7106,39.5463],[-75.7222,39.5429],[-75.7546,39.5411],[-75.7695,39.5367],[-75.7794,39.5362],[-75.7838,39.5905],[-75.7741,39.5947],[-75.7702,39.586]]]]}},{"type":"Feature","properties":{"leaid":"1000170","name":"Cape Henlopen School District","kind":"Unified","gradeLow":"PK","gradeHigh":"12","state":"DE"},"geometry":{"type":"MultiPolygon","coordinates":[[[[-75.0897,38.6094],[-75.0916,38.6091],[-75.0931,38.6081],[-75.0914,38.6101],[-75.0897,38.6094]]],[[[-75.0928,38.6175],[-75.0945,38.6171],[-75.0953,38.6174],[-75.0941,38.6184],[-75.0928,38.6175]]],[[[-75.0702,38.6226],[-75.0703,38.6177],[-75.0711,38.6187],[-75.0743,38.6179],[-75.0745,38.6149],[-75.0768,38.6143],[-75.0756,38.6115],[-75.0777,38.6098],[-75.0849,38.6099],[-75.0912,38.6159],[-75.0844,38.6195],[-75.0814,38.6181],[-75.0833,38.6183],[-75.0841,38.6169],[-75.0799,38.616],[-75.0794,38.618],[-75.0777,38.6176],[-75.0785,38.6187],[-75.0771,38.6204],[-75.0785,38.6208],[-75.0762,38.6257],[-75.0702,38.6226]]],[[[-75.0761,38.6314],[-75.0772,38.6314],[-75.0783,38.6331],[-75.0768,38.6329],[-75.0761,38.6314]]],[[[-75.0759,38.6496],[-75.0785,38.6502],[-75.0789,38.6509],[-75.0774,38.6508],[-75.0759,38.6496]]],[[[-75.126,38.6694],[-75.1284,38.669],[-75.1278,38.6699],[-75.126,38.6694]]],[[[-75.2576,38.8731],[-75.232,38.8442],[-75.2062,38.8245],[-75.189,38.8055],[-75.1607,38.7907],[-75.1673,38.7923],[-75.1758,38.797],[-75.1813,38.7985],[-75.1922,38.8067],[-75.1992,38.803],[-75.2039,38.8029],[-75.2058,38.8036],[-75.2055,38.8072],[-75.2073,38.8085],[-75.2108,38.808],[-75.2156,38.8101],[-75.2166,38.8092],[-75.2163,38.8062],[-75.2232,38.8061],[-75.224,38.8069],[-75.2226,38.8083],[-75.2229,38.8098],[-75.2294,38.8103],[-75.2301,38.8095],[-75.2295,38.8077],[-75.2322,38.8064],[-75.2342,38.8071],[-75.2382,38.8051],[-75.2394,38.8061],[-75.2422,38.8062],[-75.2457,38.7974],[-75.249,38.7988],[-75.2508,38.7982],[-75.2523,38.7945],[-75.2496,38.7923],[-75.253,38.7903],[-75.2535,38.7888],[-75.2489,38.7925],[-75.2493,38.7942],[-75.2515,38.7948],[-75.2505,38.7979],[-75.245,38.7973],[-75.2415,38.8058],[-75.2383,38.8044],[-75.2343,38.8065],[-75.232,38.8057],[-75.229,38.8071],[-75.2295,38.8091],[-75.2285,38.8098],[-75.2234,38.8093],[-75.2249,38.8069],[-75.2242,38.8057],[-75.2168,38.8053],[-75.2151,38.8067],[-75.2157,38.8091],[-75.2147,38.8095],[-75.2115,38.8075],[-75.2071,38.8077],[-75.2068,38.8038],[-75.2045,38.8023],[-75.1996,38.8023],[-75.1922,38.8051],[-75.182,38.7979],[-75.1633,38.7901],[-75.1548,38.7823],[-75.1483,38.7791],[-75.1421,38.7787],[-75.1386,38.7758],[-75.1386,38.7771],[-75.1412,38.7789],[-75.1484,38.7801],[-75.1542,38.7828],[-75.1599,38.7895],[-75.159,38.7902],[-75.1464,38.7852],[-75.134,38.7822],[-75.1133,38.783],[-75.1047,38.7851],[-75.0971,38.7887],[-75.0958,38.7924],[-75.0936,38.794],[-75.095,38.7941],[-75.0938,38.7968],[-75.0968,38.8006],[-75.0972,38.8031],[-75.0938,38.8038],[-75.0918,38.8021],[-75.0822,38.7721],[-75.0788,38.7342],[-75.0655,38.661],[-75.0652,38.6324],[-75.0619,38.6089],[-75.075,38.6107],[-75.0723,38.6122],[-75.0725,38.6177],[-75.0705,38.617],[-75.0705,38.6135],[-75.0675,38.6128],[-75.0668,38.6183],[-75.0687,38.6185],[-75.067,38.6196],[-75.0668,38.6214],[-75.072,38.6251],[-75.0767,38.6265],[-75.0735,38.6319],[-75.0719,38.6325],[-75.0742,38.6336],[-75.074,38.6356],[-75.0758,38.634],[-75.079,38.6341],[-75.0819,38.6388],[-75.0792,38.6429],[-75.082,38.6453],[-75.0795,38.6479],[-75.081,38.6487],[-75.074,38.6485],[-75.0761,38.6508],[-75.0744,38.6507],[-75.0765,38.6521],[-75.0727,38.6517],[-75.0743,38.6524],[-75.072,38.6532],[-75.0764,38.6531],[-75.0749,38.6539],[-75.0773,38.6555],[-75.0726,38.6586],[-75.0723,38.6676],[-75.0758,38.6809],[-75.0756,38.6877],[-75.0789,38.6929],[-75.0779,38.6944],[-75.0854,38.6945],[-75.0876,38.6928],[-75.094,38.6945],[-75.0902,38.691],[-75.09,38.6871],[-75.0972,38.6888],[-75.097,38.69],[-75.1038,38.6905],[-75.1069,38.6927],[-75.1064,38.6953],[-75.1093,38.6973],[-75.1059,38.7002],[-75.1041,38.7035],[-75.1051,38.7039],[-75.1089,38.6989],[-75.11,38.6993],[-75.1089,38.7005],[-75.1108,38.701],[-75.1129,38.6994],[-75.1106,38.7003],[-75.1122,38.6984],[-75.1101,38.6988],[-75.1101,38.6971],[-75.1073,38.6946],[-75.1075,38.6927],[-75.1061,38.6905],[-75.1075,38.688],[-75.1163,38.6906],[-75.1195,38.6958],[-75.12,38.6993],[-75.1202,38.6971],[-75.1214,38.6974],[-75.1192,38.6919],[-75.1206,38.6904],[-75.118,38.685],[-75.1215,38.6866],[-75.1223,38.6886],[-75.1237,38.6883],[-75.1197,38.6845],[-75.1233,38.6865],[-75.1288,38.6867],[-75.1342,38.6888],[-75.1341,38.6899],[-75.1319,38.6883],[-75.1292,38.6875],[-75.1331,38.6896],[-75.1341,38.6923],[-75.137,38.6946],[-75.1365,38.6979],[-75.1375,38.6942],[-75.1353,38.6916],[-75.1357,38.6902],[-75.1435,38.6936],[-75.1504,38.6942],[-75.1589,38.699],[-75.1622,38.7043],[-75.1673,38.7057],[-75.1672,38.709],[-75.1677,38.7077],[-75.1728,38.7094],[-75.1767,38.7129],[-75.1818,38.7129],[-75.1795,38.7116],[-75.1768,38.7123],[-75.1745,38.7098],[-75.1703,38.7085],[-75.1677,38.7052],[-75.166,38.7044],[-75.1666,38.7033],[-75.1634,38.7039],[-75.1596,38.6989],[-75.1453,38.6892],[-75.1374,38.6815],[-75.1363,38.6787],[-75.1351,38.6786],[-75.1349,38.6743],[-75.1321,38.6716],[-75.1337,38.6685],[-75.1323,38.6667],[-75.132,38.6622],[-75.1366,38.6619],[-75.132,38.6617],[-75.1311,38.6601],[-75.1323,38.66],[-75.1319,38.659],[-75.1292,38.6575],[-75.1274,38.6546],[-75.1257,38.6544],[-75.1253,38.6501],[-75.1265,38.649],[-75.1261,38.6518],[-75.1279,38.6533],[-75.1318,38.6504],[-75.1315,38.6489],[-75.1289,38.6486],[-75.1263,38.6431],[-75.1311,38.6419],[-75.133,38.6436],[-75.1379,38.6434],[-75.1383,38.6457],[-75.1424,38.6455],[-75.1417,38.6478],[-75.1391,38.6476],[-75.1414,38.6484],[-75.1421,38.6507],[-75.1429,38.6487],[-75.1446,38.6488],[-75.1425,38.648],[-75.144,38.6472],[-75.1459,38.6486],[-75.1461,38.65],[-75.1441,38.6498],[-75.1449,38.6514],[-75.1487,38.6511],[-75.1474,38.6523],[-75.1475,38.6542],[-75.1492,38.6535],[-75.1489,38.6545],[-75.1517,38.6558],[-75.1536,38.6548],[-75.1576,38.6581],[-75.1599,38.6573],[-75.1621,38.66],[-75.1627,38.6583],[-75.1686,38.6588],[-75.1759,38.6643],[-75.1823,38.667],[-75.1818,38.6649],[-75.176,38.6627],[-75.17,38.6571],[-75.1755,38.6557],[-75.1795,38.6566],[-75.1819,38.6591],[-75.1898,38.6591],[-75.1943,38.6616],[-75.1997,38.6595],[-75.2084,38.6585],[-75.2147,38.6498],[-75.2586,38.6479],[-75.2535,38.6565],[-75.271,38.7286],[-75.2694,38.7389],[-75.3158,38.7298],[-75.3225,38.7316],[-75.3239,38.7352],[-75.3623,38.7226],[-75.3776,38.7239],[-75.4007,38.7449],[-75.4006,38.7467],[-75.4024,38.7485],[-75.4065,38.7508],[-75.4052,38.7513],[-75.4056,38.7553],[-75.4157,38.7579],[-75.411,38.7615],[-75.4096,38.7639],[-75.4105,38.7652],[-75.4096,38.7676],[-75.4073,38.768],[-75.4059,38.7697],[-75.4074,38.7752],[-75.4092,38.7767],[-75.4113,38.7901],[-75.3915,38.7918],[-75.3889,38.7973],[-75.3851,38.7958],[-75.3802,38.8093],[-75.3728,38.8108],[-75.3675,38.814],[-75.3555,38.8144],[-75.3575,38.8183],[-75.3601,38.8184],[-75.3636,38.8211],[-75.3667,38.8267],[-75.3659,38.8333],[-75.367,38.8333],[-75.3689,38.8389],[-75.3676,38.8404],[-75.3691,38.8453],[-75.3923,38.8557],[-75.3931,38.8548],[-75.4005,38.8614],[-75.3964,38.8644],[-75.3808,38.8666],[-75.3764,38.8697],[-75.3746,38.8727],[-75.3622,38.8777],[-75.3555,38.8685],[-75.3548,38.8629],[-75.3483,38.8598],[-75.3441,38.8472],[-75.3345,38.8475],[-75.3171,38.8528],[-75.3069,38.8508],[-75.2955,38.8571],[-75.2928,38.8603],[-75.2855,38.8622],[-75.2845,38.8611],[-75.2808,38.8629],[-75.2787,38.8658],[-75.2741,38.8666],[-75.2735,38.8702],[-75.2758,38.8768],[-75.2683,38.8811],[-75.2576,38.8731]]]]}},{"type":"Feature","properties":{"leaid":"1000180","name":"Caesar Rodney School District","kind":"Unified","gradeLow":"PK","gradeHigh":"12","state":"DE"},"geometry":{"type":"MultiPolygon","coordinates":[[[[-75.4048,39.067],[-75.4042,39.0663],[-75.4048,39.067],[-75.4048,39.067]]],[[[-75.4184,39.1613],[-75.4092,39.1593],[-75.4121,39.1522],[-75.4111,39.1473],[-75.4096,39.1463],[-75.4098,39.1405],[-75.4073,39.1298],[-75.4076,39.1222],[-75.4002,39.0982],[-75.4023,39.076],[-75.4015,39.0678],[-75.4025,39.0665],[-75.4039,39.0668],[-75.405,39.0704],[-75.4093,39.0726],[-75.4131,39.0702],[-75.4261,39.07],[-75.4286,39.071],[-75.4307,39.0697],[-75.4445,39.0675],[-75.4484,39.0656],[-75.4486,39.0628],[-75.4543,39.0566],[-75.4595,39.053],[-75.459,39.0513],[-75.4671,39.0497],[-75.472,39.0442],[-75.4761,39.0436],[-75.4769,39.0447],[-75.4804,39.0403],[-75.4841,39.0391],[-75.5029,39.043],[-75.5036,39.0403],[-75.5075,39.0408],[-75.5105,39.0363],[-75.5127,39.0366],[-75.5158,39.0343],[-75.5248,39.0325],[-75.5261,39.0468],[-75.5274,39.0463],[-75.5282,39.0487],[-75.5294,39.049],[-75.536,39.0464],[-75.5378,39.0496],[-75.5405,39.0486],[-75.5418,39.0509],[-75.5435,39.0502],[-75.544,39.0568],[-75.5478,39.0606],[-75.5499,39.059],[-75.5603,39.0571],[-75.5616,39.0586],[-75.5667,39.0541],[-75.5826,39.0527],[-75.5858,39.0605],[-75.5915,39.0667],[-75.6097,39.0612],[-75.6094,39.0538],[-75.6054,39.0456],[-75.6086,39.044],[-75.6109,39.0409],[-75.6239,39.0439],[-75.6293,39.0429],[-75.6324,39.0393],[-75.6454,39.0354],[-75.653,39.0302],[-75.6564,39.0363],[-75.6647,39.033],[-75.6696,39.0361],[-75.6759,39.0357],[-75.6844,39.0317],[-75.6846,39.0285],[-75.6807,39.0228],[-75.6915,39.0229],[-75.7125,39.0284],[-75.7176,39.0312],[-75.7191,39.0336],[-75.7323,39.0319],[-75.7387,39.0297],[-75.7443,39.0997],[-75.7415,39.1011],[-75.7355,39.0966],[-75.7283,39.1001],[-75.7186,39.1005],[-75.7222,39.1062],[-75.7188,39.1064],[-75.7159,39.1039],[-75.7137,39.1051],[-75.7122,39.1017],[-75.7109,39.102],[-75.7089,39.1078],[-75.7057,39.1072],[-75.7035,39.1131],[-75.7057,39.1128],[-75.707,39.1162],[-75.7126,39.1182],[-75.7099,39.122],[-75.693,39.1145],[-75.6867,39.1192],[-75.6853,39.1173],[-75.6766,39.1177],[-75.6774,39.1196],[-75.6734,39.1229],[-75.6708,39.1199],[-75.6594,39.1227],[-75.6631,39.1322],[-75.6733,39.1316],[-75.6718,39.1401],[-75.6697,39.1404],[-75.6669,39.1364],[-75.6609,39.1371],[-75.6596,39.1356],[-75.6583,39.1357],[-75.657,39.1385],[-75.6532,39.1371],[-75.6529,39.1382],[-75.6461,39.1371],[-75.6448,39.1385],[-75.6455,39.1402],[-75.6405,39.1407],[-75.6408,39.1378],[-75.637,39.1382],[-75.636,39.1358],[-75.6304,39.1374],[-75.6297,39.1417],[-75.6322,39.1422],[-75.6285,39.1469],[-75.6223,39.1471],[-75.624,39.1424],[-75.6196,39.143],[-75.6211,39.137],[-75.6199,39.1379],[-75.6184,39.136],[-75.6152,39.139],[-75.6081,39.1388],[-75.6077,39.1324],[-75.6052,39.1332],[-75.6049,39.1291],[-75.5972,39.1183],[-75.5943,39.1198],[-75.5915,39.1234],[-75.5934,39.1237],[-75.5983,39.1289],[-75.5985,39.1299],[-75.5951,39.1306],[-75.5992,39.1392],[-75.5976,39.1394],[-75.598,39.1416],[-75.5957,39.1432],[-75.5968,39.147],[-75.5883,39.139],[-75.5865,39.1397],[-75.587,39.1272],[-75.576,39.1265],[-75.575,39.1369],[-75.5646,39.1363],[-75.5607,39.1402],[-75.5571,39.1414],[-75.5331,39.1399],[-75.5297,39.1349],[-75.5247,39.1391],[-75.5142,39.1389],[-75.5088,39.1408],[-75.5049,39.1375],[-75.5069,39.1346],[-75.5056,39.1321],[-75.5016,39.1293],[-75.4968,39.1302],[-75.4955,39.1292],[-75.4978,39.1263],[-75.4934,39.1247],[-75.4895,39.1271],[-75.4928,39.1308],[-75.4919,39.1312],[-75.4946,39.1361],[-75.4873,39.1438],[-75.4734,39.136],[-75.4699,39.1358],[-75.4694,39.1393],[-75.4669,39.1388],[-75.4659,39.1488],[-75.459,39.1485],[-75.4598,39.1461],[-75.4588,39.1461],[-75.4589,39.1442],[-75.457,39.1436],[-75.4527,39.1493],[-75.451,39.1539],[-75.4444,39.1507],[-75.4424,39.1604],[-75.4379,39.1608],[-75.4269,39.1584],[-75.4184,39.1613]]]]}},{"type":"Feature","properties":{"leaid":"1000190","name":"Capital School District","kind":"Unified","gradeLow":"PK","gradeHigh":"12","state":"DE"},"geometry":{"type":"MultiPolygon","coordinates":[[[[-75.4164,39.2355],[-75.4187,39.2341],[-75.4203,39.2345],[-75.4163,39.2363],[-75.4155,39.2393],[-75.4164,39.2355]]],[[[-75.4595,39.2442],[-75.4601,39.2442],[-75.4603,39.2443],[-75.4595,39.2442]]],[[[-75.4553,39.2444],[-75.4557,39.2442],[-75.4559,39.2443],[-75.4553,39.2444]]],[[[-75.4574,39.2445],[-75.4561,39.2443],[-75.4576,39.2445],[-75.4574,39.2445]]],[[[-75.4518,39.2449],[-75.4515,39.2448],[-75.4533,39.2451],[-75.4518,39.2449]]],[[[-75.5185,39.246],[-75.5192,39.2459],[-75.5189,39.246],[-75.5185,39.246]]],[[[-75.4335,39.2459],[-75.4279,39.2447],[-75.4329,39.2453],[-75.4341,39.2431],[-75.444,39.2422],[-75.4486,39.2422],[-75.4492,39.2426],[-75.4347,39.2436],[-75.4335,39.2459]]],[[[-75.4126,39.2462],[-75.4047,39.2459],[-75.4126,39.2457],[-75.4152,39.2443],[-75.4162,39.2416],[-75.4164,39.2438],[-75.4151,39.2452],[-75.4126,39.2462]]],[[[-75.491,39.2467],[-75.4927,39.2466],[-75.4947,39.2454],[-75.4953,39.2455],[-75.493,39.2466],[-75.4926,39.2467],[-75.4916,39.2467],[-75.491,39.2468],[-75.491,39.2467]]],[[[-75.4967,39.2472],[-75.4966,39.2471],[-75.4969,39.2471],[-75.4967,39.2472]]],[[[-75.4664,39.248],[-75.4663,39.2479],[-75.4667,39.2481],[-75.4664,39.248]]],[[[-75.5023,39.2488],[-75.5015,39.2485],[-75.503,39.2485],[-75.5023,39.2488]]],[[[-75.4898,39.2496],[-75.4863,39.2484],[-75.4818,39.2484],[-75.4856,39.2482],[-75.4894,39.2494],[-75.4912,39.2485],[-75.4906,39.2493],[-75.4898,39.2496]]],[[[-75.5395,39.2515],[-75.5395,39.2515],[-75.5395,39.2515],[-75.5395,39.2515]]],[[[-75.5309,39.2516],[-75.5246,39.2488],[-75.5258,39.2477],[-75.5247,39.2457],[-75.5171,39.245],[-75.5151,39.2416],[-75.5092,39.2447],[-75.5035,39.2459],[-75.5027,39.2481],[-75.5012,39.2462],[-75.4967,39.2465],[-75.495,39.2447],[-75.4902,39.2461],[-75.4897,39.2488],[-75.4855,39.2476],[-75.4793,39.248],[-75.477,39.2484],[-75.4758,39.2501],[-75.4712,39.2501],[-75.4604,39.2436],[-75.4534,39.2444],[-75.4512,39.2439],[-75.4497,39.2419],[-75.4342,39.2423],[-75.4323,39.2447],[-75.4289,39.2445],[-75.425,39.2405],[-75.4223,39.235],[-75.4195,39.2332],[-75.4169,39.2336],[-75.4146,39.2359],[-75.4146,39.2433],[-75.4116,39.2445],[-75.4062,39.2439],[-75.4021,39.2392],[-75.4016,39.2312],[-75.4043,39.225],[-75.406,39.2237],[-75.4163,39.2228],[-75.4239,39.2143],[-75.4263,39.2132],[-75.4318,39.214],[-75.4321,39.2209],[-75.434,39.2226],[-75.4394,39.2235],[-75.4427,39.2216],[-75.4451,39.2231],[-75.4479,39.2218],[-75.4519,39.2237],[-75.4496,39.2249],[-75.4494,39.2263],[-75.4507,39.2277],[-75.4554,39.2293],[-75.4541,39.2301],[-75.4519,39.2349],[-75.4528,39.2374],[-75.4559,39.2379],[-75.4594,39.2362],[-75.4627,39.2385],[-75.4648,39.2387],[-75.4659,39.241],[-75.4685,39.2391],[-75.4661,39.2404],[-75.464,39.2376],[-75.4599,39.2357],[-75.4532,39.237],[-75.4523,39.2355],[-75.4564,39.2289],[-75.45,39.2262],[-75.4524,39.2233],[-75.4485,39.221],[-75.4456,39.2224],[-75.4425,39.2208],[-75.4394,39.2226],[-75.4338,39.2217],[-75.4332,39.2145],[-75.4309,39.2126],[-75.4246,39.2127],[-75.4135,39.2228],[-75.4045,39.2226],[-75.3969,39.2161],[-75.3964,39.2103],[-75.3929,39.2029],[-75.3954,39.1874],[-75.3986,39.1866],[-75.3969,39.1906],[-75.4038,39.1957],[-75.4058,39.2066],[-75.4117,39.2092],[-75.4136,39.2056],[-75.4167,39.2039],[-75.4192,39.2044],[-75.4167,39.203],[-75.4153,39.1999],[-75.4157,39.1969],[-75.4206,39.196],[-75.42,39.1953],[-75.4151,39.1965],[-75.4144,39.2014],[-75.4158,39.2037],[-75.4129,39.2052],[-75.4117,39.2083],[-75.4067,39.2063],[-75.405,39.1954],[-75.3976,39.1897],[-75.4083,39.1746],[-75.4096,39.1661],[-75.4079,39.161],[-75.4092,39.1593],[-75.4116,39.1593],[-75.4184,39.1613],[-75.4269,39.1584],[-75.4379,39.1608],[-75.4424,39.1604],[-75.4444,39.1507],[-75.451,39.1539],[-75.4527,39.1493],[-75.457,39.1436],[-75.4589,39.1442],[-75.4588,39.1461],[-75.4598,39.1461],[-75.459,39.1485],[-75.4659,39.1488],[-75.4669,39.1388],[-75.4694,39.1393],[-75.4699,39.1358],[-75.4734,39.136],[-75.4873,39.1438],[-75.4946,39.1361],[-75.4919,39.1312],[-75.4928,39.1308],[-75.4895,39.1271],[-75.4934,39.1247],[-75.4978,39.1263],[-75.4955,39.1292],[-75.4968,39.1302],[-75.5016,39.1293],[-75.5056,39.1321],[-75.5069,39.1346],[-75.5049,39.1375],[-75.5088,39.1408],[-75.5142,39.1389],[-75.5247,39.1391],[-75.5297,39.1349],[-75.5331,39.1399],[-75.5571,39.1414],[-75.5607,39.1402],[-75.5646,39.1363],[-75.575,39.1369],[-75.576,39.1265],[-75.587,39.1272],[-75.5865,39.1397],[-75.5883,39.139],[-75.5968,39.147],[-75.5957,39.1432],[-75.598,39.1416],[-75.5976,39.1394],[-75.5992,39.1392],[-75.5951,39.1306],[-75.5985,39.1299],[-75.5983,39.1289],[-75.5934,39.1237],[-75.5915,39.1234],[-75.5943,39.1198],[-75.5972,39.1183],[-75.6049,39.1291],[-75.6052,39.1332],[-75.6077,39.1324],[-75.6081,39.1388],[-75.6152,39.139],[-75.6184,39.136],[-75.6199,39.1379],[-75.6211,39.137],[-75.6196,39.143],[-75.624,39.1424],[-75.6223,39.1471],[-75.6285,39.1469],[-75.6322,39.1422],[-75.6297,39.1417],[-75.6304,39.1374],[-75.636,39.1358],[-75.637,39.1382],[-75.6408,39.1378],[-75.6405,39.1407],[-75.6455,39.1402],[-75.6448,39.1385],[-75.6461,39.1371],[-75.6529,39.1382],[-75.6532,39.1371],[-75.657,39.1385],[-75.6583,39.1357],[-75.6596,39.1356],[-75.6609,39.1371],[-75.6669,39.1364],[-75.6697,39.1404],[-75.6718,39.1401],[-75.6733,39.1316],[-75.6631,39.1322],[-75.6594,39.1227],[-75.6708,39.1199],[-75.6734,39.1229],[-75.6774,39.1196],[-75.6766,39.1177],[-75.6853,39.1173],[-75.6867,39.1192],[-75.693,39.1145],[-75.7099,39.122],[-75.7126,39.1182],[-75.707,39.1162],[-75.7057,39.1128],[-75.7035,39.1131],[-75.7057,39.1072],[-75.7089,39.1078],[-75.7109,39.102],[-75.7122,39.1017],[-75.7137,39.1051],[-75.7159,39.1039],[-75.7188,39.1064],[-75.7222,39.1062],[-75.7186,39.1005],[-75.7283,39.1001],[-75.7355,39.0966],[-75.7415,39.1011],[-75.7443,39.0997],[-75.751,39.1836],[-75.7454,39.1859],[-75.7405,39.1857],[-75.7324,39.1901],[-75.733,39.1907],[-75.7306,39.1923],[-75.7269,39.1824],[-75.7245,39.1807],[-75.7206,39.1815],[-75.7184,39.18],[-75.7152,39.1817],[-75.7238,39.1865],[-75.7232,39.1875],[-75.7187,39.1902],[-75.7004,39.1925],[-75.6884,39.2048],[-75.6847,39.2043],[-75.6881,39.1991],[-75.6855,39.198],[-75.6847,39.1959],[-75.6809,39.1959],[-75.682,39.1909],[-75.6738,39.1867],[-75.6731,39.1879],[-75.6687,39.185],[-75.6679,39.1853],[-75.6691,39.1888],[-75.6632,39.1842],[-75.6569,39.1881],[-75.6561,39.1927],[-75.6479,39.1928],[-75.6436,39.1982],[-75.6391,39.1989],[-75.6353,39.1977],[-75.6323,39.2049],[-75.6265,39.2066],[-75.6262,39.2101],[-75.6285,39.2124],[-75.6269,39.215],[-75.6251,39.2143],[-75.6208,39.22],[-75.6192,39.2181],[-75.6121,39.2199],[-75.6125,39.2209],[-75.6106,39.2211],[-75.6122,39.2249],[-75.6103,39.2252],[-75.6103,39.2263],[-75.6081,39.226],[-75.6079,39.2269],[-75.596,39.2299],[-75.6053,39.2445],[-75.5876,39.2441],[-75.5847,39.242],[-75.5812,39.242],[-75.5758,39.2437],[-75.5701,39.2437],[-75.5688,39.2452],[-75.5659,39.2438],[-75.5552,39.2441],[-75.5532,39.2469],[-75.5511,39.2472],[-75.5491,39.251],[-75.5401,39.2511],[-75.5391,39.2488],[-75.5353,39.2486],[-75.5309,39.2516]]],[[[-75.5402,39.2516],[-75.5401,39.2516],[-75.5403,39.2516],[-75.5402,39.2516]]]]}},{"type":"Feature","properties":{"leaid":"1000200","name":"Christina School District","kind":"Unified","gradeLow":"PK","gradeHigh":"12","state":"DE"},"geometry":{"type":"MultiPolygon","coordinates":[[[[-75.5569,39.7357],[-75.5474,39.7327],[-75.5352,39.7351],[-75.5339,39.7344],[-75.5351,39.7282],[-75.5437,39.7263],[-75.5448,39.7224],[-75.5533,39.7257],[-75.5544,39.7248],[-75.5551,39.7263],[-75.5606,39.7285],[-75.5607,39.7304],[-75.5569,39.7357]]],[[[-75.5345,39.7358],[-75.5331,39.7351],[-75.5363,39.7362],[-75.5345,39.7358]]],[[[-75.5368,39.7399],[-75.5373,39.7434],[-75.5316,39.7461],[-75.5287,39.7442],[-75.5368,39.7399]]],[[[-75.5398,39.7473],[-75.5398,39.7473],[-75.5398,39.7473],[-75.5398,39.7473]]],[[[-75.5399,39.7485],[-75.5409,39.7496],[-75.5439,39.7503],[-75.5416,39.75],[-75.5408,39.7496],[-75.5399,39.7485]]],[[[-75.5484,39.7481],[-75.5467,39.7496],[-75.5415,39.7492],[-75.5375,39.7394],[-75.5426,39.7369],[-75.541,39.7355],[-75.5441,39.7341],[-75.5472,39.7338],[-75.5555,39.7367],[-75.5591,39.7355],[-75.5613,39.7309],[-75.5619,39.7257],[-75.5639,39.7256],[-75.5646,39.7237],[-75.5644,39.7289],[-75.5669,39.7293],[-75.5665,39.7318],[-75.5692,39.7285],[-75.5705,39.7292],[-75.5771,39.7419],[-75.5802,39.7374],[-75.5843,39.7392],[-75.5829,39.7413],[-75.5776,39.7427],[-75.5746,39.7469],[-75.5613,39.7414],[-75.5547,39.751],[-75.5484,39.7481]]],[[[-75.7418,39.761],[-75.7402,39.7554],[-75.7282,39.7565],[-75.7234,39.7515],[-75.7174,39.7488],[-75.7182,39.7454],[-75.7162,39.7416],[-75.7114,39.7402],[-75.7085,39.7346],[-75.702,39.7286],[-75.6991,39.7196],[-75.6932,39.7107],[-75.6947,39.7033],[-75.6895,39.7061],[-75.688,39.7048],[-75.6869,39.7054],[-75.6826,39.6994],[-75.6781,39.697],[-75.6794,39.6922],[-75.6782,39.6926],[-75.6747,39.6895],[-75.6656,39.6788],[-75.6627,39.6772],[-75.6603,39.6727],[-75.6566,39.6712],[-75.6568,39.6695],[-75.6587,39.6698],[-75.6589,39.6688],[-75.6553,39.6682],[-75.6549,39.6655],[-75.65,39.6649],[-75.6438,39.6662],[-75.6433,39.6619],[-75.6394,39.6591],[-75.6496,39.6561],[-75.6499,39.6551],[-75.6469,39.6534],[-75.6499,39.6499],[-75.6502,39.6448],[-75.6531,39.6384],[-75.6534,39.6334],[-75.6517,39.6327],[-75.6871,39.613],[-75.6935,39.5864],[-75.6946,39.5857],[-75.7201,39.5834],[-75.72,39.5859],[-75.723,39.5862],[-75.7232,39.5831],[-75.7279,39.5827],[-75.7283,39.5841],[-75.7322,39.585],[-75.7336,39.5882],[-75.7422,39.5878],[-75.7416,39.5932],[-75.758,39.5921],[-75.7578,39.5896],[-75.7702,39.5859],[-75.7741,39.5947],[-75.7838,39.5905],[-75.7889,39.6536],[-75.7886,39.7222],[-75.7738,39.7222],[-75.7644,39.7409],[-75.7514,39.7595],[-75.7428,39.7597],[-75.7418,39.761]]]]}},{"type":"Feature","properties":{"leaid":"1000230","name":"Colonial School District","kind":"Unified","gradeLow":"PK","gradeHigh":"12","state":"DE"},"geometry":{"type":"MultiPolygon","coordinates":[[[[-75.5908,39.4965],[-75.5906,39.4963],[-75.5909,39.4965],[-75.5908,39.4965]]],[[[-75.5916,39.4969],[-75.5916,39.4968],[-75.5916,39.4969],[-75.5916,39.4969]]],[[[-75.5272,39.4998],[-75.5277,39.499],[-75.5279,39.4981],[-75.5281,39.4981],[-75.528,39.4993],[-75.5272,39.4998]]],[[[-75.5684,39.5013],[-75.5693,39.5006],[-75.5691,39.5013],[-75.5684,39.5013]]],[[[-75.5426,39.4966],[-75.5418,39.5004],[-75.5393,39.5026],[-75.5383,39.4969],[-75.5426,39.4966]]],[[[-75.5666,39.5084],[-75.5646,39.5141],[-75.5607,39.5205],[-75.5612,39.5155],[-75.5666,39.5084]]],[[[-75.5282,39.5356],[-75.5282,39.5356],[-75.5292,39.5361],[-75.5282,39.5356]]],[[[-75.5656,39.5583],[-75.5694,39.5406],[-75.5719,39.5418],[-75.5697,39.5428],[-75.5697,39.5443],[-75.5728,39.5418],[-75.5692,39.5389],[-75.5689,39.5344],[-75.5725,39.5167],[-75.5771,39.5072],[-75.5868,39.4987],[-75.5878,39.496],[-75.5944,39.5001],[-75.6051,39.5013],[-75.6087,39.504],[-75.6153,39.5036],[-75.6197,39.5052],[-75.6209,39.5065],[-75.621,39.5107],[-75.624,39.5135],[-75.6316,39.5138],[-75.6366,39.5096],[-75.6465,39.5047],[-75.6527,39.5048],[-75.6553,39.5077],[-75.6557,39.5101],[-75.6609,39.5114],[-75.6687,39.5221],[-75.6649,39.5251],[-75.6691,39.5261],[-75.6698,39.5302],[-75.6635,39.5308],[-75.662,39.5298],[-75.6597,39.5318],[-75.6634,39.5329],[-75.664,39.5343],[-75.6657,39.5341],[-75.6692,39.5381],[-75.6704,39.537],[-75.6722,39.5398],[-75.6719,39.5427],[-75.6627,39.5449],[-75.6492,39.552],[-75.6367,39.5538],[-75.6204,39.5517],[-75.6199,39.5489],[-75.6181,39.5518],[-75.5782,39.558],[-75.5656,39.5583]]],[[[-75.512,39.5675],[-75.5147,39.5626],[-75.5131,39.5658],[-75.512,39.5675]]],[[[-75.5314,39.5888],[-75.5271,39.5841],[-75.5261,39.5842],[-75.5246,39.5841],[-75.5221,39.5834],[-75.5206,39.5835],[-75.5182,39.5829],[-75.5147,39.5809],[-75.5127,39.578],[-75.5196,39.5832],[-75.5216,39.5831],[-75.5277,39.5841],[-75.5305,39.5868],[-75.5314,39.5882],[-75.5315,39.5886],[-75.5327,39.5891],[-75.5314,39.5888]]],[[[-75.5372,39.5924],[-75.5342,39.5902],[-75.5369,39.5919],[-75.5372,39.5924]]],[[[-75.5386,39.594],[-75.5374,39.5935],[-75.5372,39.5932],[-75.5372,39.5925],[-75.5386,39.594]]],[[[-75.541,39.5942],[-75.5411,39.5942],[-75.5411,39.5942],[-75.541,39.5942]]],[[[-75.5397,39.5943],[-75.5395,39.5942],[-75.5397,39.5943],[-75.5397,39.5943]]],[[[-75.5405,39.5943],[-75.5408,39.5943],[-75.5403,39.5943],[-75.5405,39.5943]]],[[[-75.5435,39.5958],[-75.5434,39.5954],[-75.5441,39.5962],[-75.5435,39.5958]]],[[[-75.5657,39.5878],[-75.5649,39.5832],[-75.5758,39.5877],[-75.5787,39.5915],[-75.5794,39.5972],[-75.5811,39.5996],[-75.5667,39.5914],[-75.5649,39.5895],[-75.5657,39.5878]]],[[[-75.5409,39.6455],[-75.5485,39.6378],[-75.5541,39.6357],[-75.5568,39.6333],[-75.5596,39.6254],[-75.5589,39.6185],[-75.5566,39.6115],[-75.557,39.6076],[-75.554,39.6038],[-75.5534,39.6027],[-75.5535,39.6018],[-75.5502,39.6007],[-75.5454,39.5968],[-75.5535,39.6017],[-75.5559,39.6058],[-75.5619,39.6052],[-75.5677,39.6137],[-75.5712,39.6209],[-75.5718,39.6249],[-75.5711,39.6266],[-75.5663,39.6285],[-75.5593,39.6293],[-75.5562,39.6349],[-75.5492,39.6378],[-75.542,39.646],[-75.5351,39.6472],[-75.5262,39.6557],[-75.5335,39.6476],[-75.5409,39.6455]]],[[[-75.5142,39.6683],[-75.5262,39.6565],[-75.5146,39.6686],[-75.5104,39.6803],[-75.511,39.6754],[-75.5142,39.6683]]],[[[-75.5093,39.6848],[-75.51,39.6821],[-75.5093,39.6853],[-75.5093,39.6848]]],[[[-75.5091,39.6862],[-75.5098,39.6867],[-75.5093,39.6924],[-75.5096,39.687],[-75.5091,39.6862]]],[[[-75.5086,39.6949],[-75.5072,39.697],[-75.5067,39.6972],[-75.5086,39.6949]]],[[[-75.5026,39.6987],[-75.5041,39.6983],[-75.5012,39.6994],[-75.5026,39.6987]]],[[[-75.4974,39.7003],[-75.5011,39.6994],[-75.4962,39.7014],[-75.4942,39.7059],[-75.4938,39.7065],[-75.4956,39.7018],[-75.4974,39.7003]]],[[[-75.4928,39.7078],[-75.493,39.7077],[-75.4925,39.7083],[-75.4928,39.7078]]],[[[-75.4924,39.7085],[-75.4915,39.7098],[-75.4921,39.7106],[-75.4918,39.7108],[-75.4914,39.7098],[-75.4924,39.7085]]],[[[-75.6034,39.7111],[-75.6009,39.7098],[-75.6039,39.7111],[-75.6034,39.7111]]],[[[-75.4794,39.7137],[-75.4819,39.7137],[-75.4828,39.7143],[-75.4799,39.7143],[-75.4794,39.7137]]],[[[-75.4785,39.7141],[-75.4782,39.715],[-75.4777,39.715],[-75.4785,39.7141]]],[[[-75.4876,39.7151],[-75.4885,39.7147],[-75.4906,39.7117],[-75.4915,39.7108],[-75.4918,39.7108],[-75.4886,39.7148],[-75.4876,39.7151]]],[[[-75.4831,39.7155],[-75.4836,39.7153],[-75.4848,39.7157],[-75.4831,39.7155]]],[[[-75.4762,39.7194],[-75.4776,39.7151],[-75.4771,39.7249],[-75.4762,39.7194]]],[[[-75.4762,39.727],[-75.4764,39.7266],[-75.4762,39.7271],[-75.4762,39.727]]],[[[-75.4758,39.7278],[-75.476,39.7275],[-75.4758,39.7279],[-75.4758,39.7278]]],[[[-75.5558,39.7267],[-75.5544,39.7248],[-75.5533,39.7257],[-75.5448,39.7224],[-75.5437,39.7263],[-75.5351,39.7282],[-75.5346,39.7238],[-75.5305,39.7208],[-75.5324,39.7178],[-75.53,39.7205],[-75.5203,39.7178],[-75.5226,39.714],[-75.5258,39.7018],[-75.5208,39.6993],[-75.521,39.6983],[-75.525,39.6995],[-75.5301,39.692],[-75.5511,39.6705],[-75.5519,39.6709],[-75.553,39.6688],[-75.5518,39.6672],[-75.5537,39.6673],[-75.5581,39.6638],[-75.5583,39.661],[-75.5591,39.6614],[-75.5622,39.6567],[-75.5667,39.6572],[-75.5871,39.651],[-75.5887,39.6481],[-75.6008,39.6364],[-75.6007,39.6351],[-75.6043,39.6325],[-75.6068,39.627],[-75.6115,39.6245],[-75.6117,39.622],[-75.6152,39.6166],[-75.6119,39.6109],[-75.6144,39.6037],[-75.6119,39.5974],[-75.6046,39.5899],[-75.6165,39.5868],[-75.6194,39.5848],[-75.6091,39.5866],[-75.6036,39.589],[-75.5994,39.5889],[-75.5922,39.5836],[-75.5979,39.5818],[-75.592,39.5832],[-75.5868,39.58],[-75.5866,39.5789],[-75.5887,39.5779],[-75.5931,39.5626],[-75.5916,39.5641],[-75.5888,39.5761],[-75.586,39.5784],[-75.5816,39.5744],[-75.5804,39.574],[-75.579,39.5749],[-75.5785,39.5747],[-75.5801,39.5736],[-75.5795,39.5728],[-75.5663,39.5654],[-75.563,39.5622],[-75.583,39.5584],[-75.6189,39.5538],[-75.6363,39.556],[-75.6424,39.5553],[-75.6507,39.5532],[-75.6648,39.5466],[-75.6827,39.5432],[-75.693,39.543],[-75.6958,39.5457],[-75.703,39.5474],[-75.7106,39.5463],[-75.7109,39.5474],[-75.7031,39.5489],[-75.7031,39.5504],[-75.7094,39.5558],[-75.7102,39.5597],[-75.7087,39.5631],[-75.7129,39.5726],[-75.7099,39.5729],[-75.7103,39.5758],[-75.7131,39.5789],[-75.7136,39.5839],[-75.6935,39.5864],[-75.6871,39.613],[-75.6517,39.6327],[-75.6534,39.6334],[-75.6531,39.6384],[-75.6502,39.6448],[-75.6499,39.6499],[-75.6469,39.6534],[-75.6499,39.6551],[-75.6496,39.6561],[-75.6394,39.6591],[-75.6433,39.6619],[-75.6438,39.6662],[-75.65,39.6649],[-75.6549,39.6655],[-75.6553,39.6682],[-75.6589,39.6688],[-75.6587,39.6698],[-75.6568,39.6695],[-75.6566,39.6712],[-75.6603,39.6727],[-75.6627,39.6772],[-75.6656,39.6788],[-75.6747,39.6895],[-75.6782,39.6926],[-75.6794,39.6922],[-75.6781,39.6955],[-75.6792,39.6977],[-75.6697,39.7],[-75.6656,39.698],[-75.663,39.7014],[-75.658,39.7008],[-75.6554,39.7032],[-75.6545,39.7066],[-75.6514,39.7078],[-75.6455,39.7074],[-75.6501,39.701],[-75.6454,39.6969],[-75.6423,39.698],[-75.6417,39.7003],[-75.6381,39.6993],[-75.6297,39.7015],[-75.6228,39.7],[-75.6222,39.6971],[-75.6202,39.6972],[-75.6125,39.7078],[-75.609,39.7101],[-75.5972,39.7089],[-75.5916,39.7122],[-75.5893,39.7156],[-75.5807,39.7182],[-75.5753,39.7162],[-75.561,39.719],[-75.5597,39.7201],[-75.5594,39.7231],[-75.5606,39.7285],[-75.5558,39.7267]]],[[[-75.4754,39.7317],[-75.4751,39.7294],[-75.4757,39.7281],[-75.4754,39.7317]]],[[[-75.5374,39.7393],[-75.5357,39.7382],[-75.5316,39.7391],[-75.5278,39.7378],[-75.5269,39.7358],[-75.5284,39.733],[-75.5307,39.7336],[-75.5289,39.7328],[-75.5303,39.7324],[-75.5345,39.7358],[-75.5374,39.7366],[-75.541,39.7355],[-75.5426,39.7369],[-75.5374,39.7393]]],[[[-75.4724,39.7387],[-75.4708,39.7419],[-75.4692,39.7436],[-75.4679,39.7465],[-75.4694,39.7429],[-75.4724,39.7387]]],[[[-75.5173,39.7536],[-75.5194,39.7507],[-75.5158,39.7461],[-75.506,39.7421],[-75.5011,39.7427],[-75.5106,39.7187],[-75.5304,39.724],[-75.5319,39.7304],[-75.5282,39.7323],[-75.5261,39.7358],[-75.5267,39.7385],[-75.5321,39.74],[-75.5348,39.7389],[-75.5367,39.7396],[-75.5287,39.7442],[-75.5316,39.7461],[-75.5252,39.752],[-75.5215,39.7535],[-75.5205,39.7521],[-75.5173,39.7536]]]]}},{"type":"Feature","properties":{"leaid":"1000790","name":"Lake Forest School District","kind":"Unified","gradeLow":"PK","gradeHigh":"12","state":"DE"},"geometry":{"type":"MultiPolygon","coordinates":[[[[-75.4016,39.0415],[-75.4044,39.0421],[-75.4067,39.0434],[-75.4044,39.0422],[-75.4016,39.0415]]],[[[-75.406,39.07],[-75.4046,39.0666],[-75.3995,39.0654],[-75.3958,39.0598],[-75.4007,39.0554],[-75.4004,39.053],[-75.398,39.051],[-75.3941,39.0514],[-75.3932,39.0503],[-75.3942,39.0462],[-75.4001,39.0441],[-75.4046,39.0478],[-75.4072,39.0464],[-75.4077,39.0431],[-75.402,39.0403],[-75.4061,39.0366],[-75.406,39.0351],[-75.4101,39.0327],[-75.4106,39.0267],[-75.4129,39.0238],[-75.4177,39.0209],[-75.4232,39.0214],[-75.4312,39.018],[-75.4391,39.0103],[-75.442,39.0109],[-75.4428,39.013],[-75.448,39.0099],[-75.4516,39.012],[-75.4578,39.0106],[-75.461,39.0118],[-75.4631,39.0083],[-75.461,39.006],[-75.4583,39.0064],[-75.4577,39.0034],[-75.461,39.0008],[-75.4636,39.0026],[-75.4657,39.0018],[-75.466,38.999],[-75.4627,38.9973],[-75.4643,38.9959],[-75.4636,38.9943],[-75.4665,38.993],[-75.4689,38.9933],[-75.4694,38.9951],[-75.4738,38.9943],[-75.4747,38.9921],[-75.4737,38.9893],[-75.4761,38.9869],[-75.4743,38.9857],[-75.4752,38.9846],[-75.4739,38.9834],[-75.4769,38.9818],[-75.4803,38.9819],[-75.4784,38.9779],[-75.4818,38.9777],[-75.4826,38.9752],[-75.4856,38.9748],[-75.4845,38.9737],[-75.4892,38.9711],[-75.4949,38.9648],[-75.4995,38.9632],[-75.5034,38.9595],[-75.5063,38.9449],[-75.5097,38.9423],[-75.5094,38.9395],[-75.5208,38.9355],[-75.5154,38.9234],[-75.5154,38.9168],[-75.5436,38.9157],[-75.5428,38.9145],[-75.544,38.9049],[-75.5362,38.9007],[-75.5313,38.8937],[-75.5289,38.8872],[-75.5352,38.8794],[-75.5357,38.8696],[-75.5441,38.8653],[-75.5559,38.8654],[-75.5618,38.864],[-75.5681,38.8674],[-75.5691,38.8692],[-75.5677,38.875],[-75.5698,38.8829],[-75.5689,38.8856],[-75.5662,38.888],[-75.5967,38.8855],[-75.6022,38.8816],[-75.6116,38.8811],[-75.6199,38.8827],[-75.6299,38.882],[-75.6275,38.8771],[-75.6276,38.874],[-75.6311,38.8664],[-75.6352,38.8615],[-75.6545,38.8722],[-75.6574,38.8687],[-75.6697,38.8626],[-75.6784,38.8644],[-75.6818,38.8612],[-75.6839,38.8569],[-75.6923,38.8513],[-75.7,38.8511],[-75.7241,38.8467],[-75.7387,39.0297],[-75.7323,39.0319],[-75.7191,39.0336],[-75.7176,39.0312],[-75.7125,39.0284],[-75.6915,39.0229],[-75.6807,39.0228],[-75.6846,39.0285],[-75.6844,39.0317],[-75.6759,39.0357],[-75.6696,39.0361],[-75.6647,39.033],[-75.6564,39.0363],[-75.653,39.0302],[-75.6454,39.0354],[-75.6324,39.0393],[-75.6293,39.0429],[-75.6239,39.0439],[-75.6109,39.0409],[-75.6086,39.044],[-75.6054,39.0456],[-75.6094,39.0538],[-75.6097,39.0612],[-75.5915,39.0667],[-75.5858,39.0605],[-75.5826,39.0527],[-75.5667,39.0541],[-75.5616,39.0586],[-75.5603,39.0571],[-75.5499,39.059],[-75.5478,39.0606],[-75.544,39.0568],[-75.5435,39.0502],[-75.5418,39.0509],[-75.5405,39.0486],[-75.5378,39.0496],[-75.536,39.0464],[-75.5294,39.049],[-75.5282,39.0487],[-75.5274,39.0463],[-75.5261,39.0468],[-75.5248,39.0325],[-75.5236,39.0325],[-75.5158,39.0343],[-75.5127,39.0366],[-75.5105,39.0363],[-75.5075,39.0408],[-75.5036,39.0403],[-75.5029,39.043],[-75.4841,39.0391],[-75.4804,39.0403],[-75.4769,39.0447],[-75.4761,39.0436],[-75.472,39.0442],[-75.4671,39.0497],[-75.459,39.0513],[-75.4595,39.053],[-75.4543,39.0566],[-75.4486,39.0628],[-75.4484,39.0656],[-75.4445,39.0675],[-75.4307,39.0697],[-75.4286,39.071],[-75.4137,39.0696],[-75.4094,39.0718],[-75.406,39.07]]],[[[-75.4093,39.0726],[-75.4077,39.0721],[-75.41,39.0722],[-75.4093,39.0726]]]]}},{"type":"Feature","properties":{"leaid":"1001080","name":"Milford School District","kind":"Unified","gradeLow":"PK","gradeHigh":"12","state":"DE"},"geometry":{"type":"MultiPolygon","coordinates":[[[[-75.3118,38.9459],[-75.3136,38.9467],[-75.313,38.9492],[-75.3123,38.9489],[-75.3118,38.9459]]],[[[-75.3966,39.0457],[-75.3991,39.0441],[-75.4002,39.0441],[-75.3966,39.0457]]],[[[-75.4053,39.0478],[-75.404,39.0474],[-75.4061,39.0473],[-75.4053,39.0478]]],[[[-75.3942,39.0462],[-75.3945,39.0479],[-75.3943,39.0488],[-75.3941,39.049],[-75.3942,39.0462]]],[[[-75.4,39.0525],[-75.3992,39.0517],[-75.3994,39.0518],[-75.4,39.0525]]],[[[-75.4005,39.0533],[-75.4003,39.0529],[-75.4004,39.053],[-75.4005,39.0533]]],[[[-75.3911,39.0532],[-75.3799,39.0488],[-75.3746,39.0444],[-75.3698,39.0425],[-75.3436,39.023],[-75.3184,38.9882],[-75.3148,38.9803],[-75.3116,38.9676],[-75.3125,38.9511],[-75.3203,38.9541],[-75.3265,38.9491],[-75.3322,38.9509],[-75.3343,38.9479],[-75.338,38.9465],[-75.3461,38.9481],[-75.3516,38.9477],[-75.356,38.9519],[-75.357,38.9549],[-75.3601,38.9578],[-75.3612,38.9574],[-75.3576,38.9547],[-75.3566,38.9511],[-75.3519,38.9472],[-75.3375,38.9459],[-75.334,38.9473],[-75.3317,38.9502],[-75.3277,38.9481],[-75.3258,38.9484],[-75.3196,38.953],[-75.3149,38.9506],[-75.314,38.949],[-75.3148,38.9459],[-75.3186,38.944],[-75.3224,38.9378],[-75.3199,38.9403],[-75.3176,38.9398],[-75.319,38.9411],[-75.3176,38.9438],[-75.3136,38.9454],[-75.3026,38.9392],[-75.3127,38.9434],[-75.3166,38.9386],[-75.316,38.9304],[-75.3041,38.9132],[-75.2837,38.896],[-75.2683,38.8811],[-75.2758,38.8768],[-75.2735,38.8702],[-75.2741,38.8666],[-75.2787,38.8658],[-75.2808,38.8629],[-75.2845,38.8611],[-75.2855,38.8622],[-75.2928,38.8603],[-75.2955,38.8571],[-75.3069,38.8508],[-75.3171,38.8528],[-75.3345,38.8475],[-75.3441,38.8472],[-75.3483,38.8598],[-75.3548,38.8629],[-75.3555,38.8685],[-75.3622,38.8777],[-75.3746,38.8727],[-75.3764,38.8697],[-75.3808,38.8666],[-75.3964,38.8644],[-75.4005,38.8614],[-75.3931,38.8548],[-75.3923,38.8557],[-75.3691,38.8453],[-75.3676,38.8404],[-75.3689,38.8389],[-75.367,38.8333],[-75.3659,38.8333],[-75.3667,38.8267],[-75.3636,38.8211],[-75.3601,38.8184],[-75.3575,38.8183],[-75.3555,38.8144],[-75.3675,38.814],[-75.3728,38.8108],[-75.3802,38.8093],[-75.3851,38.7958],[-75.3889,38.7973],[-75.3915,38.7918],[-75.4113,38.7901],[-75.4092,38.7767],[-75.4074,38.7752],[-75.4059,38.7697],[-75.4097,38.7675],[-75.4105,38.7652],[-75.4097,38.7639],[-75.4119,38.7603],[-75.4163,38.7575],[-75.4165,38.7543],[-75.4444,38.75],[-75.4558,38.7544],[-75.4605,38.7498],[-75.4662,38.7473],[-75.4752,38.7513],[-75.4729,38.7536],[-75.4729,38.7588],[-75.4732,38.7602],[-75.4767,38.7611],[-75.4754,38.7643],[-75.4826,38.7663],[-75.4883,38.7695],[-75.4825,38.78],[-75.4749,38.7879],[-75.4768,38.7927],[-75.4759,38.7952],[-75.48,38.7995],[-75.4833,38.8068],[-75.4931,38.8065],[-75.4977,38.8099],[-75.4958,38.8136],[-75.495,38.8222],[-75.4896,38.8321],[-75.4965,38.8358],[-75.5118,38.84],[-75.5189,38.8497],[-75.5163,38.8611],[-75.5286,38.8592],[-75.5318,38.8618],[-75.5362,38.8722],[-75.5352,38.8794],[-75.5289,38.8872],[-75.5313,38.8937],[-75.5362,38.9007],[-75.544,38.9049],[-75.5428,38.9145],[-75.5436,38.9157],[-75.5154,38.9168],[-75.5154,38.9234],[-75.5208,38.9355],[-75.5094,38.9395],[-75.5097,38.9423],[-75.5063,38.9449],[-75.5034,38.9595],[-75.4995,38.9632],[-75.4949,38.9648],[-75.4892,38.9711],[-75.4845,38.9737],[-75.4856,38.9748],[-75.4826,38.9752],[-75.4818,38.9777],[-75.4784,38.9779],[-75.4803,38.9819],[-75.4769,38.9818],[-75.4739,38.9834],[-75.4752,38.9846],[-75.4743,38.9857],[-75.4761,38.9869],[-75.4737,38.9893],[-75.4747,38.9921],[-75.4738,38.9943],[-75.4694,38.9951],[-75.4689,38.9933],[-75.4665,38.993],[-75.4636,38.9943],[-75.4643,38.9959],[-75.4627,38.9973],[-75.466,38.999],[-75.4657,39.0018],[-75.4636,39.0026],[-75.461,39.0008],[-75.4576,39.0042],[-75.4583,39.0064],[-75.461,39.006],[-75.4631,39.0083],[-75.4617,39.0111],[-75.461,39.0118],[-75.4578,39.0106],[-75.4516,39.012],[-75.448,39.0099],[-75.4432,39.013],[-75.442,39.0109],[-75.4391,39.0103],[-75.4312,39.018],[-75.4234,39.0213],[-75.4163,39.0213],[-75.4106,39.0267],[-75.4098,39.0331],[-75.406,39.0351],[-75.4061,39.0366],[-75.4015,39.0405],[-75.4019,39.0418],[-75.4072,39.0437],[-75.4063,39.0465],[-75.4046,39.0471],[-75.4007,39.0436],[-75.3985,39.0438],[-75.3935,39.0462],[-75.3926,39.0509],[-75.3942,39.0521],[-75.3983,39.052],[-75.3998,39.0537],[-75.3992,39.0563],[-75.3966,39.058],[-75.3911,39.0532]]],[[[-75.3982,39.0577],[-75.3992,39.0569],[-75.3972,39.0582],[-75.3982,39.0577]]],[[[-75.3958,39.0597],[-75.3958,39.0596],[-75.3958,39.0597],[-75.3958,39.0597]]],[[[-75.3971,39.0618],[-75.3966,39.0608],[-75.3975,39.0623],[-75.3971,39.0618]]],[[[-75.3981,39.0633],[-75.3976,39.0625],[-75.3984,39.0638],[-75.3981,39.0633]]],[[[-75.3987,39.0641],[-75.3987,39.0641],[-75.3987,39.0641],[-75.3987,39.0641]]],[[[-75.401,39.0656],[-75.3996,39.0654],[-75.3995,39.0654],[-75.401,39.0656]]]]}},{"type":"Feature","properties":{"leaid":"1001240","name":"Brandywine School District","kind":"Unified","gradeLow":"PK","gradeHigh":"12","state":"DE"},"geometry":{"type":"MultiPolygon","coordinates":[[[[-75.4677,39.7471],[-75.4677,39.7471],[-75.4678,39.7471],[-75.4677,39.7471]]],[[[-75.4663,39.7508],[-75.4661,39.7505],[-75.4667,39.7496],[-75.4663,39.7508]]],[[[-75.4635,39.757],[-75.4661,39.7511],[-75.4636,39.7571],[-75.4635,39.757]]],[[[-75.5598,39.8395],[-75.521,39.8371],[-75.483,39.8298],[-75.4466,39.8177],[-75.4283,39.8094],[-75.415,39.8019],[-75.4241,39.807],[-75.4262,39.8063],[-75.4259,39.8053],[-75.4273,39.8063],[-75.4304,39.8037],[-75.4321,39.8041],[-75.431,39.8024],[-75.4341,39.8041],[-75.4335,39.8016],[-75.4349,39.8037],[-75.4399,39.8029],[-75.4621,39.7902],[-75.4729,39.7817],[-75.4799,39.7737],[-75.4779,39.7719],[-75.4799,39.7726],[-75.4871,39.76],[-75.4932,39.7529],[-75.4931,39.751],[-75.4944,39.7514],[-75.4935,39.7501],[-75.4946,39.7507],[-75.5011,39.7427],[-75.506,39.7421],[-75.5158,39.7461],[-75.5194,39.7507],[-75.5173,39.7536],[-75.5205,39.7521],[-75.5215,39.7535],[-75.5252,39.752],[-75.5316,39.746],[-75.5373,39.7434],[-75.5408,39.7496],[-75.5437,39.7508],[-75.5319,39.7562],[-75.5393,39.766],[-75.5571,39.7615],[-75.5566,39.7656],[-75.5591,39.7685],[-75.5701,39.771],[-75.5644,39.7766],[-75.5661,39.7784],[-75.5709,39.7766],[-75.5701,39.7774],[-75.5711,39.7781],[-75.5687,39.7807],[-75.5706,39.7809],[-75.571,39.7827],[-75.5772,39.7847],[-75.5774,39.7868],[-75.5803,39.7905],[-75.5799,39.7923],[-75.5752,39.7955],[-75.5743,39.7991],[-75.5663,39.8083],[-75.5699,39.8173],[-75.5757,39.8226],[-75.573,39.8299],[-75.5796,39.8389],[-75.5598,39.8395]]]]}},{"type":"Feature","properties":{"leaid":"1001300","name":"Red Clay Consolidated School District","kind":"Unified","gradeLow":"PK","gradeHigh":"12","state":"DE"},"geometry":{"type":"MultiPolygon","coordinates":[[[[-75.5936,39.7108],[-75.5992,39.7089],[-75.5914,39.7129],[-75.5936,39.7108]]],[[[-75.5792,39.8383],[-75.573,39.8299],[-75.5757,39.8226],[-75.5699,39.8173],[-75.5663,39.8097],[-75.5668,39.8074],[-75.5743,39.7991],[-75.5752,39.7955],[-75.5803,39.7917],[-75.5772,39.7847],[-75.571,39.7827],[-75.5706,39.7809],[-75.5687,39.7807],[-75.5711,39.7781],[-75.5701,39.7774],[-75.5709,39.7766],[-75.5661,39.7784],[-75.5644,39.7766],[-75.5701,39.771],[-75.5591,39.7685],[-75.5566,39.7656],[-75.5571,39.7615],[-75.5393,39.766],[-75.5319,39.7562],[-75.5439,39.7502],[-75.5484,39.7521],[-75.5576,39.7618],[-75.5487,39.7516],[-75.5442,39.7493],[-75.5467,39.7496],[-75.5482,39.748],[-75.5547,39.751],[-75.5613,39.7414],[-75.5746,39.7469],[-75.5782,39.7423],[-75.5829,39.7413],[-75.5843,39.7392],[-75.5802,39.7374],[-75.5771,39.7419],[-75.5692,39.7285],[-75.5665,39.7318],[-75.5669,39.7293],[-75.5644,39.7289],[-75.5648,39.7238],[-75.5639,39.7256],[-75.5619,39.7257],[-75.5616,39.7202],[-75.5685,39.7183],[-75.5831,39.7188],[-75.5903,39.716],[-75.595,39.7111],[-75.5998,39.7094],[-75.6043,39.7113],[-75.6092,39.7106],[-75.6138,39.7078],[-75.6217,39.6975],[-75.6228,39.7],[-75.6297,39.7015],[-75.6381,39.6993],[-75.6417,39.7003],[-75.6423,39.698],[-75.6454,39.6969],[-75.6501,39.701],[-75.6455,39.7074],[-75.6514,39.7078],[-75.6545,39.7066],[-75.6554,39.7032],[-75.6587,39.7005],[-75.6628,39.7014],[-75.665,39.7],[-75.6656,39.698],[-75.6697,39.7],[-75.6788,39.6976],[-75.6826,39.6994],[-75.6869,39.7054],[-75.688,39.7048],[-75.6895,39.7061],[-75.6948,39.7033],[-75.6932,39.7107],[-75.6991,39.7196],[-75.702,39.7286],[-75.7085,39.7346],[-75.7114,39.7402],[-75.7162,39.7416],[-75.7182,39.7454],[-75.7174,39.7488],[-75.7234,39.7515],[-75.7282,39.7565],[-75.7402,39.7554],[-75.7418,39.761],[-75.7428,39.7597],[-75.7514,39.7595],[-75.7366,39.7757],[-75.7188,39.7909],[-75.6994,39.8039],[-75.6778,39.8152],[-75.6544,39.8245],[-75.6297,39.8315],[-75.6017,39.8367],[-75.5792,39.8383]]]]}},{"type":"Feature","properties":{"leaid":"1001530","name":"Seaford School District","kind":"Unified","gradeLow":"PK","gradeHigh":"12","state":"DE"},"geometry":{"type":"MultiPolygon","coordinates":[[[[-75.6053,38.6399],[-75.6052,38.639],[-75.6056,38.6398],[-75.6053,38.6399]]],[[[-75.5592,38.6993],[-75.5598,38.6978],[-75.556,38.6954],[-75.5587,38.6922],[-75.554,38.6868],[-75.5489,38.6865],[-75.5468,38.689],[-75.5378,38.6926],[-75.5313,38.691],[-75.5315,38.6857],[-75.5146,38.6659],[-75.5152,38.6626],[-75.5169,38.6612],[-75.5194,38.6615],[-75.5203,38.6583],[-75.5252,38.6587],[-75.5233,38.6568],[-75.5245,38.6546],[-75.5209,38.6507],[-75.5172,38.6507],[-75.5137,38.6469],[-75.5063,38.6442],[-75.5054,38.6421],[-75.5028,38.6417],[-75.5023,38.6395],[-75.4982,38.6384],[-75.4987,38.6357],[-75.4956,38.6363],[-75.4817,38.6248],[-75.4782,38.6233],[-75.469,38.6245],[-75.4585,38.6175],[-75.4548,38.6178],[-75.4667,38.6129],[-75.5031,38.6102],[-75.5153,38.6035],[-75.5193,38.6066],[-75.5424,38.6169],[-75.572,38.6085],[-75.5778,38.6031],[-75.5862,38.6],[-75.5857,38.5971],[-75.5903,38.5962],[-75.595,38.5979],[-75.6087,38.5986],[-75.6246,38.5958],[-75.6281,38.5964],[-75.635,38.6008],[-75.6406,38.6004],[-75.648,38.6016],[-75.6481,38.6025],[-75.649,38.6018],[-75.65,38.6029],[-75.6518,38.6022],[-75.652,38.6044],[-75.6444,38.6078],[-75.6415,38.6131],[-75.6318,38.617],[-75.6237,38.6227],[-75.6225,38.6277],[-75.6182,38.6303],[-75.6116,38.6388],[-75.6071,38.6401],[-75.6031,38.6378],[-75.5983,38.6378],[-75.5959,38.6395],[-75.5963,38.6423],[-75.5887,38.6437],[-75.587,38.6464],[-75.584,38.6452],[-75.5805,38.6467],[-75.5795,38.6434],[-75.5773,38.642],[-75.5711,38.6433],[-75.578,38.6432],[-75.5801,38.6471],[-75.5836,38.6459],[-75.5871,38.647],[-75.5888,38.6443],[-75.5912,38.6466],[-75.5887,38.6496],[-75.5859,38.6485],[-75.5815,38.6502],[-75.5772,38.6482],[-75.5757,38.6499],[-75.5777,38.6505],[-75.5776,38.6555],[-75.5754,38.655],[-75.5775,38.6562],[-75.5783,38.655],[-75.5781,38.6509],[-75.5774,38.6486],[-75.5818,38.6508],[-75.5857,38.6491],[-75.5891,38.65],[-75.5918,38.6471],[-75.5897,38.6443],[-75.5964,38.6429],[-75.5967,38.6395],[-75.5982,38.6383],[-75.603,38.6386],[-75.606,38.6407],[-75.6126,38.639],[-75.6188,38.631],[-75.6228,38.629],[-75.6251,38.6233],[-75.6317,38.6184],[-75.6409,38.6154],[-75.6434,38.6133],[-75.6459,38.6081],[-75.6534,38.6048],[-75.6575,38.5996],[-75.6614,38.5908],[-75.6698,38.5884],[-75.6712,38.5841],[-75.6701,38.5784],[-75.6714,38.5755],[-75.6801,38.5679],[-75.6884,38.5636],[-75.6939,38.5581],[-75.7016,38.5614],[-75.7124,38.698],[-75.6965,38.6978],[-75.6679,38.7022],[-75.6602,38.6988],[-75.6595,38.6962],[-75.6569,38.6959],[-75.6551,38.6941],[-75.651,38.6943],[-75.6475,38.6923],[-75.6296,38.6911],[-75.6224,38.6864],[-75.6169,38.6863],[-75.6117,38.6833],[-75.602,38.6951],[-75.606,38.6993],[-75.5921,38.707],[-75.5907,38.7038],[-75.5921,38.7033],[-75.5914,38.7019],[-75.5899,38.7025],[-75.5905,38.699],[-75.5649,38.71],[-75.5581,38.7083],[-75.5591,38.7052],[-75.5548,38.7013],[-75.5592,38.6993]]]]}},{"type":"Feature","properties":{"leaid":"1000270","name":"Delmar School District","kind":"Unified","gradeLow":"KG","gradeHigh":"12","state":"DE"},"geometry":{"type":"Polygon","coordinates":[[[-75.4332,38.4878],[-75.4283,38.4747],[-75.4289,38.4672],[-75.4274,38.4595],[-75.4286,38.4528],[-75.5634,38.4556],[-75.6937,38.4601],[-75.6985,38.522],[-75.6603,38.5186],[-75.659,38.5146],[-75.6544,38.5095],[-75.6512,38.5029],[-75.651,38.4985],[-75.6548,38.4895],[-75.6421,38.4873],[-75.6023,38.5016],[-75.5709,38.505],[-75.5659,38.5069],[-75.5613,38.5056],[-75.5554,38.508],[-75.5117,38.5084],[-75.4984,38.5056],[-75.4832,38.495],[-75.472,38.4901],[-75.4626,38.4921],[-75.4575,38.4907],[-75.4484,38.4854],[-75.435,38.4888],[-75.4332,38.4878]]]}},{"type":"Feature","properties":{"leaid":"1000680","name":"Indian River School District","kind":"Unified","gradeLow":"PK","gradeHigh":"12","state":"DE"},"geometry":{"type":"MultiPolygon","coordinates":[[[[-75.0799,38.4558],[-75.0827,38.455],[-75.0833,38.4554],[-75.0829,38.4567],[-75.0799,38.4558]]],[[[-75.0566,38.4653],[-75.059,38.4655],[-75.0568,38.4678],[-75.0566,38.4653]]],[[[-75.0658,38.4702],[-75.0668,38.47],[-75.0681,38.4707],[-75.0667,38.4714],[-75.0658,38.4702]]],[[[-75.0655,38.5001],[-75.0635,38.5014],[-75.063,38.5013],[-75.0637,38.5001],[-75.0655,38.5001]]],[[[-75.2271,38.5892],[-75.2277,38.5886],[-75.2281,38.5898],[-75.2271,38.5892]]],[[[-75.0695,38.5879],[-75.07,38.5891],[-75.0691,38.5901],[-75.0686,38.5891],[-75.0695,38.5879]]],[[[-75.0703,38.5918],[-75.0711,38.5911],[-75.0702,38.5898],[-75.0717,38.5884],[-75.0735,38.5909],[-75.0714,38.5931],[-75.0703,38.5918]]],[[[-75.0774,38.6014],[-75.0782,38.6011],[-75.0789,38.6012],[-75.0786,38.6019],[-75.0774,38.6014]]],[[[-75.0746,38.6015],[-75.0768,38.6019],[-75.0768,38.6022],[-75.0746,38.6026],[-75.0746,38.6015]]],[[[-75.0792,38.6019],[-75.08,38.6023],[-75.0804,38.6031],[-75.0796,38.6032],[-75.0792,38.6019]]],[[[-75.0962,38.6036],[-75.0973,38.6023],[-75.098,38.603],[-75.0962,38.6036]]],[[[-75.0944,38.6187],[-75.0961,38.6176],[-75.0967,38.6188],[-75.0944,38.6187]]],[[[-75.101,38.6329],[-75.0953,38.6291],[-75.0931,38.6279],[-75.0919,38.6286],[-75.095,38.63],[-75.0907,38.6284],[-75.092,38.6267],[-75.0905,38.6251],[-75.094,38.6236],[-75.0928,38.6221],[-75.0993,38.6257],[-75.0983,38.6275],[-75.0993,38.6294],[-75.1011,38.6297],[-75.0999,38.6312],[-75.101,38.6329]]],[[[-75.1361,38.6421],[-75.1374,38.6416],[-75.1388,38.6419],[-75.1371,38.6429],[-75.1361,38.6421]]],[[[-75.0655,38.5001],[-75.0658,38.4984],[-75.0637,38.4958],[-75.0602,38.4966],[-75.0589,38.4957],[-75.061,38.4949],[-75.0615,38.4924],[-75.0689,38.489],[-75.0693,38.4864],[-75.067,38.4867],[-75.0697,38.4855],[-75.0696,38.4841],[-75.0662,38.481],[-75.0763,38.4853],[-75.085,38.4863],[-75.0851,38.4847],[-75.0886,38.4911],[-75.0875,38.4848],[-75.092,38.4868],[-75.0951,38.4861],[-75.0966,38.4842],[-75.0977,38.488],[-75.1019,38.4875],[-75.1039,38.4885],[-75.1033,38.4877],[-75.105,38.4872],[-75.1049,38.4836],[-75.1083,38.4818],[-75.1176,38.4836],[-75.1183,38.4827],[-75.1146,38.4796],[-75.1086,38.4789],[-75.1058,38.4808],[-75.1025,38.486],[-75.099,38.4867],[-75.0992,38.4847],[-75.0973,38.483],[-75.091,38.4837],[-75.0884,38.4823],[-75.0884,38.4804],[-75.0868,38.4821],[-75.0815,38.4825],[-75.0784,38.4754],[-75.0774,38.4758],[-75.0767,38.4737],[-75.0732,38.4716],[-75.0744,38.4701],[-75.0732,38.4699],[-75.0735,38.4677],[-75.0697,38.4659],[-75.0717,38.4635],[-75.0707,38.462],[-75.069,38.4625],[-75.0687,38.4647],[-75.0673,38.4626],[-75.066,38.463],[-75.0668,38.4683],[-75.0656,38.4673],[-75.0635,38.4628],[-75.0641,38.4592],[-75.0624,38.4569],[-75.0639,38.4547],[-75.0654,38.455],[-75.0647,38.4529],[-75.0657,38.4512],[-75.0704,38.4512],[-75.0687,38.4538],[-75.0711,38.4534],[-75.0722,38.4555],[-75.0721,38.4528],[-75.0733,38.4556],[-75.0731,38.4529],[-75.0739,38.4559],[-75.0736,38.4522],[-75.0755,38.4558],[-75.0746,38.4521],[-75.0759,38.4518],[-75.0755,38.4536],[-75.0783,38.4538],[-75.077,38.4542],[-75.0763,38.4572],[-75.0783,38.4573],[-75.0792,38.4588],[-75.0799,38.4569],[-75.0828,38.4576],[-75.083,38.4591],[-75.0815,38.4584],[-75.0801,38.4595],[-75.0816,38.461],[-75.0806,38.4623],[-75.0826,38.4619],[-75.0832,38.4633],[-75.0868,38.4648],[-75.0867,38.4638],[-75.0836,38.4628],[-75.0852,38.4609],[-75.0859,38.4632],[-75.0847,38.4573],[-75.0866,38.4619],[-75.0866,38.4589],[-75.0872,38.4607],[-75.0884,38.4589],[-75.0877,38.4625],[-75.0898,38.4579],[-75.0897,38.4618],[-75.0907,38.4587],[-75.0917,38.4587],[-75.091,38.462],[-75.0932,38.4592],[-75.0925,38.4614],[-75.0942,38.461],[-75.0981,38.4633],[-75.0948,38.4638],[-75.1027,38.4676],[-75.1061,38.4674],[-75.1014,38.4664],[-75.0965,38.4607],[-75.1041,38.4602],[-75.1023,38.4591],[-75.096,38.4598],[-75.0946,38.4584],[-75.0953,38.4576],[-75.0899,38.4563],[-75.0885,38.4546],[-75.0892,38.4528],[-75.0855,38.4512],[-75.4286,38.4528],[-75.4274,38.4595],[-75.4289,38.4672],[-75.4283,38.4747],[-75.4332,38.4878],[-75.3717,38.5238],[-75.3686,38.5278],[-75.371,38.5308],[-75.3724,38.5352],[-75.3749,38.536],[-75.3801,38.5349],[-75.3839,38.5379],[-75.3901,38.5398],[-75.392,38.5415],[-75.3924,38.5442],[-75.3979,38.5455],[-75.3997,38.5517],[-75.4054,38.5584],[-75.4093,38.5583],[-75.4405,38.6145],[-75.446,38.6168],[-75.451,38.6161],[-75.4549,38.6179],[-75.4585,38.6175],[-75.469,38.6245],[-75.4782,38.6233],[-75.4817,38.6248],[-75.4956,38.6363],[-75.4987,38.6357],[-75.4982,38.6384],[-75.5023,38.6395],[-75.5028,38.6417],[-75.5054,38.6421],[-75.5063,38.6442],[-75.5137,38.6469],[-75.5172,38.6507],[-75.5209,38.6507],[-75.5245,38.6546],[-75.5233,38.6568],[-75.5251,38.6589],[-75.5203,38.6583],[-75.5194,38.6615],[-75.5169,38.6612],[-75.5152,38.6626],[-75.5146,38.6659],[-75.5315,38.6857],[-75.5313,38.691],[-75.53,38.6919],[-75.5318,38.6948],[-75.5292,38.6968],[-75.5301,38.6984],[-75.5283,38.7018],[-75.5292,38.7039],[-75.5273,38.7064],[-75.522,38.7078],[-75.5193,38.7108],[-75.5062,38.7136],[-75.4934,38.7205],[-75.4918,38.7235],[-75.4853,38.7274],[-75.4823,38.7327],[-75.4809,38.7389],[-75.4747,38.7412],[-75.4696,38.7466],[-75.4605,38.7498],[-75.4558,38.7544],[-75.4444,38.75],[-75.4173,38.7539],[-75.4157,38.7579],[-75.4056,38.7553],[-75.4052,38.7513],[-75.4065,38.7508],[-75.4024,38.7485],[-75.4006,38.7467],[-75.4007,38.7449],[-75.3776,38.7239],[-75.3642,38.7227],[-75.3239,38.7352],[-75.3225,38.7316],[-75.3158,38.7298],[-75.2694,38.7389],[-75.271,38.7286],[-75.2535,38.6565],[-75.2586,38.6479],[-75.2147,38.6498],[-75.2084,38.6585],[-75.1997,38.6595],[-75.1941,38.6616],[-75.1743,38.6534],[-75.1691,38.6559],[-75.1618,38.6561],[-75.1506,38.6525],[-75.1505,38.6504],[-75.1473,38.6497],[-75.1485,38.6483],[-75.1472,38.6441],[-75.1523,38.6436],[-75.1582,38.6411],[-75.1581,38.6429],[-75.1555,38.6441],[-75.1599,38.6435],[-75.1605,38.6424],[-75.1586,38.6423],[-75.1599,38.641],[-75.1582,38.6406],[-75.1616,38.6398],[-75.1613,38.6417],[-75.1628,38.6409],[-75.1622,38.6395],[-75.1661,38.6368],[-75.1724,38.6393],[-75.1674,38.6358],[-75.1645,38.6362],[-75.151,38.6432],[-75.1449,38.644],[-75.1377,38.6405],[-75.1408,38.6407],[-75.1409,38.6395],[-75.1358,38.641],[-75.1354,38.6396],[-75.1324,38.6412],[-75.132,38.6396],[-75.1345,38.639],[-75.1358,38.6367],[-75.1351,38.6353],[-75.1381,38.6345],[-75.1377,38.6336],[-75.1327,38.6341],[-75.1328,38.6353],[-75.1343,38.6351],[-75.1331,38.6365],[-75.1341,38.6372],[-75.1336,38.639],[-75.131,38.6375],[-75.131,38.6353],[-75.1272,38.6359],[-75.1185,38.6338],[-75.1163,38.6322],[-75.1168,38.634],[-75.1127,38.6345],[-75.1113,38.6369],[-75.1111,38.6343],[-75.1091,38.6336],[-75.1035,38.6358],[-75.1016,38.6332],[-75.108,38.6307],[-75.11,38.6281],[-75.1025,38.6295],[-75.1011,38.6259],[-75.0968,38.623],[-75.0967,38.6211],[-75.0982,38.6198],[-75.0984,38.6214],[-75.1003,38.6223],[-75.0994,38.6209],[-75.1021,38.6182],[-75.0988,38.6194],[-75.1006,38.6174],[-75.1073,38.6175],[-75.1058,38.6196],[-75.1115,38.6223],[-75.1128,38.6212],[-75.1157,38.6233],[-75.1132,38.6198],[-75.1102,38.6205],[-75.1113,38.6182],[-75.117,38.6152],[-75.1212,38.6151],[-75.1233,38.6161],[-75.1211,38.6159],[-75.1234,38.6172],[-75.123,38.6183],[-75.1214,38.6181],[-75.123,38.619],[-75.1221,38.623],[-75.1239,38.622],[-75.1235,38.6198],[-75.1259,38.6219],[-75.1267,38.6195],[-75.1243,38.6189],[-75.1241,38.6155],[-75.1329,38.6118],[-75.1421,38.6118],[-75.1474,38.6098],[-75.1483,38.6111],[-75.1456,38.6122],[-75.1446,38.6138],[-75.1473,38.6121],[-75.1463,38.6128],[-75.1475,38.6149],[-75.1483,38.612],[-75.1495,38.6133],[-75.1498,38.6118],[-75.1518,38.6114],[-75.1491,38.6114],[-75.149,38.6103],[-75.1549,38.6106],[-75.1571,38.613],[-75.1556,38.6108],[-75.1582,38.6106],[-75.1566,38.6145],[-75.1571,38.6156],[-75.1584,38.6162],[-75.1574,38.6145],[-75.1598,38.6164],[-75.1648,38.6165],[-75.1683,38.6199],[-75.1654,38.6161],[-75.1606,38.6144],[-75.1586,38.6094],[-75.1551,38.6084],[-75.1551,38.6061],[-75.158,38.6022],[-75.1633,38.5995],[-75.1672,38.5998],[-75.1695,38.6024],[-75.1726,38.6034],[-75.1683,38.6001],[-75.1685,38.5988],[-75.1743,38.5952],[-75.181,38.5944],[-75.185,38.5926],[-75.1924,38.5938],[-75.1963,38.5916],[-75.2016,38.5956],[-75.2044,38.5961],[-75.2075,38.5952],[-75.2132,38.5907],[-75.2172,38.5918],[-75.2232,38.5895],[-75.2289,38.5914],[-75.2311,38.5908],[-75.2323,38.5893],[-75.2316,38.5884],[-75.236,38.5884],[-75.2388,38.5918],[-75.2454,38.5927],[-75.2513,38.5902],[-75.2524,38.5939],[-75.2548,38.5946],[-75.2547,38.5961],[-75.2564,38.597],[-75.2561,38.5988],[-75.2579,38.6008],[-75.2571,38.5968],[-75.255,38.5941],[-75.2529,38.5936],[-75.2525,38.5905],[-75.2505,38.5893],[-75.2552,38.5881],[-75.2575,38.5847],[-75.2588,38.5881],[-75.2574,38.5882],[-75.2579,38.5901],[-75.2606,38.5893],[-75.2598,38.5883],[-75.2637,38.5884],[-75.2659,38.5861],[-75.27,38.5898],[-75.2756,38.5864],[-75.2758,38.588],[-75.2737,38.5906],[-75.2754,38.5932],[-75.2769,38.5922],[-75.2798,38.5927],[-75.2801,38.5944],[-75.2818,38.5939],[-75.2811,38.5957],[-75.283,38.5949],[-75.2828,38.5935],[-75.287,38.5958],[-75.2891,38.5953],[-75.2885,38.5941],[-75.2839,38.5914],[-75.2773,38.5905],[-75.2781,38.5872],[-75.2766,38.5851],[-75.275,38.5845],[-75.2715,38.5859],[-75.2675,38.5836],[-75.2691,38.5824],[-75.2661,38.5817],[-75.2634,38.5841],[-75.2594,38.5816],[-75.2544,38.5821],[-75.2526,38.5858],[-75.2433,38.5904],[-75.2396,38.5897],[-75.2374,38.5866],[-75.2278,38.5877],[-75.2231,38.5851],[-75.2207,38.5856],[-75.2184,38.5901],[-75.2158,38.5873],[-75.2093,38.5891],[-75.206,38.5881],[-75.2198,38.5835],[-75.23,38.5829],[-75.2361,38.5842],[-75.2297,38.5823],[-75.2196,38.583],[-75.2132,38.5842],[-75.2118,38.5855],[-75.2094,38.5848],[-75.2051,38.5869],[-75.2033,38.5847],[-75.1968,38.584],[-75.1926,38.5879],[-75.1873,38.5864],[-75.1857,38.584],[-75.1835,38.5845],[-75.1814,38.5807],[-75.1831,38.5798],[-75.1828,38.5807],[-75.1844,38.5814],[-75.1867,38.5802],[-75.1846,38.5791],[-75.1838,38.5767],[-75.1855,38.5761],[-75.1865,38.5721],[-75.1874,38.5737],[-75.1866,38.575],[-75.1881,38.5751],[-75.188,38.5733],[-75.1915,38.5737],[-75.1925,38.5718],[-75.1972,38.5707],[-75.1988,38.5718],[-75.2,38.568],[-75.2029,38.5679],[-75.2028,38.5661],[-75.2134,38.5622],[-75.2193,38.5625],[-75.2216,38.5585],[-75.2235,38.5589],[-75.2247,38.5583],[-75.226,38.5593],[-75.2266,38.5584],[-75.2218,38.558],[-75.2183,38.5607],[-75.2161,38.5597],[-75.2109,38.5614],[-75.2091,38.5608],[-75.202,38.5642],[-75.1982,38.5682],[-75.1945,38.5682],[-75.1958,38.5644],[-75.1986,38.5642],[-75.2,38.5621],[-75.1988,38.5597],[-75.2048,38.5576],[-75.2034,38.5553],[-75.201,38.5537],[-75.2025,38.5525],[-75.1998,38.551],[-75.2002,38.5486],[-75.198,38.5476],[-75.1986,38.5464],[-75.1981,38.5442],[-75.1974,38.5474],[-75.1993,38.5487],[-75.2,38.5539],[-75.2034,38.5572],[-75.1973,38.5595],[-75.1963,38.561],[-75.1971,38.5624],[-75.1929,38.5634],[-75.1932,38.5661],[-75.191,38.5667],[-75.1893,38.5656],[-75.1916,38.5673],[-75.1912,38.5697],[-75.1869,38.568],[-75.1828,38.5682],[-75.1835,38.5672],[-75.1822,38.5672],[-75.1813,38.5696],[-75.1738,38.5752],[-75.1665,38.5758],[-75.1627,38.5799],[-75.1591,38.5751],[-75.1603,38.5723],[-75.1572,38.5693],[-75.1598,38.5724],[-75.1584,38.5734],[-75.1583,38.5757],[-75.1596,38.5765],[-75.1593,38.5782],[-75.1607,38.5785],[-75.1588,38.5788],[-75.1538,38.5868],[-75.1497,38.5857],[-75.1459,38.5864],[-75.1344,38.5937],[-75.1312,38.5924],[-75.1173,38.5921],[-75.1125,38.5906],[-75.1123,38.5891],[-75.1094,38.5888],[-75.109,38.587],[-75.1051,38.5846],[-75.1053,38.5833],[-75.1154,38.5798],[-75.1084,38.5812],[-75.1096,38.5791],[-75.1098,38.5737],[-75.1129,38.5704],[-75.1094,38.5733],[-75.1084,38.5773],[-75.1066,38.5778],[-75.1078,38.5782],[-75.1071,38.5797],[-75.0969,38.5791],[-75.1002,38.5752],[-75.0987,38.5737],[-75.0997,38.5711],[-75.0971,38.5693],[-75.1015,38.5667],[-75.097,38.5679],[-75.0977,38.5667],[-75.0966,38.565],[-75.092,38.5644],[-75.0907,38.5612],[-75.092,38.5601],[-75.0917,38.5578],[-75.0964,38.5553],[-75.0966,38.5532],[-75.1024,38.5523],[-75.1015,38.5513],[-75.1026,38.5508],[-75.0984,38.5529],[-75.0958,38.5512],[-75.0947,38.5523],[-75.0959,38.5534],[-75.0952,38.5546],[-75.0897,38.5575],[-75.0878,38.5621],[-75.0898,38.5626],[-75.0886,38.5644],[-75.0896,38.5666],[-75.0941,38.5676],[-75.091,38.5672],[-75.0947,38.5706],[-75.0932,38.5721],[-75.0966,38.5728],[-75.0942,38.5739],[-75.0958,38.5748],[-75.0951,38.5754],[-75.0898,38.5769],[-75.0883,38.5801],[-75.0885,38.5829],[-75.0871,38.5799],[-75.0835,38.5791],[-75.0783,38.5832],[-75.0776,38.5874],[-75.0737,38.5886],[-75.075,38.5857],[-75.0733,38.5871],[-75.0712,38.5862],[-75.0725,38.5794],[-75.0748,38.5771],[-75.0728,38.5757],[-75.0729,38.5783],[-75.0683,38.5777],[-75.066,38.5806],[-75.0624,38.582],[-75.0633,38.5889],[-75.0671,38.5896],[-75.0694,38.5918],[-75.0661,38.5949],[-75.0668,38.5963],[-75.0657,38.5986],[-75.0706,38.5971],[-75.0721,38.5988],[-75.0683,38.6015],[-75.0729,38.6027],[-75.0703,38.604],[-75.0733,38.6049],[-75.0748,38.6033],[-75.0781,38.6033],[-75.078,38.6022],[-75.0789,38.6046],[-75.0772,38.6041],[-75.0768,38.6059],[-75.0707,38.6057],[-75.0593,38.6078],[-75.0566,38.5745],[-75.0563,38.5549],[-75.0533,38.5368],[-75.0521,38.5096],[-75.0498,38.4904],[-75.0489,38.4513],[-75.0649,38.4512],[-75.063,38.4547],[-75.0603,38.4537],[-75.0587,38.4544],[-75.0572,38.4526],[-75.0532,38.4543],[-75.0572,38.4535],[-75.0534,38.4555],[-75.0575,38.4541],[-75.0564,38.4552],[-75.0582,38.4549],[-75.0537,38.4591],[-75.0578,38.4574],[-75.0583,38.4631],[-75.055,38.46],[-75.0523,38.4599],[-75.0549,38.4607],[-75.0525,38.4612],[-75.0554,38.4614],[-75.0527,38.4619],[-75.0549,38.4623],[-75.0554,38.4637],[-75.0535,38.4662],[-75.0543,38.469],[-75.0533,38.4724],[-75.0539,38.4747],[-75.0557,38.4751],[-75.0541,38.4773],[-75.0555,38.4794],[-75.0541,38.481],[-75.0566,38.4792],[-75.0578,38.481],[-75.056,38.4834],[-75.0541,38.4825],[-75.0546,38.4845],[-75.0535,38.4854],[-75.0554,38.4874],[-75.0548,38.489],[-75.0573,38.4889],[-75.056,38.4905],[-75.0576,38.4936],[-75.0558,38.4948],[-75.0569,38.4954],[-75.0564,38.498],[-75.0579,38.5004],[-75.0564,38.5034],[-75.0585,38.5049],[-75.0574,38.5063],[-75.0585,38.5059],[-75.0591,38.5071],[-75.0591,38.5059],[-75.0609,38.506],[-75.0618,38.5047],[-75.064,38.5063],[-75.0638,38.5102],[-75.0647,38.506],[-75.0674,38.507],[-75.068,38.5087],[-75.0683,38.5064],[-75.066,38.5055],[-75.0694,38.5045],[-75.0689,38.506],[-75.0751,38.5097],[-75.0753,38.5087],[-75.0719,38.5066],[-75.0712,38.5046],[-75.0735,38.5065],[-75.0742,38.5054],[-75.0719,38.5039],[-75.0823,38.5028],[-75.083,38.5006],[-75.0885,38.5018],[-75.0889,38.504],[-75.0914,38.5057],[-75.0978,38.5063],[-75.1012,38.5087],[-75.1038,38.509],[-75.101,38.5079],[-75.0998,38.5055],[-75.0949,38.5037],[-75.0918,38.5042],[-75.0902,38.5009],[-75.0882,38.4997],[-75.0826,38.4994],[-75.0803,38.501],[-75.0779,38.5007],[-75.0775,38.4995],[-75.0762,38.5016],[-75.0713,38.5009],[-75.0688,38.5027],[-75.0679,38.4995],[-75.0661,38.5021],[-75.0654,38.5012],[-75.0666,38.5006],[-75.0655,38.5001]]]]}},{"type":"Feature","properties":{"leaid":"1000810","name":"Laurel School District","kind":"Unified","gradeLow":"PK","gradeHigh":"12","state":"DE"},"geometry":{"type":"Polygon","coordinates":[[[-75.4332,38.4878],[-75.435,38.4888],[-75.4484,38.4854],[-75.4575,38.4907],[-75.4626,38.4921],[-75.472,38.4901],[-75.4832,38.495],[-75.4984,38.5056],[-75.5117,38.5084],[-75.5554,38.508],[-75.5621,38.5056],[-75.5659,38.5069],[-75.5709,38.505],[-75.6023,38.5016],[-75.6421,38.4873],[-75.6548,38.4895],[-75.651,38.4985],[-75.6512,38.5029],[-75.6544,38.5095],[-75.659,38.5146],[-75.6603,38.5186],[-75.6985,38.522],[-75.7015,38.5597],[-75.6967,38.5565],[-75.6909,38.5561],[-75.6847,38.5618],[-75.6783,38.5653],[-75.6769,38.5679],[-75.6747,38.5682],[-75.6734,38.5647],[-75.6697,38.5641],[-75.6672,38.5694],[-75.6608,38.5688],[-75.6572,38.5707],[-75.6522,38.5678],[-75.6484,38.5692],[-75.6448,38.5686],[-75.6431,38.5715],[-75.6404,38.5698],[-75.637,38.5706],[-75.6297,38.5684],[-75.6316,38.5662],[-75.6319,38.5647],[-75.6304,38.5632],[-75.6276,38.5638],[-75.6302,38.5635],[-75.6312,38.5648],[-75.6292,38.5672],[-75.6295,38.5688],[-75.6368,38.571],[-75.6403,38.5703],[-75.642,38.572],[-75.6439,38.5718],[-75.6455,38.5689],[-75.6489,38.5701],[-75.6516,38.5682],[-75.6575,38.5713],[-75.6612,38.5694],[-75.6675,38.5702],[-75.6705,38.5649],[-75.6726,38.5653],[-75.673,38.5665],[-75.6719,38.5674],[-75.674,38.5698],[-75.6683,38.577],[-75.6689,38.5874],[-75.6603,38.5902],[-75.6562,38.5991],[-75.6522,38.6042],[-75.6516,38.6021],[-75.65,38.6029],[-75.649,38.6018],[-75.6481,38.6025],[-75.648,38.6016],[-75.6406,38.6004],[-75.635,38.6008],[-75.6281,38.5964],[-75.6246,38.5958],[-75.6087,38.5986],[-75.595,38.5979],[-75.5906,38.5961],[-75.5857,38.5971],[-75.5862,38.6],[-75.5778,38.6031],[-75.572,38.6085],[-75.5424,38.6169],[-75.5193,38.6066],[-75.5153,38.6035],[-75.5031,38.6102],[-75.4667,38.6129],[-75.4548,38.6178],[-75.451,38.6161],[-75.4458,38.6168],[-75.4405,38.6145],[-75.4093,38.5583],[-75.4054,38.5584],[-75.3997,38.5517],[-75.3979,38.5455],[-75.3924,38.5442],[-75.392,38.5415],[-75.3901,38.5398],[-75.3839,38.5379],[-75.3801,38.5349],[-75.3749,38.536],[-75.3724,38.5352],[-75.3686,38.5276],[-75.3717,38.5238],[-75.4332,38.4878]]]}},{"type":"Feature","properties":{"leaid":"1001620","name":"Smyrna School District","kind":"Unified","gradeLow":"PK","gradeHigh":"12","state":"DE"},"geometry":{"type":"MultiPolygon","coordinates":[[[[-75.4341,39.2917],[-75.4143,39.2696],[-75.4086,39.265],[-75.403,39.2546],[-75.4051,39.2474],[-75.4043,39.2461],[-75.4126,39.2462],[-75.4158,39.2447],[-75.4158,39.237],[-75.419,39.2345],[-75.4209,39.235],[-75.4261,39.2444],[-75.4192,39.2472],[-75.4218,39.252],[-75.4186,39.2529],[-75.4142,39.2511],[-75.4126,39.2523],[-75.4124,39.255],[-75.4149,39.2589],[-75.4139,39.2645],[-75.4162,39.2657],[-75.4199,39.2656],[-75.4271,39.2601],[-75.4301,39.2627],[-75.4298,39.2695],[-75.4328,39.2716],[-75.4358,39.2712],[-75.4394,39.2664],[-75.4437,39.265],[-75.4464,39.2657],[-75.4482,39.2672],[-75.4484,39.27],[-75.4435,39.2729],[-75.4433,39.2746],[-75.45,39.2785],[-75.4488,39.2805],[-75.443,39.2825],[-75.4429,39.2852],[-75.45,39.2891],[-75.4571,39.2882],[-75.4581,39.2841],[-75.4596,39.283],[-75.464,39.2859],[-75.4641,39.2923],[-75.4629,39.2929],[-75.457,39.2917],[-75.4534,39.2945],[-75.4354,39.2967],[-75.4341,39.2917]]],[[[-75.4911,39.3244],[-75.4851,39.3252],[-75.4856,39.3224],[-75.4848,39.3213],[-75.4891,39.3194],[-75.4907,39.3207],[-75.4911,39.3244]]],[[[-75.4863,39.3259],[-75.4884,39.3265],[-75.489,39.3288],[-75.4859,39.3276],[-75.4863,39.3259]]],[[[-75.4864,39.3363],[-75.4852,39.3306],[-75.4871,39.3314],[-75.4864,39.3363]]],[[[-75.4942,39.3353],[-75.4957,39.3366],[-75.4952,39.3386],[-75.4951,39.3366],[-75.4942,39.3353]]],[[[-75.4567,39.3258],[-75.4532,39.319],[-75.4508,39.3169],[-75.4383,39.3127],[-75.4366,39.307],[-75.4371,39.2994],[-75.4356,39.2973],[-75.4531,39.2951],[-75.4615,39.3006],[-75.4642,39.2994],[-75.4656,39.2972],[-75.4672,39.2969],[-75.4693,39.2981],[-75.4705,39.3023],[-75.4778,39.3025],[-75.4791,39.3065],[-75.4766,39.3103],[-75.4766,39.3128],[-75.481,39.315],[-75.4806,39.3201],[-75.4849,39.3229],[-75.4836,39.3251],[-75.4839,39.3287],[-75.4793,39.328],[-75.4758,39.3258],[-75.4768,39.3276],[-75.4845,39.3301],[-75.4839,39.3322],[-75.4857,39.3371],[-75.4827,39.3387],[-75.4704,39.3313],[-75.4604,39.3282],[-75.4567,39.3258]]],[[[-75.4967,39.3396],[-75.4974,39.3415],[-75.4966,39.3421],[-75.4963,39.3407],[-75.4967,39.3396]]],[[[-75.491,39.3426],[-75.4801,39.3396],[-75.4795,39.3377],[-75.483,39.3393],[-75.4881,39.3373],[-75.4907,39.3406],[-75.491,39.3426]]],[[[-75.4919,39.3431],[-75.4933,39.3437],[-75.4935,39.3454],[-75.4918,39.3441],[-75.4919,39.3431]]],[[[-75.552,39.3455],[-75.5548,39.346],[-75.557,39.3492],[-75.5551,39.3508],[-75.5516,39.3491],[-75.552,39.3455]]],[[[-75.5998,39.4257],[-75.5999,39.4256],[-75.6006,39.426],[-75.5998,39.4257]]],[[[-75.576,39.4378],[-75.5721,39.439],[-75.5657,39.4362],[-75.554,39.4288],[-75.5477,39.4219],[-75.5413,39.419],[-75.5385,39.4165],[-75.5356,39.4084],[-75.5279,39.3968],[-75.5232,39.392],[-75.5246,39.3896],[-75.5269,39.3896],[-75.5291,39.394],[-75.5339,39.3969],[-75.5337,39.3958],[-75.5298,39.3937],[-75.5283,39.39],[-75.5306,39.3917],[-75.5509,39.3961],[-75.5522,39.3958],[-75.5496,39.3943],[-75.539,39.3916],[-75.5329,39.3916],[-75.5296,39.3899],[-75.538,39.39],[-75.5467,39.3919],[-75.5592,39.3902],[-75.5574,39.3894],[-75.5457,39.3912],[-75.5425,39.3902],[-75.5494,39.3856],[-75.5469,39.3858],[-75.5446,39.3879],[-75.5444,39.3861],[-75.5416,39.3891],[-75.5208,39.3876],[-75.5212,39.3818],[-75.5156,39.3779],[-75.5155,39.3692],[-75.513,39.3663],[-75.5167,39.3646],[-75.5174,39.3613],[-75.5212,39.359],[-75.5242,39.3602],[-75.5291,39.3588],[-75.5283,39.354],[-75.5337,39.3544],[-75.5356,39.3509],[-75.5408,39.3544],[-75.5432,39.3541],[-75.5457,39.3509],[-75.5474,39.351],[-75.5491,39.354],[-75.5525,39.3541],[-75.5611,39.3453],[-75.5605,39.3432],[-75.558,39.342],[-75.5588,39.3394],[-75.5573,39.342],[-75.5603,39.3449],[-75.5576,39.3483],[-75.5547,39.3453],[-75.5509,39.3456],[-75.5509,39.3495],[-75.5542,39.351],[-75.552,39.3535],[-75.55,39.3535],[-75.5478,39.3507],[-75.5453,39.3502],[-75.5424,39.3538],[-75.5408,39.3538],[-75.5384,39.3508],[-75.5358,39.3502],[-75.5334,39.3537],[-75.5276,39.3537],[-75.528,39.3585],[-75.5248,39.3595],[-75.5208,39.358],[-75.5165,39.3609],[-75.5158,39.3638],[-75.5117,39.3652],[-75.5053,39.3592],[-75.4946,39.355],[-75.4918,39.3518],[-75.4937,39.3499],[-75.4941,39.3466],[-75.5035,39.3424],[-75.5063,39.3429],[-75.5085,39.345],[-75.5126,39.3458],[-75.5066,39.342],[-75.5012,39.3421],[-75.5061,39.3396],[-75.5091,39.3362],[-75.5172,39.3347],[-75.5085,39.3357],[-75.5051,39.3395],[-75.5025,39.3402],[-75.5048,39.3367],[-75.503,39.3372],[-75.4973,39.3259],[-75.4973,39.3292],[-75.5018,39.3362],[-75.4984,39.341],[-75.4923,39.3276],[-75.4912,39.3205],[-75.4892,39.3189],[-75.4839,39.3208],[-75.4813,39.3202],[-75.4818,39.315],[-75.477,39.3125],[-75.4799,39.3063],[-75.4785,39.3023],[-75.471,39.3019],[-75.4699,39.2981],[-75.4682,39.2967],[-75.4655,39.2968],[-75.4618,39.3],[-75.4546,39.2958],[-75.4544,39.294],[-75.4571,39.2922],[-75.4627,39.2935],[-75.4647,39.2926],[-75.4647,39.2858],[-75.4634,39.2841],[-75.459,39.2825],[-75.4573,39.2838],[-75.4569,39.2874],[-75.4531,39.2885],[-75.4489,39.2882],[-75.4436,39.2848],[-75.4442,39.2822],[-75.4489,39.2811],[-75.4507,39.279],[-75.4508,39.2762],[-75.444,39.2742],[-75.449,39.2702],[-75.4483,39.2661],[-75.4455,39.2647],[-75.4423,39.2647],[-75.4387,39.2661],[-75.4352,39.2708],[-75.4329,39.2711],[-75.43,39.2686],[-75.4305,39.2616],[-75.4261,39.2597],[-75.4213,39.2644],[-75.4158,39.2649],[-75.4143,39.2635],[-75.4158,39.2587],[-75.4132,39.2549],[-75.4132,39.2524],[-75.4146,39.2516],[-75.4188,39.2537],[-75.422,39.2526],[-75.4232,39.2501],[-75.4202,39.2488],[-75.4202,39.2474],[-75.4272,39.2445],[-75.4329,39.246],[-75.4347,39.2436],[-75.4456,39.2424],[-75.4488,39.2424],[-75.4518,39.2449],[-75.4603,39.2443],[-75.4705,39.2505],[-75.4761,39.2508],[-75.4773,39.249],[-75.4808,39.2485],[-75.4898,39.2496],[-75.4912,39.2486],[-75.491,39.2468],[-75.4949,39.2455],[-75.4967,39.2472],[-75.5003,39.2465],[-75.5023,39.2488],[-75.5046,39.2464],[-75.5089,39.2455],[-75.5148,39.242],[-75.5173,39.2457],[-75.5246,39.2465],[-75.5231,39.2496],[-75.5308,39.253],[-75.5356,39.249],[-75.5389,39.2494],[-75.5398,39.2516],[-75.5491,39.2515],[-75.5515,39.2476],[-75.5538,39.2471],[-75.5558,39.2446],[-75.5688,39.2452],[-75.5701,39.2437],[-75.5758,39.2437],[-75.5812,39.242],[-75.5847,39.242],[-75.5876,39.2441],[-75.6053,39.2445],[-75.596,39.2299],[-75.6079,39.2269],[-75.6081,39.226],[-75.6103,39.2263],[-75.6103,39.2252],[-75.6122,39.2249],[-75.6106,39.2211],[-75.6125,39.2209],[-75.6121,39.2199],[-75.6192,39.2181],[-75.6208,39.22],[-75.6251,39.2143],[-75.6269,39.215],[-75.6285,39.2124],[-75.6262,39.2101],[-75.6265,39.2066],[-75.6323,39.2049],[-75.6353,39.1977],[-75.6391,39.1989],[-75.6436,39.1982],[-75.6479,39.1928],[-75.6561,39.1927],[-75.6569,39.1881],[-75.6632,39.1842],[-75.6691,39.1888],[-75.6679,39.1853],[-75.6687,39.185],[-75.6731,39.1879],[-75.6738,39.1867],[-75.682,39.1909],[-75.6809,39.1959],[-75.6847,39.1959],[-75.6855,39.198],[-75.6881,39.1991],[-75.6847,39.2043],[-75.6884,39.2048],[-75.7004,39.1925],[-75.7187,39.1902],[-75.7232,39.1875],[-75.7238,39.1865],[-75.7152,39.1817],[-75.7184,39.18],[-75.7206,39.1815],[-75.7245,39.1807],[-75.7269,39.1824],[-75.7306,39.1923],[-75.733,39.1907],[-75.7324,39.1901],[-75.7405,39.1857],[-75.7454,39.1859],[-75.751,39.1836],[-75.7643,39.3493],[-75.7586,39.3485],[-75.745,39.3575],[-75.7296,39.3541],[-75.7256,39.3529],[-75.7183,39.3463],[-75.7029,39.3361],[-75.6977,39.3337],[-75.685,39.3308],[-75.6854,39.3376],[-75.6641,39.3395],[-75.6649,39.3446],[-75.6641,39.3435],[-75.6612,39.3443],[-75.6604,39.3421],[-75.6418,39.3507],[-75.6319,39.3484],[-75.6322,39.3517],[-75.6292,39.3544],[-75.6257,39.3542],[-75.6254,39.3577],[-75.6186,39.3627],[-75.6162,39.3667],[-75.608,39.3699],[-75.6074,39.3719],[-75.6011,39.3737],[-75.6057,39.3846],[-75.615,39.3931],[-75.606,39.3933],[-75.6048,39.3951],[-75.6016,39.3923],[-75.6003,39.3937],[-75.5974,39.3939],[-75.5947,39.3967],[-75.5967,39.3976],[-75.5959,39.402],[-75.5985,39.4033],[-75.5985,39.4067],[-75.6002,39.4076],[-75.5993,39.4094],[-75.6019,39.4117],[-75.6023,39.4152],[-75.6037,39.4155],[-75.6047,39.4132],[-75.6062,39.4163],[-75.6099,39.4148],[-75.6075,39.4183],[-75.6015,39.4205],[-75.6017,39.4222],[-75.5986,39.4255],[-75.6009,39.4267],[-75.5987,39.4285],[-75.6009,39.4307],[-75.5969,39.429],[-75.595,39.4296],[-75.5956,39.4321],[-75.594,39.4322],[-75.5927,39.4303],[-75.5804,39.4313],[-75.5798,39.4328],[-75.582,39.4352],[-75.5791,39.4366],[-75.5804,39.4392],[-75.5781,39.4397],[-75.576,39.4378]]]]}},{"type":"Feature","properties":{"leaid":"1001850","name":"Woodbridge School District","kind":"Unified","gradeLow":"PK","gradeHigh":"12","state":"DE"},"geometry":{"type":"Polygon","coordinates":[[[-75.5357,38.8696],[-75.5318,38.8618],[-75.5287,38.8592],[-75.5163,38.8611],[-75.5189,38.8497],[-75.5118,38.84],[-75.4965,38.8358],[-75.4896,38.8321],[-75.495,38.8222],[-75.4958,38.8136],[-75.4977,38.8099],[-75.4931,38.8065],[-75.4833,38.8068],[-75.48,38.7995],[-75.4759,38.7952],[-75.4768,38.7927],[-75.475,38.7875],[-75.4825,38.78],[-75.4883,38.7695],[-75.4826,38.7663],[-75.4754,38.7643],[-75.4767,38.7611],[-75.4732,38.7602],[-75.4729,38.7588],[-75.4729,38.7536],[-75.4752,38.7513],[-75.4662,38.7473],[-75.4701,38.7463],[-75.4747,38.7412],[-75.4811,38.7387],[-75.4823,38.7327],[-75.4862,38.7263],[-75.4918,38.7235],[-75.4934,38.7205],[-75.5062,38.7136],[-75.5161,38.7122],[-75.5199,38.7104],[-75.522,38.7078],[-75.5273,38.7064],[-75.53,38.6998],[-75.5292,38.6968],[-75.5318,38.6948],[-75.5303,38.6912],[-75.538,38.6925],[-75.5468,38.689],[-75.5489,38.6865],[-75.554,38.6868],[-75.5586,38.6921],[-75.556,38.6957],[-75.5601,38.6985],[-75.5548,38.7015],[-75.5591,38.7052],[-75.5581,38.7083],[-75.5649,38.71],[-75.5905,38.699],[-75.5899,38.7025],[-75.5914,38.7019],[-75.5921,38.7033],[-75.5907,38.7038],[-75.5921,38.707],[-75.606,38.6993],[-75.602,38.6951],[-75.6117,38.6833],[-75.6169,38.6863],[-75.6224,38.6864],[-75.6296,38.6911],[-75.6475,38.6923],[-75.651,38.6943],[-75.6551,38.6941],[-75.6569,38.6959],[-75.6595,38.6962],[-75.6602,38.6988],[-75.6679,38.7022],[-75.6965,38.6978],[-75.7124,38.698],[-75.7241,38.8467],[-75.7,38.8511],[-75.6923,38.8513],[-75.6839,38.8569],[-75.6818,38.8612],[-75.6784,38.8644],[-75.6697,38.8626],[-75.6574,38.8687],[-75.6545,38.8722],[-75.6352,38.8615],[-75.6311,38.8664],[-75.6276,38.874],[-75.6275,38.8771],[-75.6299,38.882],[-75.6199,38.8827],[-75.6116,38.8811],[-75.6022,38.8816],[-75.5967,38.8855],[-75.5662,38.888],[-75.5689,38.8856],[-75.5698,38.8829],[-75.5677,38.875],[-75.5691,38.8692],[-75.5681,38.8674],[-75.5618,38.864],[-75.5559,38.8654],[-75.5441,38.8653],[-75.5357,38.8696]]]}}]}