{"type":"FeatureCollection","features":[{"type":"Feature","properties":{"leaid":"6600040","name":"Guam Department of Education","kind":"Unified","gradeLow":"PK","gradeHigh":"12","state":"GU"},"geometry":{"type":"MultiPolygon","coordinates":[[[[144.6775,13.2403],[144.672,13.2401],[144.6785,13.2408],[144.6775,13.2403]]],[[[144.6594,13.2407],[144.6432,13.2339],[144.6446,13.2361],[144.6572,13.2426],[144.6594,13.2407]]],[[[144.707,13.2442],[144.7068,13.2437],[144.7054,13.2438],[144.7055,13.244],[144.7063,13.2439],[144.707,13.2442]]],[[[144.7056,13.2444],[144.7065,13.2446],[144.7067,13.2441],[144.7056,13.2444]]],[[[144.6977,13.245],[144.6972,13.2449],[144.6977,13.2451],[144.6977,13.245]]],[[[144.7089,13.2435],[144.7079,13.2443],[144.7085,13.2453],[144.7089,13.2435]]],[[[144.7013,13.2452],[144.7009,13.2448],[144.701,13.2454],[144.7013,13.2452]]],[[[144.6607,13.4019],[144.6599,13.4016],[144.6604,13.4022],[144.6607,13.4019]]],[[[144.7056,13.4803],[144.7053,13.4801],[144.7053,13.4805],[144.7056,13.4803]]],[[[144.771,13.4928],[144.7699,13.4931],[144.7711,13.4934],[144.771,13.4928]]],[[[144.8601,13.6542],[144.8685,13.6525],[144.8803,13.6444],[144.8903,13.6309],[144.8994,13.622],[144.9044,13.6124],[144.9055,13.607],[144.9079,13.6053],[144.9271,13.6],[144.9315,13.6017],[144.9386,13.6001],[144.9511,13.601],[144.9557,13.5997],[144.9568,13.5981],[144.9517,13.5873],[144.9495,13.5766],[144.9467,13.5723],[144.9403,13.568],[144.9382,13.5576],[144.9398,13.5557],[144.9402,13.5526],[144.9325,13.5393],[144.9322,13.5339],[144.9285,13.5278],[144.9278,13.5242],[144.9234,13.5194],[144.9136,13.5155],[144.9028,13.513],[144.8975,13.5097],[144.896,13.507],[144.8918,13.5063],[144.891,13.5012],[144.892,13.4982],[144.8867,13.4922],[144.8768,13.4897],[144.8706,13.486],[144.8694,13.4831],[144.8515,13.464],[144.846,13.4625],[144.8432,13.4602],[144.8407,13.4603],[144.8407,13.459],[144.8389,13.4584],[144.8365,13.4547],[144.8332,13.453],[144.8338,13.4513],[144.832,13.4484],[144.8281,13.4453],[144.8268,13.4456],[144.8262,13.443],[144.8187,13.4421],[144.8108,13.4342],[144.8076,13.4274],[144.7838,13.4103],[144.7814,13.4049],[144.7819,13.4012],[144.7779,13.3967],[144.7779,13.3876],[144.7754,13.3866],[144.7726,13.3769],[144.7725,13.3714],[144.7696,13.367],[144.7719,13.3624],[144.7725,13.3523],[144.7714,13.3449],[144.7727,13.3409],[144.771,13.3323],[144.7729,13.3283],[144.7729,13.32],[144.7713,13.3148],[144.7724,13.3033],[144.7698,13.2961],[144.7636,13.2909],[144.7629,13.2839],[144.7549,13.2754],[144.7495,13.2717],[144.7452,13.2707],[144.7456,13.2686],[144.7426,13.2669],[144.7435,13.2649],[144.7378,13.259],[144.7362,13.2591],[144.7319,13.2499],[144.7252,13.246],[144.7206,13.2482],[144.7167,13.2467],[144.715,13.2481],[144.7062,13.2463],[144.6992,13.2476],[144.6935,13.2508],[144.6892,13.2509],[144.6836,13.2539],[144.6775,13.2545],[144.6747,13.257],[144.6727,13.2626],[144.6646,13.2677],[144.6619,13.2714],[144.6637,13.2777],[144.6575,13.29],[144.6581,13.2997],[144.653,13.3111],[144.6537,13.3123],[144.6515,13.3203],[144.6499,13.3219],[144.6493,13.3291],[144.6501,13.3293],[144.649,13.3322],[144.644,13.338],[144.6388,13.3388],[144.632,13.3418],[144.6385,13.3426],[144.6431,13.3488],[144.6441,13.3517],[144.6358,13.3576],[144.638,13.3589],[144.6449,13.3539],[144.6456,13.3551],[144.6494,13.3625],[144.6489,13.3652],[144.6505,13.3665],[144.6524,13.3734],[144.6521,13.3763],[144.6466,13.3798],[144.6467,13.3811],[144.6527,13.3796],[144.656,13.3856],[144.6539,13.3874],[144.6561,13.3863],[144.6592,13.3885],[144.6631,13.399],[144.6626,13.4034],[144.6606,13.4045],[144.6607,13.4089],[144.6561,13.4143],[144.6503,13.4153],[144.6473,13.4131],[144.6459,13.4136],[144.6472,13.4154],[144.6397,13.4212],[144.6403,13.4247],[144.6386,13.4307],[144.633,13.4344],[144.6242,13.4377],[144.6212,13.4406],[144.6181,13.4478],[144.6266,13.4577],[144.6383,13.4648],[144.6616,13.4648],[144.6627,13.4659],[144.6755,13.4631],[144.6863,13.4681],[144.6871,13.4654],[144.69,13.4636],[144.7054,13.4704],[144.7067,13.4717],[144.7074,13.4769],[144.7104,13.4742],[144.7166,13.4734],[144.723,13.4774],[144.7286,13.479],[144.7288,13.4811],[144.7323,13.4788],[144.7385,13.4792],[144.7482,13.4776],[144.7483,13.4802],[144.7468,13.4803],[144.7468,13.4815],[144.7511,13.481],[144.7515,13.4823],[144.7539,13.4813],[144.7547,13.4771],[144.7633,13.4786],[144.7694,13.4811],[144.7742,13.4877],[144.7752,13.4909],[144.7744,13.4944],[144.7699,13.4954],[144.7691,13.4997],[144.7715,13.5039],[144.7746,13.5065],[144.7832,13.5083],[144.7896,13.5042],[144.797,13.5062],[144.8009,13.5093],[144.8051,13.5157],[144.8063,13.5201],[144.8032,13.5223],[144.804,13.5255],[144.8021,13.5358],[144.8104,13.5472],[144.8119,13.5529],[144.811,13.5547],[144.8174,13.5589],[144.8216,13.5668],[144.8218,13.5698],[144.8307,13.5798],[144.8314,13.5833],[144.8365,13.5915],[144.8377,13.5968],[144.8366,13.5982],[144.8368,13.6045],[144.8352,13.6111],[144.8367,13.6241],[144.8466,13.6368],[144.8517,13.6483],[144.8601,13.6542]]]]}}]}