{"type":"FeatureCollection","features":[{"type":"Feature","properties":{"leaid":"1500030","name":"Hawaii Department of Education","kind":"Unified","gradeLow":"KG","gradeHigh":"12","state":"HI"},"geometry":{"type":"MultiPolygon","coordinates":[[[[-155.9235,19.8601],[-155.9236,19.8596],[-155.9237,19.86],[-155.9235,19.8601]]],[[[-155.8531,20.2713],[-155.8504,20.2686],[-155.8385,20.2707],[-155.8362,20.2676],[-155.8344,20.2671],[-155.8329,20.2685],[-155.8322,20.2656],[-155.8289,20.2632],[-155.8213,20.2633],[-155.8202,20.2617],[-155.8179,20.2621],[-155.8175,20.2611],[-155.8152,20.2619],[-155.8137,20.2599],[-155.8099,20.2599],[-155.806,20.2559],[-155.8031,20.2556],[-155.8008,20.2516],[-155.7933,20.252],[-155.7842,20.2482],[-155.7808,20.2455],[-155.7763,20.2451],[-155.7736,20.2498],[-155.7718,20.248],[-155.7727,20.2454],[-155.7677,20.2444],[-155.7674,20.2425],[-155.7646,20.2415],[-155.7638,20.2398],[-155.7619,20.2396],[-155.7606,20.2414],[-155.7559,20.2389],[-155.755,20.2325],[-155.7529,20.2337],[-155.7512,20.2332],[-155.7513,20.2303],[-155.7499,20.2299],[-155.7469,20.2323],[-155.7423,20.228],[-155.7415,20.2252],[-155.7362,20.2225],[-155.7366,20.2214],[-155.7339,20.2231],[-155.7333,20.22],[-155.7363,20.2149],[-155.7339,20.2072],[-155.7313,20.2044],[-155.7276,20.2039],[-155.723,20.2003],[-155.7197,20.2002],[-155.7194,20.1958],[-155.718,20.1973],[-155.7158,20.1972],[-155.7099,20.1936],[-155.7055,20.1926],[-155.7018,20.189],[-155.6987,20.1884],[-155.6913,20.1813],[-155.6878,20.1823],[-155.6838,20.1817],[-155.6791,20.1785],[-155.6681,20.1746],[-155.6584,20.1684],[-155.6539,20.1674],[-155.6506,20.1633],[-155.6495,20.1597],[-155.6433,20.1566],[-155.64,20.1482],[-155.636,20.1463],[-155.631,20.147],[-155.6245,20.1459],[-155.6176,20.1407],[-155.6101,20.1398],[-155.6074,20.1377],[-155.6069,20.1347],[-155.599,20.125],[-155.5909,20.1225],[-155.5817,20.1236],[-155.574,20.1286],[-155.559,20.1318],[-155.5522,20.1301],[-155.5503,20.1277],[-155.5419,20.125],[-155.5394,20.1226],[-155.5351,20.1227],[-155.5345,20.1239],[-155.5305,20.1211],[-155.5241,20.1204],[-155.5166,20.1151],[-155.511,20.1147],[-155.5098,20.1166],[-155.5025,20.1142],[-155.499,20.1155],[-155.4927,20.1107],[-155.4753,20.1064],[-155.4731,20.1038],[-155.4665,20.1041],[-155.4587,20.1017],[-155.453,20.0967],[-155.4467,20.0965],[-155.4419,20.0944],[-155.4403,20.0953],[-155.4392,20.0922],[-155.4362,20.0922],[-155.4279,20.0877],[-155.4193,20.0855],[-155.4148,20.0809],[-155.405,20.0788],[-155.4015,20.0735],[-155.3935,20.0689],[-155.3801,20.0655],[-155.375,20.0609],[-155.3702,20.0603],[-155.3658,20.0566],[-155.3574,20.0526],[-155.353,20.0515],[-155.3486,20.0521],[-155.3439,20.0464],[-155.3367,20.044],[-155.3302,20.0385],[-155.3188,20.0354],[-155.2961,20.0245],[-155.2892,20.0235],[-155.2856,20.0217],[-155.2826,20.022],[-155.2715,20.0154],[-155.2644,20.0086],[-155.2542,20.0037],[-155.2508,19.998],[-155.2426,19.9969],[-155.2436,19.9941],[-155.2409,19.9902],[-155.2337,19.9879],[-155.228,19.9839],[-155.2256,19.9837],[-155.2218,19.9806],[-155.2149,19.9778],[-155.2046,19.9696],[-155.2034,19.9662],[-155.1996,19.9635],[-155.1983,19.9582],[-155.1901,19.9572],[-155.1806,19.9518],[-155.1781,19.9478],[-155.1756,19.947],[-155.1639,19.9368],[-155.1604,19.9352],[-155.1607,19.9341],[-155.1583,19.9313],[-155.1555,19.9304],[-155.1561,19.9295],[-155.1523,19.9254],[-155.1411,19.9181],[-155.1383,19.913],[-155.1373,19.9131],[-155.138,19.9107],[-155.1332,19.9085],[-155.1309,19.9049],[-155.1277,19.9037],[-155.1281,19.9024],[-155.1261,19.9015],[-155.1268,19.9008],[-155.1218,19.8916],[-155.1218,19.8857],[-155.1131,19.8823],[-155.1131,19.8793],[-155.1075,19.8725],[-155.1054,19.8729],[-155.1055,19.8717],[-155.1028,19.8704],[-155.0999,19.872],[-155.0992,19.8711],[-155.1008,19.8702],[-155.0987,19.8678],[-155.095,19.8679],[-155.0907,19.8625],[-155.0918,19.8606],[-155.0903,19.8592],[-155.0907,19.8565],[-155.0859,19.8555],[-155.0869,19.8521],[-155.0843,19.8497],[-155.0874,19.8454],[-155.087,19.8424],[-155.0858,19.8416],[-155.0862,19.8392],[-155.0851,19.8389],[-155.0881,19.8316],[-155.0879,19.8292],[-155.0895,19.8283],[-155.089,19.8267],[-155.0913,19.8236],[-155.0906,19.8208],[-155.0944,19.8149],[-155.0919,19.8134],[-155.0964,19.8131],[-155.0951,19.8112],[-155.0958,19.8099],[-155.0931,19.8092],[-155.0928,19.807],[-155.0896,19.8069],[-155.0896,19.8039],[-155.0885,19.8036],[-155.0904,19.7996],[-155.0921,19.7994],[-155.0929,19.7978],[-155.0925,19.7909],[-155.0888,19.7863],[-155.091,19.7815],[-155.0901,19.7782],[-155.0923,19.7762],[-155.0923,19.7729],[-155.0935,19.7718],[-155.0912,19.7658],[-155.0933,19.7615],[-155.0926,19.7554],[-155.0939,19.7518],[-155.0924,19.746],[-155.0933,19.7422],[-155.0922,19.7412],[-155.0935,19.7391],[-155.0904,19.7321],[-155.093,19.7296],[-155.0898,19.7312],[-155.0859,19.7274],[-155.0794,19.7262],[-155.0737,19.7266],[-155.0738,19.7245],[-155.0804,19.7238],[-155.0764,19.7212],[-155.0767,19.7232],[-155.0735,19.7241],[-155.073,19.725],[-155.0739,19.7291],[-155.0688,19.7331],[-155.0665,19.733],[-155.065,19.7308],[-155.0656,19.7287],[-155.0649,19.727],[-155.0624,19.7307],[-155.0581,19.7324],[-155.0591,19.7337],[-155.057,19.7331],[-155.057,19.7367],[-155.0561,19.7345],[-155.0547,19.7345],[-155.0542,19.7356],[-155.0572,19.7374],[-155.066,19.7459],[-155.0778,19.7459],[-155.0695,19.7469],[-155.0659,19.7462],[-155.0631,19.7441],[-155.057,19.7376],[-155.0496,19.7347],[-155.0473,19.738],[-155.0454,19.7377],[-155.0455,19.7406],[-155.0445,19.7416],[-155.043,19.741],[-155.0428,19.7421],[-155.0401,19.7409],[-155.0377,19.7415],[-155.0353,19.74],[-155.0346,19.7412],[-155.0335,19.7395],[-155.0341,19.7374],[-155.0328,19.738],[-155.0312,19.7364],[-155.0287,19.7387],[-155.0255,19.737],[-155.0249,19.7351],[-155.0166,19.7377],[-155.0164,19.7405],[-155.014,19.74],[-155.0126,19.7381],[-155.0056,19.739],[-155.0036,19.737],[-155.0031,19.7344],[-154.9954,19.7262],[-154.9923,19.7161],[-154.9872,19.7085],[-154.9856,19.7024],[-154.9848,19.7027],[-154.9846,19.6955],[-154.9831,19.6952],[-154.9809,19.6906],[-154.9825,19.6813],[-154.9859,19.6753],[-154.9844,19.6719],[-154.9856,19.6615],[-154.9817,19.656],[-154.9827,19.6528],[-154.9844,19.6515],[-154.984,19.6478],[-154.9855,19.6468],[-154.982,19.6392],[-154.9743,19.6332],[-154.9675,19.6312],[-154.9615,19.6259],[-154.9556,19.6276],[-154.9496,19.6262],[-154.9476,19.6217],[-154.951,19.6136],[-154.9502,19.6098],[-154.9471,19.6049],[-154.9378,19.5993],[-154.9345,19.5987],[-154.932,19.5954],[-154.9284,19.5936],[-154.9228,19.5845],[-154.9148,19.5822],[-154.9119,19.5774],[-154.9063,19.5718],[-154.8916,19.5651],[-154.8852,19.5592],[-154.875,19.5568],[-154.871,19.5529],[-154.8608,19.5494],[-154.8526,19.5492],[-154.85,19.5455],[-154.8436,19.5431],[-154.8374,19.5384],[-154.8267,19.5376],[-154.8144,19.5301],[-154.8121,19.525],[-154.8094,19.5225],[-154.8094,19.5185],[-154.8141,19.5136],[-154.8136,19.5089],[-154.815,19.5049],[-154.8174,19.5032],[-154.8195,19.5052],[-154.8216,19.5022],[-154.8234,19.5022],[-154.821,19.4988],[-154.8179,19.4991],[-154.8176,19.4982],[-154.8202,19.4954],[-154.8193,19.4921],[-154.822,19.4892],[-154.823,19.4813],[-154.83,19.4735],[-154.8333,19.4728],[-154.8385,19.4636],[-154.8445,19.4601],[-154.846,19.4605],[-154.8465,19.4579],[-154.8508,19.4529],[-154.8685,19.4381],[-154.8782,19.4341],[-154.8811,19.4285],[-154.8878,19.4264],[-154.8913,19.4188],[-154.9104,19.41],[-154.9262,19.3986],[-154.9317,19.3975],[-154.9372,19.3864],[-154.9424,19.3836],[-154.9638,19.3657],[-154.9702,19.3653],[-154.9722,19.3638],[-154.9724,19.3603],[-154.9761,19.3574],[-154.9775,19.3519],[-154.9809,19.3493],[-154.9888,19.3467],[-154.9903,19.3447],[-155.0069,19.3376],[-155.0165,19.3361],[-155.0182,19.3348],[-155.0179,19.3325],[-155.0193,19.3315],[-155.0274,19.3296],[-155.0309,19.327],[-155.0385,19.3255],[-155.0489,19.3208],[-155.0571,19.3207],[-155.0612,19.3166],[-155.0706,19.3162],[-155.0743,19.3149],[-155.0908,19.3009],[-155.104,19.2964],[-155.1162,19.2889],[-155.1255,19.2804],[-155.1337,19.2761],[-155.1442,19.2768],[-155.1534,19.2706],[-155.1588,19.2685],[-155.1654,19.268],[-155.1725,19.2691],[-155.177,19.2672],[-155.1872,19.2663],[-155.1916,19.264],[-155.1954,19.259],[-155.1972,19.2615],[-155.2072,19.2608],[-155.2093,19.2594],[-155.2186,19.2626],[-155.2219,19.2623],[-155.2254,19.264],[-155.2282,19.2634],[-155.2357,19.2658],[-155.2356,19.2683],[-155.2371,19.2685],[-155.2368,19.2695],[-155.2415,19.27],[-155.2449,19.2718],[-155.2526,19.2708],[-155.2578,19.2735],[-155.261,19.2721],[-155.2637,19.2743],[-155.2686,19.2717],[-155.2755,19.2708],[-155.2787,19.2684],[-155.2818,19.2698],[-155.288,19.2683],[-155.2902,19.2667],[-155.2968,19.2663],[-155.3038,19.2618],[-155.319,19.2454],[-155.3337,19.2396],[-155.3414,19.2339],[-155.3456,19.2267],[-155.3468,19.2217],[-155.3516,19.2153],[-155.3558,19.2135],[-155.3606,19.2089],[-155.3743,19.2035],[-155.3921,19.2006],[-155.397,19.1976],[-155.3999,19.1932],[-155.4042,19.1903],[-155.4096,19.1904],[-155.4149,19.1876],[-155.4174,19.1879],[-155.4194,19.1845],[-155.4271,19.1795],[-155.4325,19.1706],[-155.4457,19.1612],[-155.4482,19.1565],[-155.4512,19.1548],[-155.4528,19.1521],[-155.4665,19.1467],[-155.4687,19.1479],[-155.4743,19.1473],[-155.4882,19.1408],[-155.4935,19.1403],[-155.4979,19.1418],[-155.5,19.1384],[-155.504,19.1382],[-155.5078,19.1364],[-155.5078,19.1349],[-155.5118,19.1333],[-155.5137,19.131],[-155.5121,19.1271],[-155.5135,19.1261],[-155.5121,19.1243],[-155.5145,19.1236],[-155.514,19.1226],[-155.5196,19.117],[-155.5292,19.1143],[-155.5302,19.1111],[-155.537,19.1047],[-155.5392,19.0986],[-155.5443,19.0933],[-155.5452,19.089],[-155.5489,19.0884],[-155.5558,19.0788],[-155.5566,19.0719],[-155.5553,19.0694],[-155.5563,19.0644],[-155.5552,19.0622],[-155.5562,19.0603],[-155.5543,19.0545],[-155.5563,19.0527],[-155.5558,19.0504],[-155.5574,19.0466],[-155.5664,19.0325],[-155.5699,19.0297],[-155.5766,19.0274],[-155.5819,19.0222],[-155.587,19.0078],[-155.596,18.9988],[-155.5965,18.9807],[-155.5981,18.9783],[-155.5999,18.9786],[-155.6012,18.9773],[-155.6019,18.9716],[-155.6028,18.9705],[-155.6036,18.9716],[-155.6061,18.9709],[-155.6088,18.9718],[-155.613,18.9689],[-155.6154,18.9755],[-155.6169,18.9752],[-155.6161,18.9736],[-155.6178,18.9714],[-155.6203,18.973],[-155.6215,18.9724],[-155.625,18.9652],[-155.625,18.9599],[-155.6275,18.9582],[-155.6301,18.9513],[-155.6333,18.9503],[-155.6359,18.9439],[-155.638,18.9417],[-155.6411,18.9392],[-155.6486,18.9367],[-155.6534,18.9293],[-155.6571,18.9279],[-155.6576,18.9257],[-155.6598,18.924],[-155.6666,18.923],[-155.6674,18.9198],[-155.6707,18.9199],[-155.6711,18.9188],[-155.672,18.9198],[-155.6761,18.9153],[-155.6815,18.9139],[-155.6854,18.9151],[-155.6875,18.9219],[-155.6857,18.9274],[-155.6858,18.932],[-155.6903,18.9421],[-155.7003,18.9499],[-155.7062,18.9512],[-155.7124,18.9594],[-155.717,18.9631],[-155.7219,18.9639],[-155.7224,18.9659],[-155.7248,18.967],[-155.7244,18.968],[-155.726,18.9694],[-155.7316,18.9701],[-155.7328,18.9722],[-155.7369,18.9734],[-155.744,18.973],[-155.7575,18.9795],[-155.7624,18.9804],[-155.7654,18.986],[-155.7799,18.9938],[-155.7849,18.9991],[-155.7928,19.0025],[-155.7967,19.0056],[-155.7983,19.0079],[-155.7978,19.0098],[-155.8006,19.0136],[-155.8049,19.013],[-155.8089,19.0143],[-155.8105,19.0133],[-155.8157,19.0158],[-155.82,19.0153],[-155.8246,19.0183],[-155.8293,19.0188],[-155.8345,19.022],[-155.8379,19.0217],[-155.8391,19.0204],[-155.8452,19.0237],[-155.8473,19.0223],[-155.8531,19.0224],[-155.8552,19.0252],[-155.8639,19.0277],[-155.8658,19.0308],[-155.8719,19.0341],[-155.8731,19.0337],[-155.8772,19.0367],[-155.8815,19.0366],[-155.8841,19.0393],[-155.8839,19.0493],[-155.8863,19.0558],[-155.8926,19.0619],[-155.895,19.0688],[-155.8983,19.0731],[-155.9033,19.0765],[-155.9028,19.0807],[-155.905,19.082],[-155.9083,19.0811],[-155.9098,19.0831],[-155.9137,19.0998],[-155.916,19.103],[-155.9209,19.1177],[-155.9207,19.1278],[-155.9197,19.1319],[-155.9179,19.1324],[-155.9201,19.1347],[-155.9208,19.1379],[-155.9167,19.1402],[-155.9175,19.1424],[-155.9147,19.1442],[-155.913,19.1474],[-155.9142,19.1486],[-155.9128,19.1544],[-155.9174,19.1554],[-155.9189,19.1578],[-155.9144,19.1694],[-155.9126,19.1712],[-155.9096,19.1715],[-155.9094,19.1749],[-155.912,19.1765],[-155.9105,19.1774],[-155.9113,19.1835],[-155.9107,19.1858],[-155.9096,19.1859],[-155.9095,19.188],[-155.911,19.1885],[-155.9111,19.19],[-155.9082,19.1968],[-155.9095,19.1983],[-155.908,19.2006],[-155.9091,19.2054],[-155.9013,19.2144],[-155.9027,19.2178],[-155.904,19.2182],[-155.9032,19.2213],[-155.9054,19.2292],[-155.9029,19.238],[-155.9,19.2428],[-155.9037,19.2512],[-155.9024,19.2539],[-155.9024,19.2597],[-155.8989,19.265],[-155.8951,19.2748],[-155.8941,19.2798],[-155.8952,19.2824],[-155.8941,19.2836],[-155.8939,19.2881],[-155.8914,19.2917],[-155.8923,19.2963],[-155.8908,19.2989],[-155.8924,19.3043],[-155.8898,19.3129],[-155.8912,19.3154],[-155.8902,19.3163],[-155.8919,19.3174],[-155.8937,19.3225],[-155.8928,19.3272],[-155.8887,19.3302],[-155.8885,19.3339],[-155.8869,19.3355],[-155.8889,19.3435],[-155.8887,19.348],[-155.892,19.3538],[-155.8917,19.3565],[-155.8933,19.3584],[-155.8949,19.3668],[-155.8978,19.372],[-155.9002,19.3734],[-155.8984,19.3797],[-155.9002,19.3823],[-155.9039,19.384],[-155.905,19.3896],[-155.9101,19.3939],[-155.9136,19.3998],[-155.9138,19.4019],[-155.9082,19.4117],[-155.9086,19.416],[-155.9092,19.4179],[-155.914,19.4196],[-155.9171,19.4232],[-155.9161,19.4247],[-155.914,19.4246],[-155.9151,19.4281],[-155.9194,19.4285],[-155.9223,19.4316],[-155.9245,19.4402],[-155.923,19.4456],[-155.9254,19.4517],[-155.9245,19.4559],[-155.9269,19.4602],[-155.931,19.4621],[-155.9283,19.4633],[-155.9252,19.4681],[-155.9239,19.4723],[-155.9254,19.4728],[-155.9252,19.4741],[-155.9213,19.4755],[-155.9224,19.4792],[-155.9245,19.4817],[-155.9305,19.4849],[-155.9356,19.4856],[-155.9364,19.4819],[-155.9399,19.4817],[-155.9433,19.4859],[-155.9515,19.4866],[-155.9531,19.4887],[-155.9509,19.499],[-155.9526,19.5007],[-155.9529,19.5049],[-155.9547,19.5073],[-155.9536,19.51],[-155.9586,19.5153],[-155.9622,19.517],[-155.963,19.5227],[-155.9585,19.5278],[-155.9597,19.5327],[-155.9588,19.5362],[-155.9599,19.5405],[-155.9693,19.556],[-155.9687,19.5627],[-155.9646,19.5654],[-155.9676,19.5656],[-155.9671,19.5671],[-155.9692,19.5674],[-155.9703,19.5698],[-155.9701,19.5775],[-155.9714,19.581],[-155.9691,19.5837],[-155.9745,19.5909],[-155.9744,19.5977],[-155.9792,19.6031],[-155.9772,19.6066],[-155.9839,19.6149],[-155.9851,19.6147],[-155.9852,19.6171],[-155.9892,19.6203],[-155.9898,19.6238],[-155.9886,19.627],[-155.9938,19.6347],[-155.993,19.6378],[-155.9965,19.6399],[-155.9979,19.643],[-156.0039,19.6401],[-156.017,19.6481],[-156.0188,19.6503],[-156.0236,19.6513],[-156.029,19.6501],[-156.0325,19.6533],[-156.0343,19.6588],[-156.0357,19.6592],[-156.0339,19.6619],[-156.0338,19.6684],[-156.0302,19.6704],[-156.0307,19.6734],[-156.0286,19.6746],[-156.0293,19.6789],[-156.0373,19.6863],[-156.0361,19.6902],[-156.04,19.6941],[-156.0478,19.6962],[-156.0479,19.6989],[-156.0518,19.7036],[-156.0508,19.7099],[-156.0525,19.7187],[-156.0592,19.724],[-156.0643,19.7308],[-156.0629,19.7337],[-156.0592,19.735],[-156.0558,19.7391],[-156.0578,19.7496],[-156.0536,19.7534],[-156.0522,19.7572],[-156.052,19.7625],[-156.0535,19.7649],[-156.0515,19.7686],[-156.053,19.7756],[-156.05,19.7772],[-156.0498,19.7805],[-156.0484,19.7822],[-156.0429,19.7853],[-156.0412,19.7842],[-156.0397,19.7856],[-156.0417,19.7902],[-156.0411,19.7912],[-156.0387,19.7916],[-156.0366,19.7938],[-156.032,19.794],[-156.0289,19.7961],[-156.0286,19.7986],[-156.0245,19.799],[-156.0201,19.8048],[-156.0178,19.805],[-156.0157,19.81],[-156.0099,19.8132],[-156.0093,19.8167],[-156.004,19.8181],[-156.004,19.8225],[-156.0026,19.8215],[-156.0009,19.8223],[-155.9996,19.825],[-156.0007,19.8261],[-156.0004,19.8288],[-155.989,19.8346],[-155.9896,19.8382],[-155.9848,19.8406],[-155.9829,19.8459],[-155.975,19.8515],[-155.9611,19.8561],[-155.9553,19.8553],[-155.9507,19.8557],[-155.9492,19.857],[-155.9453,19.8534],[-155.9403,19.8523],[-155.9316,19.8554],[-155.9264,19.859],[-155.9241,19.8583],[-155.9231,19.8608],[-155.9248,19.8634],[-155.9245,19.8605],[-155.9269,19.8684],[-155.9255,19.875],[-155.9212,19.8783],[-155.918,19.879],[-155.9181,19.8815],[-155.9153,19.8849],[-155.9156,19.8871],[-155.9133,19.8889],[-155.9111,19.8887],[-155.9088,19.8912],[-155.9088,19.8957],[-155.9073,19.8966],[-155.9099,19.9003],[-155.9086,19.9002],[-155.9072,19.9027],[-155.9039,19.9035],[-155.9043,19.9083],[-155.9017,19.9124],[-155.8933,19.915],[-155.8902,19.9178],[-155.8906,19.9201],[-155.8929,19.9209],[-155.8941,19.9231],[-155.8944,19.9272],[-155.8929,19.929],[-155.8895,19.9295],[-155.8925,19.9322],[-155.8876,19.937],[-155.8804,19.9372],[-155.8795,19.9428],[-155.8814,19.9439],[-155.88,19.9451],[-155.8806,19.9458],[-155.8767,19.9472],[-155.8748,19.9454],[-155.8721,19.9468],[-155.8727,19.9476],[-155.8706,19.9489],[-155.871,19.9502],[-155.8612,19.9608],[-155.861,19.9638],[-155.8568,19.969],[-155.8523,19.9713],[-155.8488,19.9715],[-155.8407,19.9769],[-155.8387,19.9755],[-155.8341,19.9772],[-155.8352,19.9805],[-155.8338,19.9807],[-155.8339,19.9825],[-155.8321,19.9824],[-155.8312,19.9853],[-155.834,19.9884],[-155.8328,19.9912],[-155.8297,19.993],[-155.8289,19.9955],[-155.8309,20.0029],[-155.8298,20.0059],[-155.8277,20.0073],[-155.8298,20.0109],[-155.8279,20.0134],[-155.8281,20.0189],[-155.8264,20.0191],[-155.8257,20.021],[-155.8262,20.0318],[-155.8285,20.0305],[-155.8319,20.0321],[-155.8366,20.0376],[-155.8369,20.0405],[-155.8365,20.0377],[-155.8336,20.0344],[-155.8296,20.036],[-155.8281,20.0353],[-155.8326,20.0404],[-155.8302,20.0404],[-155.834,20.041],[-155.8346,20.0426],[-155.8349,20.0417],[-155.8362,20.0445],[-155.8395,20.0472],[-155.8419,20.0532],[-155.8465,20.0555],[-155.8469,20.0596],[-155.8543,20.0657],[-155.8623,20.0776],[-155.8674,20.0791],[-155.8704,20.0871],[-155.8736,20.0887],[-155.8751,20.0927],[-155.8772,20.0941],[-155.877,20.0962],[-155.8808,20.1013],[-155.8817,20.1059],[-155.8865,20.1086],[-155.8851,20.1138],[-155.8867,20.1147],[-155.8858,20.1163],[-155.8882,20.1159],[-155.8866,20.1177],[-155.8878,20.1182],[-155.8873,20.1192],[-155.8904,20.1208],[-155.8897,20.123],[-155.8944,20.1273],[-155.8942,20.1315],[-155.8953,20.1331],[-155.8942,20.1348],[-155.8961,20.1384],[-155.896,20.1422],[-155.8991,20.1457],[-155.8997,20.1492],[-155.8982,20.1534],[-155.9005,20.1562],[-155.9019,20.1648],[-155.9036,20.1673],[-155.903,20.1728],[-155.9048,20.175],[-155.9031,20.1771],[-155.9041,20.1822],[-155.9053,20.1833],[-155.9034,20.1869],[-155.9067,20.1902],[-155.9049,20.192],[-155.9074,20.1987],[-155.9044,20.2112],[-155.9047,20.2145],[-155.9063,20.2162],[-155.9015,20.2303],[-155.9027,20.2335],[-155.8996,20.2381],[-155.8992,20.2438],[-155.8943,20.2451],[-155.8922,20.2473],[-155.8909,20.2552],[-155.8886,20.2559],[-155.8881,20.2579],[-155.8826,20.263],[-155.8728,20.2682],[-155.8531,20.2713]]],[[[-156.6116,20.5158],[-156.6126,20.5133],[-156.6145,20.5124],[-156.6126,20.5163],[-156.6116,20.5158]]],[[[-156.5751,20.6065],[-156.5671,20.6049],[-156.5636,20.6008],[-156.5565,20.5975],[-156.5555,20.595],[-156.5525,20.5934],[-156.553,20.5902],[-156.5489,20.5883],[-156.5415,20.5787],[-156.5421,20.5731],[-156.5401,20.5724],[-156.5402,20.5714],[-156.5502,20.5693],[-156.549,20.5622],[-156.5504,20.5598],[-156.5496,20.5564],[-156.5549,20.5493],[-156.5547,20.5453],[-156.5571,20.5402],[-156.5565,20.5384],[-156.5532,20.5366],[-156.5466,20.5402],[-156.5425,20.5373],[-156.536,20.5371],[-156.5366,20.5344],[-156.535,20.5302],[-156.5358,20.5284],[-156.543,20.5249],[-156.5442,20.523],[-156.5439,20.5186],[-156.5469,20.5167],[-156.547,20.515],[-156.552,20.516],[-156.5555,20.5208],[-156.56,20.5219],[-156.5616,20.5209],[-156.5618,20.5189],[-156.5666,20.5183],[-156.5706,20.5192],[-156.5763,20.5163],[-156.5769,20.5138],[-156.5824,20.5145],[-156.5862,20.5126],[-156.5874,20.5103],[-156.5933,20.5139],[-156.5974,20.5234],[-156.6021,20.5269],[-156.604,20.5252],[-156.607,20.5162],[-156.608,20.5174],[-156.6108,20.5165],[-156.613,20.5198],[-156.6233,20.5179],[-156.6253,20.5156],[-156.634,20.5136],[-156.6425,20.508],[-156.6473,20.5117],[-156.6462,20.5149],[-156.6483,20.5159],[-156.6486,20.5185],[-156.6521,20.5169],[-156.6594,20.5082],[-156.6647,20.5071],[-156.666,20.504],[-156.6672,20.5054],[-156.6688,20.5036],[-156.6715,20.5067],[-156.6758,20.5038],[-156.6788,20.5069],[-156.6829,20.5068],[-156.6835,20.5088],[-156.6866,20.5112],[-156.6845,20.5145],[-156.6871,20.5186],[-156.6973,20.5225],[-156.6981,20.5255],[-156.7037,20.5272],[-156.701,20.5364],[-156.698,20.5382],[-156.6966,20.5416],[-156.6897,20.5458],[-156.6904,20.5478],[-156.6838,20.5515],[-156.6814,20.5552],[-156.6789,20.5554],[-156.6801,20.557],[-156.6795,20.5586],[-156.6707,20.5611],[-156.6657,20.561],[-156.6621,20.5631],[-156.6623,20.5645],[-156.6598,20.5633],[-156.6553,20.5653],[-156.6516,20.5656],[-156.6512,20.5642],[-156.6491,20.5648],[-156.6489,20.5662],[-156.6461,20.5673],[-156.6458,20.5696],[-156.642,20.5701],[-156.6382,20.5747],[-156.6368,20.5736],[-156.6348,20.5759],[-156.6333,20.5756],[-156.6304,20.5791],[-156.6266,20.5808],[-156.6263,20.5826],[-156.6146,20.5871],[-156.6128,20.5892],[-156.6143,20.5915],[-156.6113,20.5911],[-156.6112,20.5936],[-156.6028,20.5959],[-156.5983,20.5995],[-156.5973,20.5987],[-156.5956,20.6004],[-156.592,20.601],[-156.5907,20.603],[-156.5751,20.6065]]],[[[-155.9757,20.731],[-155.9758,20.7308],[-155.9759,20.731],[-155.9757,20.731]]],[[[-155.9788,20.7312],[-155.9789,20.731],[-155.9789,20.7311],[-155.9788,20.7312]]],[[[-155.9779,20.7312],[-155.9754,20.7318],[-155.9763,20.7312],[-155.976,20.7308],[-155.9779,20.7312]]],[[[-155.979,20.7323],[-155.9791,20.7322],[-155.9791,20.7323],[-155.979,20.7323]]],[[[-155.9759,20.7328],[-155.976,20.7327],[-155.9761,20.7328],[-155.9759,20.7328]]],[[[-156.1325,20.8629],[-156.1336,20.8624],[-156.1325,20.8632],[-156.1325,20.8629]]],[[[-156.1748,20.8789],[-156.1757,20.8787],[-156.1747,20.8798],[-156.1748,20.8789]]],[[[-156.9902,20.9324],[-156.9716,20.9263],[-156.9552,20.9266],[-156.9484,20.9253],[-156.9402,20.9266],[-156.9251,20.9229],[-156.9176,20.9229],[-156.9024,20.9182],[-156.8958,20.9146],[-156.8872,20.9077],[-156.8836,20.9068],[-156.8756,20.8969],[-156.8695,20.8938],[-156.8667,20.89],[-156.8606,20.8853],[-156.8582,20.8812],[-156.8414,20.8685],[-156.8325,20.8599],[-156.8244,20.8495],[-156.8179,20.8364],[-156.8131,20.8319],[-156.8091,20.8256],[-156.8085,20.8204],[-156.8094,20.8092],[-156.8128,20.8046],[-156.8141,20.8004],[-156.8175,20.7945],[-156.8259,20.7848],[-156.8323,20.7721],[-156.837,20.7675],[-156.8383,20.7646],[-156.8464,20.7602],[-156.8553,20.7611],[-156.8583,20.7583],[-156.8697,20.7547],[-156.8796,20.7462],[-156.8825,20.7453],[-156.8876,20.7475],[-156.8905,20.7464],[-156.8914,20.7453],[-156.8892,20.7435],[-156.8895,20.7419],[-156.8927,20.7408],[-156.8932,20.7385],[-156.8958,20.7381],[-156.8961,20.7419],[-156.8993,20.7434],[-156.91,20.7391],[-156.9122,20.741],[-156.914,20.7394],[-156.9142,20.7404],[-156.9182,20.7411],[-156.9239,20.7391],[-156.9255,20.7398],[-156.9282,20.7381],[-156.93,20.7399],[-156.9311,20.7383],[-156.9338,20.7396],[-156.9372,20.7375],[-156.9397,20.7396],[-156.9458,20.7383],[-156.9478,20.7384],[-156.9487,20.7397],[-156.9497,20.7382],[-156.9534,20.7384],[-156.9546,20.7372],[-156.9679,20.7351],[-156.969,20.737],[-156.9683,20.7391],[-156.9703,20.7406],[-156.971,20.7435],[-156.9765,20.7498],[-156.9797,20.7506],[-156.9847,20.7567],[-156.9907,20.7757],[-156.9914,20.7816],[-156.9945,20.7841],[-156.9937,20.7855],[-156.9953,20.7896],[-156.9928,20.7912],[-156.9928,20.7943],[-156.9912,20.7952],[-156.9931,20.7965],[-156.993,20.8041],[-156.9907,20.8076],[-156.9905,20.8137],[-156.9889,20.8155],[-156.9906,20.8163],[-156.9901,20.8201],[-156.9912,20.8209],[-156.9901,20.8221],[-156.9951,20.8318],[-156.9982,20.8346],[-157.0062,20.8496],[-157.0093,20.8504],[-157.0087,20.8519],[-157.0124,20.8556],[-157.0151,20.857],[-157.0164,20.8563],[-157.0161,20.8577],[-157.0177,20.859],[-157.0323,20.8662],[-157.0349,20.8667],[-157.0372,20.8653],[-157.0388,20.8671],[-157.0397,20.866],[-157.0395,20.8688],[-157.0418,20.8706],[-157.0451,20.8703],[-157.048,20.8735],[-157.0523,20.8734],[-157.0523,20.8749],[-157.0548,20.8761],[-157.0553,20.8816],[-157.0596,20.8846],[-157.0588,20.8862],[-157.0643,20.8942],[-157.0626,20.8952],[-157.0627,20.8995],[-157.061,20.903],[-157.0624,20.9051],[-157.0604,20.9069],[-157.0613,20.9081],[-157.0591,20.9134],[-157.0549,20.9154],[-157.0537,20.9172],[-157.0513,20.9167],[-157.0358,20.9271],[-157.0256,20.9295],[-157.0141,20.929],[-157.0057,20.9299],[-157.0038,20.9313],[-156.9968,20.9306],[-156.9902,20.9324]]],[[[-156.5288,20.989],[-156.5292,20.9901],[-156.5276,20.9913],[-156.5275,20.9899],[-156.5288,20.989]]],[[[-156.6049,21.0346],[-156.5961,21.034],[-156.5962,21.0328],[-156.5946,21.0322],[-156.5916,21.0341],[-156.5918,21.0293],[-156.5905,21.0259],[-156.5874,21.0249],[-156.5877,21.0231],[-156.5837,21.0201],[-156.5751,21.0213],[-156.5688,21.0151],[-156.5648,21.0151],[-156.563,21.0162],[-156.5613,21.0146],[-156.5602,21.0151],[-156.5604,21.0134],[-156.5587,21.0134],[-156.5574,21.0116],[-156.5583,21.0092],[-156.5551,21.0023],[-156.5522,21.0013],[-156.5498,21.0049],[-156.5463,21.0051],[-156.5469,21.0042],[-156.5451,21.0019],[-156.5439,20.9953],[-156.5425,20.995],[-156.5421,20.9923],[-156.5403,20.9921],[-156.54,20.9889],[-156.5359,20.9876],[-156.5285,20.9883],[-156.5297,20.9858],[-156.5294,20.9844],[-156.5278,20.9843],[-156.5299,20.9833],[-156.5268,20.9816],[-156.5289,20.9806],[-156.5297,20.9782],[-156.5284,20.9758],[-156.5297,20.9743],[-156.5282,20.9678],[-156.5222,20.9635],[-156.5224,20.9613],[-156.5202,20.9602],[-156.5201,20.9582],[-156.5184,20.9581],[-156.519,20.9564],[-156.5174,20.9561],[-156.5187,20.9547],[-156.5115,20.951],[-156.5116,20.9444],[-156.5098,20.9396],[-156.4995,20.9346],[-156.4957,20.9276],[-156.4941,20.9176],[-156.491,20.9135],[-156.4873,20.9136],[-156.4857,20.9125],[-156.4825,20.9015],[-156.4767,20.9038],[-156.4824,20.9013],[-156.481,20.8982],[-156.4767,20.895],[-156.4748,20.8945],[-156.47,20.8967],[-156.4711,20.8987],[-156.469,20.8976],[-156.4681,20.8985],[-156.4743,20.9041],[-156.468,20.901],[-156.4561,20.9001],[-156.4416,20.9049],[-156.4261,20.9137],[-156.4227,20.9116],[-156.4154,20.9114],[-156.4072,20.9165],[-156.3993,20.9165],[-156.3954,20.9188],[-156.386,20.9196],[-156.3842,20.9207],[-156.3837,20.9233],[-156.381,20.9235],[-156.381,20.9251],[-156.3743,20.9271],[-156.3728,20.9293],[-156.3735,20.9321],[-156.3716,20.9332],[-156.3692,20.933],[-156.3636,20.9365],[-156.3596,20.9371],[-156.3585,20.9394],[-156.3549,20.9391],[-156.3526,20.9419],[-156.3456,20.9416],[-156.3423,20.9387],[-156.3423,20.9418],[-156.3367,20.9435],[-156.3361,20.9462],[-156.3333,20.946],[-156.332,20.9484],[-156.3316,20.9472],[-156.3282,20.9467],[-156.3256,20.9499],[-156.3239,20.9494],[-156.3245,20.9504],[-156.3219,20.9478],[-156.3217,20.9457],[-156.3203,20.9457],[-156.32,20.9478],[-156.3177,20.9484],[-156.3141,20.9448],[-156.3073,20.9423],[-156.3054,20.9443],[-156.3014,20.9442],[-156.299,20.9463],[-156.2957,20.9446],[-156.2937,20.9462],[-156.2846,20.9486],[-156.2795,20.9432],[-156.2775,20.9386],[-156.2751,20.9374],[-156.27,20.9385],[-156.2653,20.9428],[-156.2607,20.9388],[-156.2593,20.936],[-156.257,20.9364],[-156.2553,20.9412],[-156.2533,20.9394],[-156.2508,20.9407],[-156.2469,20.9384],[-156.2419,20.9385],[-156.243,20.9345],[-156.242,20.9334],[-156.2389,20.9351],[-156.2384,20.9329],[-156.2375,20.9334],[-156.2373,20.932],[-156.235,20.9309],[-156.2337,20.932],[-156.2323,20.9309],[-156.2301,20.9319],[-156.2309,20.9278],[-156.23,20.9242],[-156.2287,20.9241],[-156.2301,20.9179],[-156.2267,20.9167],[-156.2256,20.9187],[-156.2254,20.9179],[-156.2222,20.9184],[-156.2175,20.9166],[-156.2164,20.9107],[-156.2175,20.909],[-156.2163,20.907],[-156.2152,20.9082],[-156.2141,20.9057],[-156.212,20.9061],[-156.2083,20.904],[-156.2068,20.9013],[-156.2024,20.8999],[-156.1986,20.8966],[-156.197,20.8977],[-156.1989,20.8919],[-156.1946,20.8948],[-156.1957,20.8933],[-156.1944,20.8911],[-156.1888,20.8874],[-156.1852,20.8833],[-156.1785,20.8798],[-156.1773,20.8766],[-156.175,20.8777],[-156.1704,20.8746],[-156.1694,20.8707],[-156.1699,20.8633],[-156.1674,20.8643],[-156.1658,20.867],[-156.161,20.8653],[-156.1596,20.8618],[-156.1552,20.8627],[-156.151,20.8646],[-156.1501,20.8681],[-156.1488,20.8691],[-156.1454,20.8665],[-156.1467,20.8611],[-156.1339,20.8622],[-156.1339,20.8609],[-156.1327,20.8614],[-156.1345,20.8589],[-156.1313,20.8579],[-156.1312,20.8518],[-156.1279,20.8398],[-156.1263,20.8395],[-156.1244,20.842],[-156.1236,20.8412],[-156.1209,20.8358],[-156.1184,20.8343],[-156.1187,20.8307],[-156.1173,20.8291],[-156.1148,20.8277],[-156.1111,20.8279],[-156.1095,20.8264],[-156.1066,20.8288],[-156.0983,20.829],[-156.0979,20.8306],[-156.0954,20.8319],[-156.0939,20.8303],[-156.0907,20.8321],[-156.0876,20.8313],[-156.0873,20.8298],[-156.0855,20.8284],[-156.0842,20.8288],[-156.0815,20.8255],[-156.0796,20.826],[-156.0761,20.8224],[-156.0712,20.8219],[-156.0715,20.8206],[-156.0679,20.8196],[-156.0665,20.8156],[-156.0625,20.8143],[-156.0598,20.8105],[-156.0575,20.8104],[-156.0571,20.8117],[-156.054,20.8099],[-156.0518,20.8118],[-156.0474,20.8087],[-156.0432,20.8084],[-156.0416,20.8104],[-156.0333,20.8082],[-156.0189,20.801],[-156.0114,20.8004],[-156.0084,20.7969],[-156.0056,20.797],[-156.0035,20.7955],[-156.0036,20.7936],[-156.0063,20.7921],[-156.0058,20.7909],[-156.0041,20.7915],[-156.0033,20.7894],[-155.9996,20.7888],[-155.9993,20.787],[-155.9971,20.7852],[-155.9965,20.786],[-155.9946,20.7825],[-155.9878,20.7768],[-155.9869,20.7701],[-155.9824,20.769],[-155.9829,20.7672],[-155.9881,20.766],[-155.9898,20.7631],[-155.9868,20.7586],[-155.9819,20.7592],[-155.9821,20.7563],[-155.9843,20.7563],[-155.984,20.7551],[-155.9864,20.754],[-155.9855,20.7494],[-155.9866,20.7479],[-155.9852,20.7436],[-155.987,20.7393],[-155.9863,20.7374],[-155.9888,20.7359],[-155.9889,20.7345],[-155.9886,20.7319],[-155.9857,20.7296],[-155.9869,20.7293],[-155.9872,20.7227],[-155.9908,20.7219],[-155.991,20.7109],[-155.9939,20.7112],[-155.9938,20.7095],[-155.9968,20.7096],[-155.9961,20.7074],[-155.9994,20.7061],[-155.9995,20.7033],[-156.001,20.7028],[-156.0009,20.698],[-156.0045,20.6964],[-156.0069,20.6941],[-156.007,20.6923],[-156.01,20.6906],[-156.0141,20.6857],[-156.02,20.6869],[-156.0246,20.6834],[-156.0263,20.6843],[-156.0291,20.6835],[-156.0307,20.6824],[-156.0302,20.6812],[-156.0324,20.6803],[-156.0386,20.6737],[-156.0416,20.6727],[-156.0438,20.6681],[-156.0431,20.6647],[-156.0444,20.6645],[-156.0457,20.6607],[-156.0499,20.6616],[-156.0493,20.6577],[-156.0481,20.6569],[-156.05,20.6556],[-156.0496,20.6547],[-156.0522,20.6537],[-156.0557,20.6545],[-156.0561,20.6531],[-156.0578,20.6538],[-156.0593,20.6517],[-156.0653,20.6516],[-156.067,20.6493],[-156.0741,20.6505],[-156.0814,20.6544],[-156.0868,20.6509],[-156.089,20.6478],[-156.0963,20.6454],[-156.0964,20.6438],[-156.1014,20.6453],[-156.1085,20.6429],[-156.1105,20.6441],[-156.1119,20.6425],[-156.1136,20.6428],[-156.1134,20.6401],[-156.1148,20.6384],[-156.121,20.6337],[-156.125,20.6341],[-156.1272,20.6329],[-156.1301,20.6294],[-156.1308,20.6263],[-156.1372,20.6271],[-156.1382,20.6266],[-156.1373,20.6245],[-156.1385,20.623],[-156.1403,20.6248],[-156.1423,20.6246],[-156.1427,20.6214],[-156.1481,20.6291],[-156.1573,20.6296],[-156.1649,20.6257],[-156.1659,20.6238],[-156.1681,20.6243],[-156.1679,20.6265],[-156.1697,20.6274],[-156.1749,20.6241],[-156.1796,20.6256],[-156.1808,20.6283],[-156.1835,20.63],[-156.1873,20.6296],[-156.1909,20.6314],[-156.1962,20.6316],[-156.2037,20.6304],[-156.2081,20.628],[-156.2147,20.6276],[-156.2164,20.6254],[-156.2193,20.6255],[-156.2223,20.6233],[-156.2253,20.6229],[-156.2274,20.6193],[-156.2319,20.6165],[-156.2361,20.6159],[-156.2383,20.614],[-156.2416,20.6146],[-156.249,20.6088],[-156.2527,20.6094],[-156.254,20.6074],[-156.2646,20.6015],[-156.2697,20.6017],[-156.2732,20.5988],[-156.2843,20.5965],[-156.2896,20.5906],[-156.3003,20.5863],[-156.3063,20.5861],[-156.3075,20.5872],[-156.31,20.5861],[-156.3132,20.5875],[-156.3194,20.5871],[-156.3229,20.5883],[-156.3288,20.587],[-156.3309,20.5882],[-156.3311,20.5872],[-156.3379,20.5864],[-156.3382,20.5841],[-156.3398,20.5848],[-156.3418,20.5837],[-156.3432,20.584],[-156.3447,20.5871],[-156.3502,20.5869],[-156.3504,20.5859],[-156.3517,20.587],[-156.3532,20.5838],[-156.3569,20.584],[-156.3598,20.5813],[-156.3677,20.5807],[-156.3709,20.5785],[-156.3735,20.579],[-156.3739,20.5779],[-156.375,20.5791],[-156.3808,20.579],[-156.3821,20.5811],[-156.3866,20.5824],[-156.3868,20.5839],[-156.3902,20.5821],[-156.3935,20.5821],[-156.3996,20.5831],[-156.401,20.585],[-156.4038,20.5821],[-156.4059,20.5828],[-156.4068,20.5859],[-156.4153,20.5861],[-156.4175,20.5897],[-156.4157,20.594],[-156.4197,20.6004],[-156.4221,20.6007],[-156.4249,20.6032],[-156.4256,20.5992],[-156.4267,20.6008],[-156.429,20.5974],[-156.4298,20.5987],[-156.4319,20.5981],[-156.4336,20.6002],[-156.4384,20.6013],[-156.4408,20.6067],[-156.4442,20.6079],[-156.4429,20.6138],[-156.4398,20.616],[-156.441,20.6189],[-156.4402,20.6211],[-156.4485,20.6334],[-156.4526,20.6363],[-156.4552,20.6362],[-156.4544,20.6376],[-156.4559,20.6397],[-156.4497,20.6432],[-156.4494,20.6475],[-156.4464,20.6485],[-156.4459,20.6526],[-156.444,20.6539],[-156.444,20.6569],[-156.4466,20.6584],[-156.4448,20.6597],[-156.4442,20.6648],[-156.4467,20.6701],[-156.4457,20.6712],[-156.447,20.6756],[-156.4464,20.6789],[-156.4478,20.6825],[-156.446,20.686],[-156.4475,20.6889],[-156.4465,20.6929],[-156.4477,20.7013],[-156.45,20.7075],[-156.4487,20.7112],[-156.4496,20.7199],[-156.4529,20.7313],[-156.4581,20.7359],[-156.4595,20.7402],[-156.4628,20.76],[-156.462,20.7726],[-156.4649,20.7834],[-156.4755,20.7923],[-156.4895,20.7983],[-156.5,20.8001],[-156.509,20.7985],[-156.5141,20.7938],[-156.5167,20.7934],[-156.5184,20.7908],[-156.5182,20.789],[-156.5254,20.7819],[-156.5252,20.7802],[-156.5278,20.7813],[-156.5335,20.7776],[-156.5353,20.7788],[-156.5394,20.7773],[-156.5466,20.7836],[-156.5498,20.7841],[-156.5533,20.7875],[-156.5585,20.7891],[-156.5586,20.7904],[-156.56,20.79],[-156.5602,20.7912],[-156.5616,20.791],[-156.5641,20.7932],[-156.5698,20.7957],[-156.5854,20.7974],[-156.593,20.8012],[-156.6081,20.8121],[-156.6148,20.8134],[-156.6211,20.8105],[-156.6239,20.8122],[-156.6261,20.8112],[-156.6259,20.8123],[-156.631,20.8179],[-156.6346,20.8274],[-156.643,20.8352],[-156.6506,20.8383],[-156.6578,20.8495],[-156.672,20.862],[-156.6732,20.8649],[-156.6819,20.8743],[-156.6802,20.8731],[-156.681,20.8763],[-156.6905,20.8857],[-156.6878,20.8907],[-156.6877,20.9051],[-156.6913,20.9124],[-156.697,20.916],[-156.6992,20.919],[-156.6999,20.9206],[-156.6978,20.9282],[-156.6997,20.9304],[-156.6974,20.9317],[-156.6981,20.9322],[-156.6959,20.9352],[-156.6946,20.9518],[-156.6893,20.9587],[-156.682,20.9783],[-156.6765,20.9848],[-156.6774,20.9875],[-156.6756,20.9875],[-156.6756,20.9907],[-156.6733,20.9921],[-156.6725,20.9915],[-156.6727,20.9943],[-156.6709,20.9949],[-156.6722,20.9966],[-156.6689,20.9996],[-156.6712,21.002],[-156.6694,21.0029],[-156.6711,21.0053],[-156.6692,21.0049],[-156.6697,21.0099],[-156.6655,21.0071],[-156.6606,21.0076],[-156.6591,21.0085],[-156.6595,21.0117],[-156.6566,21.0078],[-156.655,21.0079],[-156.6493,21.012],[-156.6479,21.0154],[-156.6446,21.0146],[-156.6444,21.0173],[-156.6413,21.0161],[-156.6406,21.0176],[-156.6442,21.0223],[-156.644,21.0272],[-156.6419,21.0283],[-156.6401,21.0273],[-156.6377,21.0285],[-156.634,21.0275],[-156.6333,21.0286],[-156.6326,21.0269],[-156.6283,21.0254],[-156.6194,21.028],[-156.6129,21.0243],[-156.612,21.0273],[-156.6074,21.0313],[-156.6073,21.0333],[-156.6049,21.0346]]],[[[-156.7077,21.1345],[-156.7079,21.1335],[-156.7083,21.134],[-156.7077,21.1345]]],[[[-156.7037,21.1371],[-156.7054,21.1354],[-156.7047,21.1336],[-156.707,21.1346],[-156.7058,21.1369],[-156.7037,21.1371]]],[[[-156.902,21.1658],[-156.9021,21.1655],[-156.9023,21.1656],[-156.902,21.1658]]],[[[-156.8998,21.1661],[-156.9001,21.166],[-156.8999,21.1662],[-156.8998,21.1661]]],[[[-156.8983,21.1663],[-156.8986,21.1661],[-156.8987,21.1662],[-156.8983,21.1663]]],[[[-156.8994,21.1663],[-156.8997,21.1662],[-156.8996,21.1664],[-156.8994,21.1663]]],[[[-156.8997,21.1666],[-156.9,21.1664],[-156.8999,21.1666],[-156.8997,21.1666]]],[[[-156.8985,21.1666],[-156.8987,21.1666],[-156.8985,21.1667],[-156.8985,21.1666]]],[[[-156.8993,21.1668],[-156.8994,21.1664],[-156.8996,21.1668],[-156.8993,21.1668]]],[[[-156.8987,21.167],[-156.8989,21.1666],[-156.899,21.1666],[-156.8987,21.167]]],[[[-156.899,21.167],[-156.8992,21.1669],[-156.8992,21.167],[-156.899,21.167]]],[[[-156.8996,21.1675],[-156.8994,21.1672],[-156.8996,21.1673],[-156.8996,21.1675]]],[[[-156.8991,21.1673],[-156.8993,21.1677],[-156.899,21.1675],[-156.8991,21.1673]]],[[[-156.899,21.1679],[-156.8992,21.1677],[-156.899,21.168],[-156.899,21.1679]]],[[[-156.8973,21.1679],[-156.8978,21.1678],[-156.8974,21.168],[-156.8973,21.1679]]],[[[-156.8867,21.1699],[-156.8868,21.1695],[-156.8869,21.1698],[-156.8867,21.1699]]],[[[-156.8883,21.1721],[-156.8885,21.1716],[-156.8887,21.172],[-156.8883,21.1721]]],[[[-156.8929,21.1722],[-156.8931,21.1718],[-156.8932,21.1722],[-156.8929,21.1722]]],[[[-156.9203,21.1728],[-156.9206,21.1725],[-156.9207,21.1727],[-156.9203,21.1728]]],[[[-156.9338,21.1729],[-156.9341,21.1726],[-156.934,21.173],[-156.9338,21.1729]]],[[[-156.9254,21.173],[-156.9258,21.1728],[-156.9256,21.1731],[-156.9254,21.173]]],[[[-156.89,21.1731],[-156.8897,21.172],[-156.8907,21.1728],[-156.89,21.1731]]],[[[-156.8904,21.1734],[-156.8908,21.1732],[-156.8906,21.1735],[-156.8904,21.1734]]],[[[-156.9231,21.174],[-156.9241,21.1738],[-156.9238,21.1745],[-156.9231,21.174]]],[[[-156.8786,21.1751],[-156.8784,21.1746],[-156.8788,21.175],[-156.8786,21.1751]]],[[[-156.918,21.1757],[-156.9178,21.1752],[-156.9185,21.1753],[-156.918,21.1757]]],[[[-156.9303,21.1774],[-156.9322,21.1772],[-156.9325,21.1779],[-156.9313,21.1786],[-156.9303,21.1774]]],[[[-156.9263,21.1845],[-156.9272,21.1859],[-156.927,21.1879],[-156.9255,21.1875],[-156.9263,21.1845]]],[[[-156.9511,21.191],[-156.9513,21.1904],[-156.9513,21.191],[-156.9511,21.191]]],[[[-157.258,21.2277],[-157.2415,21.221],[-157.2351,21.2216],[-157.2243,21.2203],[-157.2183,21.2211],[-157.2145,21.2244],[-157.2051,21.218],[-157.2033,21.2203],[-157.2023,21.2197],[-157.2011,21.2177],[-157.199,21.2172],[-157.1966,21.2122],[-157.1924,21.2076],[-157.1855,21.2056],[-157.1811,21.2066],[-157.1729,21.2042],[-157.1675,21.2041],[-157.1609,21.2055],[-157.1526,21.2019],[-157.143,21.2029],[-157.1345,21.2012],[-157.1316,21.2026],[-157.125,21.1997],[-157.1212,21.2004],[-157.1134,21.1974],[-157.1044,21.1991],[-157.0992,21.1974],[-157.0966,21.1984],[-157.0837,21.1934],[-157.0695,21.1918],[-157.063,21.1889],[-157.053,21.1887],[-157.0433,21.1917],[-157.0211,21.1868],[-157.017,21.187],[-157.0031,21.1823],[-156.9942,21.184],[-156.9889,21.1877],[-156.9874,21.191],[-156.9879,21.195],[-156.9863,21.1966],[-156.9847,21.2041],[-156.9823,21.2064],[-156.9845,21.2101],[-156.984,21.2122],[-156.9801,21.2136],[-156.9787,21.2164],[-156.9763,21.2165],[-156.974,21.2185],[-156.9716,21.2166],[-156.9691,21.217],[-156.9685,21.2149],[-156.9628,21.2121],[-156.9626,21.2101],[-156.9601,21.2079],[-156.9606,21.2057],[-156.9586,21.2035],[-156.9588,21.2019],[-156.9516,21.1917],[-156.9508,21.1826],[-156.9475,21.18],[-156.9461,21.176],[-156.9341,21.1723],[-156.9313,21.1737],[-156.9315,21.176],[-156.9291,21.173],[-156.9226,21.1717],[-156.9202,21.1723],[-156.9174,21.175],[-156.916,21.1689],[-156.9103,21.1667],[-156.9073,21.1686],[-156.9048,21.1671],[-156.9051,21.1653],[-156.9035,21.1642],[-156.901,21.166],[-156.9,21.1646],[-156.8982,21.1659],[-156.8971,21.1681],[-156.8974,21.1684],[-156.8964,21.1698],[-156.8954,21.1693],[-156.897,21.1732],[-156.8921,21.171],[-156.8879,21.1713],[-156.886,21.1643],[-156.8818,21.1643],[-156.8794,21.1701],[-156.878,21.1675],[-156.8761,21.1684],[-156.8763,21.1698],[-156.8701,21.1647],[-156.8679,21.1645],[-156.8583,21.167],[-156.8549,21.1665],[-156.8467,21.17],[-156.8361,21.1666],[-156.8298,21.1693],[-156.83,21.1712],[-156.8255,21.1717],[-156.8214,21.175],[-156.8101,21.1764],[-156.8062,21.1786],[-156.803,21.1776],[-156.7997,21.1725],[-156.7968,21.171],[-156.7923,21.1729],[-156.7914,21.1723],[-156.7879,21.1772],[-156.775,21.1774],[-156.7735,21.1796],[-156.7715,21.1801],[-156.7631,21.178],[-156.7429,21.1764],[-156.7295,21.1706],[-156.7202,21.1636],[-156.7145,21.1628],[-156.7125,21.1601],[-156.7145,21.1579],[-156.7134,21.1557],[-156.7138,21.1516],[-156.7158,21.1468],[-156.7201,21.1434],[-156.7256,21.1324],[-156.7299,21.1292],[-156.732,21.1291],[-156.7317,21.128],[-156.7387,21.1175],[-156.7406,21.1176],[-156.7423,21.1148],[-156.7451,21.1139],[-156.7493,21.1082],[-156.7615,21.099],[-156.7726,21.0926],[-156.774,21.0901],[-156.7767,21.089],[-156.778,21.086],[-156.785,21.0851],[-156.7864,21.0832],[-156.7908,21.0817],[-156.7917,21.0781],[-156.7942,21.0756],[-156.7969,21.0754],[-156.8008,21.0727],[-156.803,21.0732],[-156.8052,21.0701],[-156.821,21.0686],[-156.8232,21.0662],[-156.8255,21.067],[-156.8268,21.0651],[-156.836,21.0615],[-156.8394,21.057],[-156.8416,21.0582],[-156.8438,21.057],[-156.8501,21.0568],[-156.8517,21.0547],[-156.8515,21.0519],[-156.8541,21.054],[-156.8511,21.0557],[-156.8512,21.0584],[-156.8543,21.0606],[-156.857,21.0602],[-156.8566,21.0586],[-156.8628,21.0573],[-156.875,21.0492],[-156.8824,21.0505],[-156.883,21.0496],[-156.8832,21.0512],[-156.8854,21.0498],[-156.8877,21.0518],[-156.8934,21.0528],[-156.8964,21.0551],[-156.8964,21.0575],[-156.8978,21.0584],[-156.9017,21.0573],[-156.9057,21.059],[-156.9081,21.0576],[-156.912,21.0581],[-156.9284,21.0631],[-156.9528,21.0666],[-156.9543,21.0685],[-156.9577,21.0697],[-156.9697,21.0702],[-156.9696,21.0725],[-156.9718,21.0733],[-156.9802,21.0741],[-156.9837,21.073],[-156.9848,21.0763],[-156.9879,21.0785],[-157.0004,21.0819],[-157.0034,21.0804],[-157.0055,21.0835],[-157.0113,21.0845],[-157.0209,21.0889],[-157.0309,21.0904],[-157.0304,21.0917],[-157.032,21.0911],[-157.0381,21.098],[-157.0442,21.0994],[-157.0513,21.0992],[-157.0523,21.1011],[-157.0644,21.1035],[-157.0654,21.1046],[-157.0667,21.1036],[-157.0797,21.1058],[-157.085,21.1048],[-157.094,21.1053],[-157.0963,21.1074],[-157.096,21.1088],[-157.105,21.1043],[-157.1079,21.1051],[-157.1108,21.1034],[-157.1153,21.1044],[-157.1178,21.1034],[-157.1179,21.1021],[-157.1206,21.1026],[-157.1218,21.1012],[-157.123,21.1026],[-157.125,21.1026],[-157.1285,21.1005],[-157.1332,21.1003],[-157.1413,21.097],[-157.1496,21.0962],[-157.1521,21.0943],[-157.1573,21.0962],[-157.1634,21.0955],[-157.1637,21.0943],[-157.1717,21.096],[-157.1806,21.0941],[-157.1949,21.0947],[-157.1969,21.0943],[-157.1969,21.0928],[-157.1978,21.0943],[-157.2041,21.0931],[-157.2457,21.0914],[-157.2523,21.0866],[-157.2545,21.0897],[-157.254,21.0906],[-157.2869,21.0962],[-157.2885,21.0954],[-157.2893,21.0964],[-157.2975,21.0972],[-157.3011,21.0963],[-157.3051,21.0984],[-157.3076,21.0983],[-157.3137,21.1049],[-157.3032,21.1184],[-157.3016,21.124],[-157.3033,21.1273],[-157.3016,21.1284],[-157.3015,21.1311],[-157.299,21.1328],[-157.2995,21.136],[-157.2934,21.1442],[-157.2913,21.1445],[-157.2938,21.1459],[-157.2922,21.1471],[-157.2916,21.1498],[-157.286,21.154],[-157.2843,21.1578],[-157.2817,21.1576],[-157.2802,21.1612],[-157.2765,21.1632],[-157.2745,21.1628],[-157.2599,21.1749],[-157.2547,21.1814],[-157.2553,21.186],[-157.2526,21.187],[-157.2512,21.1901],[-157.2524,21.1957],[-157.251,21.1964],[-157.2502,21.2009],[-157.2514,21.2021],[-157.2506,21.2056],[-157.252,21.2062],[-157.2549,21.2139],[-157.2614,21.2177],[-157.2615,21.2195],[-157.2632,21.2209],[-157.2608,21.2228],[-157.2607,21.2257],[-157.258,21.2277]]],[[[-157.9043,21.3126],[-157.9052,21.3121],[-157.9063,21.3123],[-157.9043,21.3126]]],[[[-157.8971,21.313],[-157.8976,21.3123],[-157.8983,21.3129],[-157.8971,21.313]]],[[[-157.8945,21.3131],[-157.8936,21.3111],[-157.8951,21.312],[-157.8945,21.3131]]],[[[-157.8837,21.3164],[-157.8838,21.3153],[-157.8824,21.3162],[-157.8826,21.3139],[-157.8817,21.3157],[-157.8757,21.3117],[-157.8763,21.3108],[-157.8745,21.3097],[-157.8719,21.3048],[-157.8734,21.3019],[-157.8785,21.3041],[-157.8888,21.3035],[-157.8869,21.3046],[-157.8921,21.3157],[-157.8903,21.3168],[-157.8837,21.3164]]],[[[-157.658,21.3233],[-157.6587,21.3221],[-157.6606,21.3228],[-157.6592,21.3243],[-157.658,21.3233]]],[[[-157.6575,21.3296],[-157.6613,21.3295],[-157.663,21.3313],[-157.6625,21.3331],[-157.659,21.3347],[-157.6573,21.3321],[-157.6575,21.3296]]],[[[-157.9599,21.3744],[-157.9531,21.3712],[-157.9554,21.366],[-157.9605,21.3648],[-157.9638,21.3595],[-157.9691,21.3587],[-157.969,21.3606],[-157.9713,21.3623],[-157.9716,21.3643],[-157.9691,21.3684],[-157.9617,21.3742],[-157.9599,21.3744]]],[[[-157.7014,21.3914],[-157.6995,21.3901],[-157.7019,21.3903],[-157.7014,21.3914]]],[[[-157.7023,21.3958],[-157.701,21.3954],[-157.701,21.3938],[-157.7031,21.3945],[-157.7023,21.3958]]],[[[-157.7242,21.4033],[-157.7225,21.4029],[-157.7242,21.4026],[-157.7242,21.4033]]],[[[-157.7894,21.4387],[-157.7897,21.4353],[-157.7929,21.434],[-157.7916,21.4356],[-157.7932,21.4358],[-157.7917,21.4365],[-157.7919,21.4378],[-157.7933,21.4376],[-157.7894,21.4387]]],[[[-157.7781,21.4651],[-157.7783,21.4648],[-157.7785,21.4651],[-157.7781,21.4651]]],[[[-157.8114,21.4667],[-157.8087,21.4667],[-157.8077,21.4663],[-157.8114,21.4667]]],[[[-157.7218,21.4737],[-157.7209,21.4727],[-157.7245,21.472],[-157.7241,21.4733],[-157.7218,21.4737]]],[[[-157.721,21.4741],[-157.722,21.4746],[-157.7215,21.4755],[-157.7209,21.475],[-157.721,21.4741]]],[[[-157.802,21.4806],[-157.7993,21.4795],[-157.8029,21.4796],[-157.802,21.4806]]],[[[-157.8312,21.5133],[-157.8315,21.513],[-157.8315,21.5133],[-157.8312,21.5133]]],[[[-157.8718,21.5588],[-157.8737,21.5574],[-157.8774,21.5579],[-157.8767,21.5591],[-157.8718,21.5588]]],[[[-157.9116,21.6518],[-157.9123,21.6516],[-157.9123,21.6517],[-157.9116,21.6518]]],[[[-157.9158,21.6533],[-157.9153,21.6527],[-157.9169,21.653],[-157.9158,21.6533]]],[[[-160.5476,21.6495],[-160.5499,21.6494],[-160.551,21.6512],[-160.551,21.6589],[-160.5521,21.6606],[-160.5513,21.662],[-160.5473,21.6618],[-160.5466,21.6607],[-160.5474,21.6554],[-160.5456,21.6512],[-160.5476,21.6495]]],[[[-157.9182,21.6631],[-157.9188,21.6624],[-157.9193,21.6627],[-157.9182,21.6631]]],[[[-157.9239,21.6671],[-157.9256,21.6644],[-157.9283,21.6645],[-157.9264,21.6661],[-157.9271,21.6672],[-157.9239,21.6671]]],[[[-157.9276,21.6759],[-157.9267,21.6754],[-157.9277,21.6755],[-157.9276,21.6759]]],[[[-157.9867,21.7156],[-157.986,21.7138],[-157.9814,21.7125],[-157.9685,21.7126],[-157.9658,21.7075],[-157.961,21.7051],[-157.9586,21.701],[-157.9508,21.6928],[-157.9475,21.691],[-157.9474,21.6882],[-157.9427,21.6808],[-157.9356,21.6771],[-157.9364,21.6759],[-157.9383,21.6759],[-157.9399,21.6734],[-157.939,21.669],[-157.9349,21.6654],[-157.9301,21.6642],[-157.9267,21.6611],[-157.9226,21.6568],[-157.9205,21.6519],[-157.9151,21.6514],[-157.9208,21.65],[-157.9214,21.6383],[-157.9238,21.6356],[-157.9228,21.6361],[-157.9238,21.6293],[-157.9153,21.6228],[-157.9161,21.6202],[-157.9153,21.6177],[-157.9108,21.6112],[-157.9071,21.6102],[-157.9006,21.6059],[-157.8974,21.5977],[-157.891,21.5926],[-157.8887,21.5844],[-157.8863,21.5813],[-157.8798,21.5784],[-157.8773,21.5754],[-157.8771,21.5662],[-157.879,21.5611],[-157.8773,21.559],[-157.8797,21.5546],[-157.8819,21.5534],[-157.8798,21.5509],[-157.8802,21.5473],[-157.8795,21.5509],[-157.8809,21.554],[-157.8796,21.5543],[-157.8768,21.5572],[-157.8742,21.5567],[-157.8721,21.5577],[-157.8714,21.5587],[-157.8718,21.561],[-157.8681,21.562],[-157.8667,21.5637],[-157.8546,21.5597],[-157.8492,21.553],[-157.8486,21.5485],[-157.8446,21.5452],[-157.8369,21.5299],[-157.8383,21.5203],[-157.8373,21.5122],[-157.8429,21.5117],[-157.8502,21.5092],[-157.854,21.5103],[-157.8551,21.5055],[-157.853,21.4986],[-157.8499,21.4959],[-157.8524,21.4915],[-157.8517,21.4894],[-157.848,21.4869],[-157.8455,21.4875],[-157.8446,21.4865],[-157.8449,21.4786],[-157.8471,21.4743],[-157.8452,21.4698],[-157.8457,21.4674],[-157.8434,21.4634],[-157.8372,21.4605],[-157.8353,21.4652],[-157.8338,21.4606],[-157.8295,21.4589],[-157.8274,21.4561],[-157.8235,21.4555],[-157.8186,21.4574],[-157.8147,21.4465],[-157.8125,21.4476],[-157.8137,21.4453],[-157.8102,21.4458],[-157.8138,21.4411],[-157.8119,21.4372],[-157.8025,21.4274],[-157.7976,21.4286],[-157.7978,21.4318],[-157.7947,21.4317],[-157.7943,21.4272],[-157.7921,21.4279],[-157.7909,21.4261],[-157.7933,21.4227],[-157.7927,21.4216],[-157.7939,21.4212],[-157.7903,21.4202],[-157.7896,21.4167],[-157.7864,21.4151],[-157.7863,21.4124],[-157.7831,21.4149],[-157.7757,21.4154],[-157.7741,21.4176],[-157.7719,21.4172],[-157.7714,21.4188],[-157.7692,21.4189],[-157.7694,21.4212],[-157.7672,21.4246],[-157.7684,21.4277],[-157.767,21.4308],[-157.763,21.4317],[-157.7634,21.4354],[-157.7599,21.4386],[-157.7651,21.4412],[-157.765,21.4431],[-157.7665,21.4412],[-157.7749,21.4458],[-157.7795,21.4464],[-157.7813,21.4496],[-157.7794,21.4527],[-157.7804,21.4548],[-157.7768,21.4576],[-157.7755,21.4603],[-157.7709,21.4595],[-157.766,21.4659],[-157.7661,21.463],[-157.7635,21.4615],[-157.7495,21.4568],[-157.7424,21.4574],[-157.7415,21.4589],[-157.7323,21.4633],[-157.7248,21.4615],[-157.7261,21.4573],[-157.7279,21.4569],[-157.7282,21.4529],[-157.7326,21.4496],[-157.7381,21.448],[-157.7393,21.4424],[-157.7382,21.4363],[-157.7408,21.4316],[-157.741,21.4287],[-157.7421,21.4274],[-157.7448,21.4285],[-157.7473,21.4258],[-157.7472,21.4206],[-157.7444,21.4121],[-157.7386,21.4043],[-157.7285,21.4007],[-157.7298,21.3996],[-157.728,21.4004],[-157.7233,21.3992],[-157.7189,21.3961],[-157.7142,21.3906],[-157.7115,21.3846],[-157.7089,21.3833],[-157.7087,21.3793],[-157.7126,21.3689],[-157.7115,21.3599],[-157.7088,21.3534],[-157.6971,21.3364],[-157.6938,21.3329],[-157.6754,21.3243],[-157.6694,21.319],[-157.6674,21.3198],[-157.6643,21.3186],[-157.6619,21.3131],[-157.6518,21.3139],[-157.6514,21.3125],[-157.6517,21.3071],[-157.6537,21.302],[-157.6607,21.2988],[-157.6614,21.2954],[-157.6672,21.2933],[-157.6718,21.2893],[-157.6772,21.288],[-157.6803,21.2833],[-157.6844,21.2819],[-157.6873,21.2799],[-157.6872,21.2787],[-157.689,21.2789],[-157.692,21.2717],[-157.6964,21.2754],[-157.6986,21.2751],[-157.6998,21.2713],[-157.6975,21.2712],[-157.6944,21.2665],[-157.7067,21.2623],[-157.7108,21.2622],[-157.7138,21.2638],[-157.7142,21.2665],[-157.7114,21.272],[-157.7122,21.2814],[-157.7143,21.2845],[-157.72,21.2862],[-157.7213,21.2882],[-157.7251,21.2865],[-157.7287,21.2862],[-157.7289,21.2874],[-157.7302,21.2868],[-157.7291,21.286],[-157.7308,21.2854],[-157.7279,21.2843],[-157.7279,21.2855],[-157.7245,21.2857],[-157.7256,21.2842],[-157.7303,21.2839],[-157.7355,21.2848],[-157.7364,21.2828],[-157.7453,21.2828],[-157.7572,21.2788],[-157.759,21.2763],[-157.7612,21.2767],[-157.7633,21.2791],[-157.7753,21.2748],[-157.7797,21.2723],[-157.7826,21.268],[-157.7925,21.2626],[-157.7941,21.2582],[-157.7986,21.2602],[-157.8096,21.2577],[-157.8181,21.2594],[-157.8211,21.2606],[-157.8241,21.2646],[-157.8259,21.2713],[-157.8251,21.2735],[-157.827,21.2773],[-157.8307,21.2797],[-157.836,21.2807],[-157.8394,21.284],[-157.8442,21.2843],[-157.8466,21.2874],[-157.8441,21.2846],[-157.846,21.2885],[-157.8432,21.2858],[-157.8456,21.289],[-157.842,21.2866],[-157.8438,21.2903],[-157.8364,21.2917],[-157.82,21.2781],[-157.8283,21.2859],[-157.8246,21.2863],[-157.8194,21.2913],[-157.8256,21.2864],[-157.8292,21.2866],[-157.8364,21.2921],[-157.8467,21.2908],[-157.8488,21.2845],[-157.851,21.2872],[-157.8489,21.29],[-157.8495,21.2913],[-157.8578,21.2943],[-157.8621,21.2939],[-157.8607,21.2953],[-157.8586,21.2943],[-157.8577,21.2962],[-157.86,21.2974],[-157.8637,21.2934],[-157.8716,21.2989],[-157.8704,21.3021],[-157.8662,21.3066],[-157.868,21.3084],[-157.8677,21.3097],[-157.8688,21.3086],[-157.8691,21.3104],[-157.867,21.3121],[-157.8683,21.3136],[-157.8679,21.3165],[-157.8692,21.317],[-157.87,21.3134],[-157.8717,21.3131],[-157.8731,21.3153],[-157.8722,21.3129],[-157.8742,21.3135],[-157.8728,21.3118],[-157.8803,21.3168],[-157.8788,21.3201],[-157.88,21.3189],[-157.8801,21.3203],[-157.8808,21.3192],[-157.883,21.32],[-157.8829,21.3228],[-157.8845,21.3204],[-157.8843,21.323],[-157.8879,21.3193],[-157.8885,21.3203],[-157.8889,21.319],[-157.8929,21.3176],[-157.8938,21.3226],[-157.8971,21.3282],[-157.8933,21.331],[-157.8934,21.3339],[-157.8949,21.334],[-157.8959,21.3374],[-157.897,21.3338],[-157.9008,21.3323],[-157.9017,21.3331],[-157.9015,21.3311],[-157.9046,21.3285],[-157.9131,21.324],[-157.9216,21.3165],[-157.9205,21.3128],[-157.9093,21.3124],[-157.9093,21.3058],[-157.9538,21.3063],[-157.9538,21.3105],[-157.9496,21.3106],[-157.9508,21.3184],[-157.9529,21.32],[-157.9589,21.3198],[-157.964,21.3229],[-157.9668,21.3287],[-157.9685,21.3285],[-157.9672,21.3292],[-157.9671,21.3313],[-157.9689,21.3311],[-157.9682,21.3324],[-157.9715,21.3344],[-157.971,21.3413],[-157.9679,21.3448],[-157.9691,21.3486],[-157.9664,21.3513],[-157.9694,21.3493],[-157.971,21.351],[-157.9708,21.3529],[-157.9669,21.3556],[-157.9625,21.3559],[-157.9638,21.3534],[-157.961,21.3566],[-157.9624,21.3533],[-157.9572,21.3603],[-157.9571,21.3587],[-157.9556,21.3599],[-157.9559,21.358],[-157.9545,21.3593],[-157.9564,21.3565],[-157.9556,21.3561],[-157.9537,21.3585],[-157.9554,21.3558],[-157.9533,21.3575],[-157.9458,21.3533],[-157.9464,21.3556],[-157.9427,21.3559],[-157.9429,21.3567],[-157.9467,21.357],[-157.9472,21.3582],[-157.9434,21.3621],[-157.9446,21.3615],[-157.9446,21.363],[-157.9496,21.3588],[-157.9515,21.3609],[-157.9481,21.3629],[-157.9481,21.3638],[-157.9497,21.3637],[-157.948,21.3654],[-157.9443,21.3665],[-157.9434,21.3682],[-157.9467,21.3673],[-157.9431,21.3691],[-157.941,21.3683],[-157.9429,21.3695],[-157.9425,21.3705],[-157.9382,21.3754],[-157.9392,21.3769],[-157.9372,21.3772],[-157.9366,21.3788],[-157.9398,21.3806],[-157.9434,21.3782],[-157.9456,21.3798],[-157.9463,21.383],[-157.9641,21.391],[-157.9724,21.3896],[-157.9728,21.3874],[-157.9693,21.3831],[-157.969,21.378],[-157.9723,21.3728],[-157.9762,21.3745],[-157.9786,21.3782],[-157.9785,21.381],[-157.9835,21.383],[-157.9857,21.3858],[-157.9877,21.3905],[-157.9868,21.3915],[-157.9939,21.3908],[-157.9953,21.3885],[-157.9934,21.3797],[-157.9881,21.3715],[-157.9844,21.3684],[-157.9807,21.3697],[-157.9777,21.3686],[-157.9785,21.364],[-157.9738,21.356],[-157.9757,21.3528],[-157.9744,21.3451],[-157.976,21.3452],[-157.9848,21.3553],[-157.9881,21.3541],[-157.9916,21.3548],[-157.9925,21.3578],[-157.9958,21.3602],[-157.9914,21.3608],[-157.9904,21.3657],[-157.9982,21.3626],[-158.002,21.3597],[-158.0035,21.3612],[-158.0046,21.3666],[-158.0072,21.368],[-158.0074,21.3705],[-158.0052,21.3718],[-158.0048,21.3735],[-158.0078,21.3777],[-158.0109,21.3748],[-158.0123,21.3764],[-158.0112,21.3801],[-158.0133,21.3822],[-158.0187,21.3812],[-158.0204,21.3781],[-158.0233,21.3771],[-158.024,21.3755],[-158.0211,21.3701],[-158.019,21.3689],[-158.0223,21.3692],[-158.0245,21.3676],[-158.0239,21.3659],[-158.0255,21.3654],[-158.0243,21.3616],[-158.0192,21.3601],[-158.0172,21.361],[-158.0121,21.3587],[-158.0112,21.3601],[-158.0048,21.3552],[-157.9991,21.357],[-157.9965,21.3565],[-157.9949,21.3517],[-157.9853,21.3519],[-157.9825,21.3489],[-157.9761,21.3393],[-157.9759,21.3349],[-157.9735,21.3293],[-157.9749,21.3248],[-157.9792,21.3199],[-158.0245,21.3093],[-158.0826,21.3012],[-158.0883,21.2988],[-158.1033,21.2979],[-158.1091,21.2994],[-158.1155,21.3058],[-158.1211,21.3169],[-158.1239,21.3248],[-158.1214,21.3249],[-158.1254,21.3303],[-158.1266,21.3372],[-158.1301,21.343],[-158.1331,21.3547],[-158.1328,21.3589],[-158.1385,21.3719],[-158.1401,21.3721],[-158.1415,21.3749],[-158.1435,21.3751],[-158.1437,21.3781],[-158.1488,21.3822],[-158.1497,21.3852],[-158.1617,21.3963],[-158.1665,21.3993],[-158.1747,21.401],[-158.1792,21.4043],[-158.1813,21.4096],[-158.18,21.4147],[-158.1826,21.4301],[-158.1913,21.4428],[-158.1946,21.4433],[-158.192,21.4452],[-158.1923,21.448],[-158.1959,21.4516],[-158.1987,21.4519],[-158.2052,21.4571],[-158.2054,21.4598],[-158.2078,21.4623],[-158.2121,21.4639],[-158.2169,21.4628],[-158.2154,21.4644],[-158.2158,21.4665],[-158.2201,21.4703],[-158.2225,21.479],[-158.2245,21.4811],[-158.2289,21.4811],[-158.2334,21.4858],[-158.2317,21.4999],[-158.2327,21.5],[-158.2331,21.5031],[-158.2323,21.508],[-158.2312,21.5082],[-158.2322,21.5085],[-158.2324,21.5135],[-158.2314,21.5163],[-158.2328,21.5192],[-158.231,21.5237],[-158.2328,21.5282],[-158.2319,21.5324],[-158.2309,21.5328],[-158.2319,21.533],[-158.2343,21.5401],[-158.2415,21.5472],[-158.2431,21.5474],[-158.2437,21.55],[-158.2491,21.555],[-158.2509,21.5586],[-158.259,21.5618],[-158.2688,21.5702],[-158.2836,21.5776],[-158.2805,21.5789],[-158.2765,21.5783],[-158.2591,21.5808],[-158.2542,21.583],[-158.2475,21.582],[-158.2264,21.5827],[-158.2218,21.5815],[-158.2127,21.5846],[-158.2021,21.5858],[-158.1976,21.5846],[-158.1928,21.5862],[-158.1816,21.5836],[-158.1765,21.5848],[-158.17,21.5823],[-158.1658,21.5838],[-158.1542,21.584],[-158.1403,21.5873],[-158.1325,21.5854],[-158.1262,21.5864],[-158.1216,21.5924],[-158.1156,21.5922],[-158.1123,21.5966],[-158.1098,21.5979],[-158.1084,21.5959],[-158.1067,21.5966],[-158.1084,21.5964],[-158.1072,21.5975],[-158.1082,21.5982],[-158.106,21.5983],[-158.1067,21.603],[-158.1104,21.6059],[-158.0989,21.6136],[-158.0975,21.6164],[-158.0925,21.6184],[-158.0873,21.6242],[-158.0848,21.6248],[-158.0838,21.6268],[-158.0799,21.6281],[-158.0767,21.631],[-158.0741,21.6348],[-158.0747,21.6364],[-158.0723,21.6371],[-158.0715,21.6408],[-158.0667,21.6434],[-158.0661,21.6456],[-158.0676,21.6462],[-158.0658,21.6499],[-158.0665,21.6533],[-158.066,21.6544],[-158.0644,21.6542],[-158.0658,21.6578],[-158.0639,21.6584],[-158.0488,21.6737],[-158.0432,21.6772],[-158.0406,21.6838],[-158.0356,21.6849],[-158.0322,21.69],[-158.0274,21.6921],[-158.0118,21.7041],[-158.0064,21.7026],[-158.0035,21.7031],[-158.0012,21.7063],[-158.0022,21.7103],[-158.0003,21.7089],[-157.9993,21.7102],[-157.9985,21.709],[-157.9923,21.708],[-157.987,21.7125],[-157.9867,21.7156]]],[[[-159.6657,21.9874],[-159.6658,21.9871],[-159.6661,21.9877],[-159.6657,21.9874]]],[[[-160.095,22.0054],[-160.0898,22.0047],[-160.0897,22.0015],[-160.0882,22.0],[-160.0777,22.0],[-160.0743,22.0013],[-160.0729,22.0036],[-160.0674,22.0001],[-160.0635,21.9998],[-160.0636,21.9977],[-160.0607,21.9982],[-160.0602,21.9969],[-160.0581,21.9966],[-160.0564,21.9923],[-160.0543,21.9906],[-160.052,21.9837],[-160.0527,21.9803],[-160.0563,21.9779],[-160.0605,21.9767],[-160.0617,21.9784],[-160.0641,21.978],[-160.0663,21.9759],[-160.0669,21.9727],[-160.0707,21.97],[-160.073,21.9602],[-160.0784,21.9551],[-160.0798,21.9473],[-160.0841,21.935],[-160.0857,21.9267],[-160.0829,21.9162],[-160.0758,21.9033],[-160.0761,21.8968],[-160.0802,21.8958],[-160.0809,21.8946],[-160.0835,21.895],[-160.0895,21.8895],[-160.0918,21.8909],[-160.0919,21.8895],[-160.0977,21.8849],[-160.0996,21.8848],[-160.1017,21.8865],[-160.1096,21.8791],[-160.1129,21.8818],[-160.1215,21.8771],[-160.126,21.877],[-160.1281,21.8794],[-160.1295,21.8793],[-160.1313,21.8754],[-160.1343,21.8758],[-160.142,21.873],[-160.1441,21.8745],[-160.1616,21.8647],[-160.1689,21.8555],[-160.1695,21.8511],[-160.1748,21.8469],[-160.1763,21.8392],[-160.1788,21.8386],[-160.1898,21.8224],[-160.1898,21.8194],[-160.1923,21.8172],[-160.1941,21.8113],[-160.1966,21.808],[-160.1948,21.8044],[-160.2014,21.7984],[-160.2038,21.7934],[-160.2036,21.7911],[-160.2052,21.789],[-160.2004,21.7865],[-160.2052,21.7797],[-160.2081,21.7813],[-160.2098,21.7852],[-160.2112,21.7833],[-160.218,21.7838],[-160.2196,21.7863],[-160.2239,21.7885],[-160.2255,21.7916],[-160.2295,21.7923],[-160.2323,21.7907],[-160.2364,21.7924],[-160.2348,21.7954],[-160.2358,21.7986],[-160.2389,21.8032],[-160.2461,21.806],[-160.2439,21.8101],[-160.2463,21.8141],[-160.2496,21.8151],[-160.249,21.8268],[-160.2465,21.832],[-160.2486,21.8352],[-160.2469,21.8371],[-160.2469,21.84],[-160.2499,21.8413],[-160.2488,21.8424],[-160.2485,21.847],[-160.2437,21.8501],[-160.2368,21.8597],[-160.235,21.8656],[-160.2364,21.8688],[-160.2356,21.876],[-160.2323,21.879],[-160.2321,21.8856],[-160.2299,21.8873],[-160.2288,21.8903],[-160.2256,21.8909],[-160.2138,21.8992],[-160.204,21.9089],[-160.2027,21.9124],[-160.1911,21.9215],[-160.19,21.9257],[-160.1813,21.927],[-160.1796,21.9286],[-160.1761,21.9287],[-160.1682,21.9321],[-160.166,21.9354],[-160.1653,21.939],[-160.1557,21.9408],[-160.1384,21.9477],[-160.1273,21.9555],[-160.1225,21.9623],[-160.1208,21.9693],[-160.1164,21.976],[-160.1174,21.9786],[-160.1161,21.9832],[-160.1174,21.9848],[-160.1127,21.9879],[-160.1141,21.991],[-160.1127,21.9952],[-160.1096,21.9953],[-160.1067,21.9983],[-160.1024,21.997],[-160.0964,22.0015],[-160.095,22.0054]]],[[[-160.0995,22.0222],[-160.0962,22.0225],[-160.0938,22.0252],[-160.0937,22.0272],[-160.0904,22.0243],[-160.0915,22.0204],[-160.096,22.0167],[-160.1003,22.0154],[-160.1054,22.0167],[-160.104,22.0229],[-160.1047,22.0263],[-160.1031,22.0292],[-160.1026,22.0249],[-160.0995,22.0222]]],[[[-159.3966,22.2147],[-159.3969,22.2147],[-159.3967,22.2148],[-159.3966,22.2147]]],[[[-159.4048,22.236],[-159.4038,22.2353],[-159.4039,22.2327],[-159.3998,22.2331],[-159.3995,22.2302],[-159.3974,22.2278],[-159.3943,22.2272],[-159.3935,22.2287],[-159.3937,22.2267],[-159.39,22.2254],[-159.3853,22.2283],[-159.3845,22.2273],[-159.3862,22.2242],[-159.3893,22.2231],[-159.3903,22.2221],[-159.389,22.2189],[-159.3947,22.2177],[-159.3972,22.2145],[-159.3976,22.2127],[-159.394,22.2174],[-159.3886,22.2183],[-159.3891,22.2225],[-159.3881,22.2232],[-159.386,22.22],[-159.3833,22.2193],[-159.3786,22.2204],[-159.3668,22.2148],[-159.3598,22.2148],[-159.3572,22.2177],[-159.3532,22.2181],[-159.3339,22.203],[-159.3338,22.2014],[-159.3366,22.1983],[-159.3351,22.1967],[-159.3293,22.1971],[-159.3241,22.1919],[-159.3206,22.1912],[-159.317,22.1883],[-159.3139,22.1812],[-159.3167,22.1751],[-159.3141,22.1745],[-159.3116,22.1695],[-159.3117,22.1648],[-159.3078,22.1605],[-159.309,22.1538],[-159.3123,22.1499],[-159.3165,22.148],[-159.3167,22.1465],[-159.3162,22.148],[-159.3116,22.1497],[-159.3092,22.1527],[-159.3031,22.1492],[-159.3007,22.1494],[-159.2988,22.1513],[-159.296,22.1465],[-159.2959,22.1414],[-159.297,22.1397],[-159.2961,22.1374],[-159.2977,22.1366],[-159.2972,22.1329],[-159.2953,22.1304],[-159.2969,22.1271],[-159.296,22.1256],[-159.2989,22.1245],[-159.2972,22.1229],[-159.2985,22.1224],[-159.2997,22.1183],[-159.2971,22.1138],[-159.3005,22.1069],[-159.3043,22.104],[-159.3049,22.1019],[-159.3058,22.1028],[-159.3076,22.1016],[-159.3092,22.0971],[-159.3137,22.0968],[-159.3144,22.0984],[-159.3131,22.1],[-159.3132,22.1009],[-159.3143,22.1016],[-159.3184,22.1008],[-159.324,22.1056],[-159.3231,22.1038],[-159.3177,22.1002],[-159.3134,22.1007],[-159.3147,22.0992],[-159.3145,22.0972],[-159.3134,22.0963],[-159.3096,22.0965],[-159.3081,22.0934],[-159.3178,22.0805],[-159.3187,22.0837],[-159.3198,22.085],[-159.3206,22.085],[-159.3181,22.0809],[-159.3199,22.0778],[-159.3197,22.074],[-159.3262,22.0768],[-159.3239,22.0755],[-159.3323,22.0681],[-159.3302,22.0688],[-159.3237,22.0752],[-159.3194,22.0737],[-159.3214,22.0642],[-159.3248,22.0587],[-159.3329,22.054],[-159.335,22.0545],[-159.3368,22.0531],[-159.3383,22.0486],[-159.347,22.0527],[-159.3488,22.0526],[-159.352,22.0514],[-159.3549,22.0477],[-159.361,22.0485],[-159.3627,22.0471],[-159.3634,22.0451],[-159.3667,22.0444],[-159.3638,22.0444],[-159.3627,22.0427],[-159.3638,22.0416],[-159.3625,22.0421],[-159.3629,22.0447],[-159.3613,22.0479],[-159.3549,22.0471],[-159.3518,22.0506],[-159.3478,22.0521],[-159.339,22.0479],[-159.3371,22.0454],[-159.3409,22.032],[-159.3414,22.0207],[-159.3383,22.0075],[-159.3359,22.0044],[-159.3352,21.9972],[-159.3328,21.9946],[-159.3338,21.9927],[-159.336,21.9924],[-159.3366,21.9878],[-159.336,21.9815],[-159.3333,21.9738],[-159.3326,21.9647],[-159.3385,21.9578],[-159.3405,21.961],[-159.3425,21.9618],[-159.3507,21.9596],[-159.3511,21.9636],[-159.3549,21.9631],[-159.355,21.9638],[-159.3565,21.9649],[-159.3549,21.9629],[-159.3552,21.9563],[-159.3563,21.9585],[-159.3614,21.9572],[-159.3605,21.9528],[-159.3635,21.9537],[-159.3636,21.9526],[-159.3597,21.9525],[-159.3604,21.952],[-159.3636,21.9523],[-159.3638,21.9546],[-159.3659,21.95],[-159.3747,21.951],[-159.3776,21.9502],[-159.3781,21.9489],[-159.3887,21.9482],[-159.3971,21.9463],[-159.378,21.9482],[-159.3743,21.9503],[-159.3672,21.9488],[-159.3628,21.9509],[-159.3553,21.9511],[-159.3512,21.9568],[-159.3532,21.9519],[-159.3509,21.951],[-159.3516,21.9486],[-159.3505,21.9475],[-159.3526,21.9467],[-159.3532,21.9446],[-159.3489,21.9406],[-159.3566,21.9395],[-159.3578,21.9349],[-159.3649,21.9346],[-159.3691,21.9325],[-159.371,21.9283],[-159.374,21.9283],[-159.375,21.9261],[-159.3793,21.9259],[-159.3861,21.9223],[-159.3849,21.9206],[-159.3876,21.9183],[-159.3867,21.9169],[-159.3882,21.9155],[-159.3912,21.9155],[-159.3931,21.9106],[-159.3902,21.906],[-159.394,21.9045],[-159.4003,21.906],[-159.4064,21.9017],[-159.4083,21.8978],[-159.407,21.8966],[-159.4099,21.8953],[-159.4129,21.8958],[-159.413,21.8929],[-159.4203,21.891],[-159.4224,21.8851],[-159.4318,21.8835],[-159.4368,21.8774],[-159.4427,21.8768],[-159.4447,21.8729],[-159.4473,21.8715],[-159.4544,21.8761],[-159.4579,21.8752],[-159.4625,21.8788],[-159.4704,21.8804],[-159.472,21.8829],[-159.4719,21.8815],[-159.4738,21.8812],[-159.4763,21.8841],[-159.4783,21.8836],[-159.4821,21.8854],[-159.4853,21.884],[-159.4874,21.8866],[-159.4908,21.8866],[-159.4913,21.8874],[-159.49,21.8878],[-159.4909,21.8889],[-159.4937,21.889],[-159.4955,21.8876],[-159.5001,21.8884],[-159.5027,21.8872],[-159.5041,21.8877],[-159.5056,21.8912],[-159.5077,21.8898],[-159.512,21.8895],[-159.5156,21.8912],[-159.5284,21.8879],[-159.5293,21.8858],[-159.5347,21.89],[-159.5448,21.8901],[-159.5464,21.8914],[-159.5544,21.8904],[-159.5568,21.8921],[-159.564,21.8927],[-159.5725,21.8973],[-159.5777,21.8958],[-159.5785,21.8979],[-159.5768,21.8994],[-159.5779,21.9005],[-159.5812,21.8985],[-159.5864,21.8995],[-159.5865,21.9009],[-159.5888,21.9018],[-159.5936,21.8998],[-159.59,21.9023],[-159.5923,21.9024],[-159.5907,21.9035],[-159.5918,21.9052],[-159.5927,21.9038],[-159.5923,21.9056],[-159.594,21.9072],[-159.5935,21.9114],[-159.5913,21.9147],[-159.5864,21.9154],[-159.5855,21.9181],[-159.5826,21.9189],[-159.5804,21.9203],[-159.5768,21.9202],[-159.5742,21.9211],[-159.5712,21.9241],[-159.5648,21.9261],[-159.5617,21.9281],[-159.5618,21.9353],[-159.5598,21.9392],[-159.5578,21.9473],[-159.557,21.9487],[-159.5567,21.9505],[-159.5528,21.9537],[-159.5546,21.9571],[-159.5516,21.9588],[-159.549,21.961],[-159.5477,21.9643],[-159.5465,21.9685],[-159.5475,21.9706],[-159.5459,21.9723],[-159.5472,21.9737],[-159.5452,21.9744],[-159.5445,21.9751],[-159.5425,21.9786],[-159.5429,21.981],[-159.5327,21.9843],[-159.5321,21.9894],[-159.5304,21.9902],[-159.5303,21.9906],[-159.5323,21.9896],[-159.5329,21.9845],[-159.543,21.9813],[-159.5428,21.9788],[-159.5446,21.9755],[-159.5476,21.9737],[-159.5463,21.9721],[-159.5477,21.9708],[-159.5468,21.9683],[-159.5481,21.964],[-159.5495,21.9609],[-159.5549,21.9572],[-159.553,21.9538],[-159.5571,21.9506],[-159.5622,21.9354],[-159.5621,21.9281],[-159.5709,21.9247],[-159.5747,21.9212],[-159.5801,21.9208],[-159.5853,21.9186],[-159.5869,21.9155],[-159.5917,21.9149],[-159.5945,21.9108],[-159.5943,21.9069],[-159.5999,21.9057],[-159.6003,21.9029],[-159.6019,21.9022],[-159.6001,21.8982],[-159.6025,21.8961],[-159.6072,21.8953],[-159.6108,21.8978],[-159.6107,21.903],[-159.6197,21.9052],[-159.6238,21.9099],[-159.6288,21.9104],[-159.6292,21.9123],[-159.631,21.9118],[-159.6317,21.9141],[-159.6378,21.9172],[-159.6408,21.9222],[-159.6408,21.9248],[-159.6455,21.9281],[-159.6486,21.9338],[-159.6516,21.9348],[-159.6528,21.9376],[-159.6522,21.942],[-159.6555,21.9445],[-159.6631,21.9457],[-159.6646,21.9491],[-159.6683,21.9524],[-159.6684,21.9546],[-159.6646,21.958],[-159.6616,21.9648],[-159.6574,21.9691],[-159.6516,21.9721],[-159.6503,21.9732],[-159.649,21.9746],[-159.6577,21.9692],[-159.6588,21.9737],[-159.6577,21.9769],[-159.6576,21.9821],[-159.6636,21.985],[-159.6661,21.9889],[-159.6651,21.9905],[-159.6655,21.9916],[-159.6713,21.9943],[-159.6696,21.9969],[-159.6719,22.0064],[-159.6724,22.0036],[-159.6699,21.9968],[-159.6715,21.994],[-159.6659,21.9916],[-159.6664,21.9877],[-159.6637,21.9845],[-159.6577,21.9817],[-159.6593,21.9735],[-159.6583,21.9688],[-159.6629,21.964],[-159.6653,21.9586],[-159.6685,21.9549],[-159.6799,21.9598],[-159.7096,21.9638],[-159.7181,21.9703],[-159.7598,21.9813],[-159.7665,21.9876],[-159.7762,22.0079],[-159.7879,22.0179],[-159.7909,22.0312],[-159.7867,22.0505],[-159.7876,22.0537],[-159.7858,22.0603],[-159.7865,22.0682],[-159.7822,22.0721],[-159.7753,22.0759],[-159.768,22.0835],[-159.7481,22.1004],[-159.7464,22.1066],[-159.7439,22.109],[-159.7437,22.1121],[-159.7412,22.1157],[-159.7406,22.1216],[-159.7358,22.1301],[-159.7334,22.1428],[-159.7244,22.1538],[-159.7127,22.1585],[-159.7101,22.16],[-159.7095,22.1621],[-159.7062,22.1608],[-159.6993,22.1657],[-159.6887,22.1664],[-159.6782,22.1703],[-159.6759,22.1687],[-159.6745,22.1696],[-159.6745,22.1715],[-159.6727,22.1698],[-159.6698,22.1708],[-159.668,22.1736],[-159.66,22.1766],[-159.6552,22.1814],[-159.6471,22.1837],[-159.6426,22.1864],[-159.6341,22.1954],[-159.6291,22.1986],[-159.6265,22.1985],[-159.6262,22.1999],[-159.6179,22.2027],[-159.6089,22.2072],[-159.608,22.2092],[-159.601,22.2117],[-159.5991,22.2148],[-159.5937,22.2178],[-159.5885,22.2235],[-159.5831,22.2269],[-159.5751,22.2267],[-159.5687,22.2238],[-159.5615,22.2295],[-159.5577,22.2277],[-159.5512,22.2274],[-159.5473,22.2247],[-159.5445,22.218],[-159.5414,22.2169],[-159.5446,22.2172],[-159.5497,22.2144],[-159.5445,22.2167],[-159.5416,22.2159],[-159.5348,22.2211],[-159.5371,22.2158],[-159.5349,22.2136],[-159.5367,22.2157],[-159.5348,22.2163],[-159.5348,22.2197],[-159.5244,22.2173],[-159.5225,22.2184],[-159.5202,22.2171],[-159.5208,22.2145],[-159.5194,22.2101],[-159.5163,22.2071],[-159.5193,22.206],[-159.5194,22.2052],[-159.5186,22.2043],[-159.5192,22.2059],[-159.5162,22.207],[-159.5137,22.2063],[-159.5071,22.2006],[-159.5129,22.2063],[-159.5078,22.206],[-159.5024,22.2093],[-159.5005,22.213],[-159.5004,22.2176],[-159.4949,22.2175],[-159.4961,22.2099],[-159.4945,22.2082],[-159.4926,22.2076],[-159.4903,22.2081],[-159.4856,22.2123],[-159.4787,22.2141],[-159.4774,22.2105],[-159.4753,22.207],[-159.4722,22.2073],[-159.4727,22.2044],[-159.4702,22.2031],[-159.467,22.2023],[-159.4672,22.199],[-159.4705,22.1977],[-159.4693,22.1974],[-159.4668,22.1991],[-159.4667,22.2024],[-159.472,22.2044],[-159.4718,22.2071],[-159.4723,22.2077],[-159.4751,22.2072],[-159.4787,22.2145],[-159.4857,22.2125],[-159.4914,22.2079],[-159.4948,22.2087],[-159.4958,22.2116],[-159.4938,22.2173],[-159.4954,22.2182],[-159.5015,22.2185],[-159.5008,22.2255],[-159.4962,22.2272],[-159.4885,22.2332],[-159.4833,22.2323],[-159.4798,22.2334],[-159.4741,22.2294],[-159.4707,22.2294],[-159.467,22.2265],[-159.4579,22.2296],[-159.4438,22.2262],[-159.4388,22.2267],[-159.4348,22.2215],[-159.4317,22.2207],[-159.4326,22.2182],[-159.4313,22.2174],[-159.4334,22.214],[-159.4364,22.2131],[-159.4369,22.2114],[-159.4366,22.2109],[-159.4357,22.213],[-159.4335,22.2133],[-159.4315,22.2158],[-159.4307,22.2175],[-159.4318,22.2199],[-159.4284,22.2213],[-159.4277,22.2271],[-159.4209,22.2262],[-159.4098,22.2289],[-159.4073,22.2306],[-159.4069,22.2336],[-159.4048,22.2343],[-159.4048,22.236]]],[[[-159.4047,22.2385],[-159.4048,22.2372],[-159.4062,22.2378],[-159.4061,22.2384],[-159.4047,22.2385]]],[[[-161.9298,23.0626],[-161.9222,23.0605],[-161.9163,23.0609],[-161.9148,23.058],[-161.9192,23.0556],[-161.92,23.0572],[-161.9221,23.0565],[-161.9231,23.058],[-161.9248,23.0566],[-161.9261,23.0571],[-161.9261,23.054],[-161.9285,23.0571],[-161.9298,23.0626]]],[[[-164.7053,23.5755],[-164.7041,23.5743],[-164.7006,23.5745],[-164.6968,23.5728],[-164.7032,23.5725],[-164.7082,23.5754],[-164.7036,23.5774],[-164.7053,23.5755]]],[[[-166.1786,23.647],[-166.1771,23.6452],[-166.179,23.6467],[-166.1786,23.647]]],[[[-166.1721,23.7299],[-166.1706,23.7279],[-166.171,23.7267],[-166.1721,23.7299]]],[[[-166.1727,23.7336],[-166.173,23.7324],[-166.1733,23.7348],[-166.1727,23.7336]]],[[[-166.2638,23.7675],[-166.2634,23.7671],[-166.2642,23.7673],[-166.2638,23.7675]]],[[[-166.2137,23.7856],[-166.2103,23.7845],[-166.2094,23.783],[-166.2137,23.7856]]],[[[-166.2269,23.8228],[-166.2273,23.8224],[-166.2271,23.823],[-166.2269,23.8228]]],[[[-166.2319,23.825],[-166.2318,23.8243],[-166.2324,23.8244],[-166.2319,23.825]]],[[[-166.3252,23.8511],[-166.3264,23.8501],[-166.3266,23.8504],[-166.3252,23.8511]]],[[[-166.221,23.8599],[-166.2192,23.8566],[-166.2206,23.8582],[-166.221,23.8599]]],[[[-166.222,23.8615],[-166.2233,23.8615],[-166.2236,23.862],[-166.222,23.8615]]],[[[-166.2827,23.8683],[-166.2903,23.8656],[-166.2912,23.8666],[-166.2829,23.8692],[-166.2827,23.8683]]],[[[-166.2499,23.8702],[-166.2472,23.8704],[-166.247,23.8699],[-166.2499,23.8702]]],[[[-167.9968,25.0014],[-167.9979,24.9998],[-167.9976,25.0021],[-167.9968,25.0014]]],[[[-167.9986,25.0022],[-167.999,25.0018],[-167.999,25.0024],[-167.9986,25.0022]]],[[[-171.7349,25.7819],[-171.7296,25.7811],[-171.7254,25.7789],[-171.7256,25.7738],[-171.7271,25.7729],[-171.7297,25.763],[-171.7341,25.7571],[-171.7425,25.7561],[-171.746,25.7605],[-171.7446,25.7669],[-171.7454,25.7711],[-171.7427,25.7741],[-171.7436,25.7772],[-171.7373,25.7797],[-171.7349,25.7819]]],[[[-173.9758,26.0786],[-173.9681,26.0792],[-173.9645,26.0756],[-173.9632,26.0654],[-173.9644,26.0623],[-173.9706,26.0647],[-173.9748,26.075],[-173.9758,26.0786]]],[[[-175.9341,27.7512],[-175.936,27.7516],[-175.9363,27.7525],[-175.9341,27.7512]]],[[[-175.9378,27.7572],[-175.9415,27.7557],[-175.9424,27.7559],[-175.9398,27.7574],[-175.9378,27.7572]]],[[[-175.9033,27.765],[-175.8972,27.7634],[-175.903,27.7632],[-175.9033,27.765]]],[[[-175.8133,27.7811],[-175.8097,27.7805],[-175.8087,27.7807],[-175.8123,27.7785],[-175.8137,27.7808],[-175.8167,27.7805],[-175.8133,27.7811]]],[[[-175.8372,27.7822],[-175.8361,27.7827],[-175.8362,27.7823],[-175.8372,27.7822]]],[[[-175.86,27.7845],[-175.8619,27.7844],[-175.8598,27.7849],[-175.86,27.7845]]],[[[-175.7425,27.9089],[-175.7429,27.9108],[-175.7402,27.9136],[-175.7425,27.9109],[-175.7425,27.9089]]],[[[-175.7398,27.9222],[-175.7374,27.9268],[-175.7356,27.9273],[-175.7356,27.9257],[-175.7398,27.9222]]],[[[-178.3086,28.3871],[-178.3102,28.3861],[-178.3114,28.3866],[-178.3086,28.3871]]],[[[-178.3338,28.3913],[-178.3404,28.3896],[-178.3415,28.3907],[-178.3373,28.3921],[-178.3338,28.3913]]],[[[-178.2964,28.3901],[-178.3065,28.3859],[-178.3082,28.3872],[-178.3029,28.3903],[-178.2971,28.3989],[-178.2944,28.401],[-178.2947,28.3921],[-178.2964,28.3901]]]]}}]}