{"type":"FeatureCollection","features":[{"type":"Feature","properties":{"leaid":"6900030","name":"Commonwealth of the Northern Mariana Islands Public School System","kind":"Unified","gradeLow":"PK","gradeHigh":"12","state":"MP"},"geometry":{"type":"MultiPolygon","coordinates":[[[[145.2391,14.1998],[145.2623,14.199],[145.2836,14.194],[145.2889,14.1915],[145.2905,14.1877],[145.2853,14.1791],[145.2839,14.1727],[145.2845,14.1675],[145.2834,14.166],[145.2841,14.1632],[145.2823,14.16],[145.2682,14.1518],[145.2623,14.1544],[145.2581,14.1547],[145.2524,14.1544],[145.2497,14.1527],[145.241,14.1514],[145.2346,14.1461],[145.2327,14.143],[145.2292,14.1411],[145.2287,14.1359],[145.2309,14.131],[145.2216,14.1261],[145.2189,14.12],[145.2125,14.1153],[145.2096,14.1164],[145.2047,14.1159],[145.1984,14.1126],[145.1952,14.1152],[145.1901,14.1147],[145.1841,14.1162],[145.1789,14.1147],[145.1782,14.1125],[145.1757,14.111],[145.171,14.1104],[145.1673,14.1121],[145.122,14.1175],[145.1214,14.1227],[145.1231,14.1272],[145.1318,14.1337],[145.1305,14.1356],[145.1366,14.138],[145.1423,14.1442],[145.1426,14.1471],[145.1456,14.1517],[145.1582,14.1641],[145.1594,14.168],[145.1647,14.1686],[145.1738,14.167],[145.191,14.1737],[145.1965,14.1741],[145.2037,14.1772],[145.2089,14.1826],[145.2285,14.1948],[145.2391,14.1998]]],[[[145.5337,14.8349],[145.5328,14.8338],[145.5325,14.8338],[145.5326,14.8352],[145.5337,14.8349]]],[[[145.5739,14.866],[145.5772,14.8649],[145.5785,14.8627],[145.579,14.8602],[145.5777,14.8587],[145.5775,14.8549],[145.5763,14.8535],[145.5753,14.8542],[145.5735,14.851],[145.5647,14.8447],[145.5555,14.844],[145.5455,14.8404],[145.5394,14.8418],[145.5377,14.8438],[145.5377,14.8475],[145.5406,14.8529],[145.5578,14.8602],[145.5649,14.862],[145.5669,14.8644],[145.5739,14.866]]],[[[145.6451,15.1011],[145.6563,15.0865],[145.6573,15.0819],[145.6551,15.0669],[145.6565,15.0617],[145.6583,15.0608],[145.659,15.0588],[145.6557,15.0531],[145.6477,15.0466],[145.6471,15.0417],[145.6486,15.0339],[145.6573,15.0189],[145.6594,15.018],[145.6645,15.0187],[145.6684,15.0161],[145.6711,15.0115],[145.6711,15.0093],[145.6736,15.0072],[145.6737,15.0047],[145.6709,14.9971],[145.6681,14.9827],[145.6635,14.9771],[145.6656,14.9728],[145.6654,14.9701],[145.6616,14.9652],[145.6613,14.9585],[145.6642,14.9511],[145.666,14.9504],[145.6655,14.9482],[145.6599,14.9488],[145.6546,14.9459],[145.6515,14.9413],[145.6523,14.9372],[145.649,14.9336],[145.6453,14.9264],[145.6405,14.9231],[145.6363,14.9226],[145.6325,14.9246],[145.6306,14.9279],[145.631,14.9306],[145.6293,14.934],[145.6298,14.939],[145.6284,14.9425],[145.6317,14.9527],[145.6268,14.9635],[145.6238,14.9656],[145.6218,14.9617],[145.619,14.9617],[145.6144,14.9671],[145.6153,14.9701],[145.6122,14.9731],[145.613,14.9816],[145.6079,14.9862],[145.6091,14.9877],[145.6081,14.9909],[145.6031,14.9923],[145.5996,14.9918],[145.5967,14.9897],[145.5927,14.9898],[145.5903,14.9907],[145.5885,14.9937],[145.5852,14.9947],[145.5847,14.9975],[145.5865,15.001],[145.5866,15.0066],[145.5886,15.0094],[145.5865,15.0129],[145.5838,15.0137],[145.5822,15.0175],[145.5831,15.0208],[145.5848,15.0221],[145.5841,15.0234],[145.5872,15.0297],[145.5887,15.0381],[145.5918,15.0368],[145.5968,15.0408],[145.5988,15.0504],[145.5964,15.0533],[145.6027,15.0577],[145.6158,15.0721],[145.618,15.0764],[145.6227,15.0791],[145.6273,15.0846],[145.6328,15.0874],[145.633,15.0895],[145.6362,15.0933],[145.6451,15.1011]]],[[[145.7896,15.1507],[145.7917,15.1508],[145.7928,15.1495],[145.7896,15.1507]]],[[[145.7123,15.2429],[145.7131,15.2398],[145.7106,15.2406],[145.7115,15.2408],[145.711,15.2429],[145.7123,15.2429]]],[[[145.8107,15.2901],[145.8147,15.2869],[145.8187,15.2866],[145.8202,15.2853],[145.8264,15.2749],[145.8302,15.273],[145.8304,15.2699],[145.8288,15.2624],[145.8267,15.2594],[145.8201,15.2596],[145.8093,15.2502],[145.8074,15.2443],[145.8104,15.2416],[145.8094,15.2401],[145.8063,15.2369],[145.802,15.2362],[145.8027,15.2343],[145.7985,15.2286],[145.7937,15.2274],[145.7932,15.2282],[145.7929,15.2283],[145.7903,15.2257],[145.7892,15.2219],[145.7841,15.2183],[145.7848,15.2163],[145.7815,15.2162],[145.7825,15.2139],[145.7811,15.2114],[145.7785,15.2101],[145.7822,15.2029],[145.7814,15.1983],[145.7775,15.1945],[145.7788,15.1919],[145.7781,15.1893],[145.7818,15.183],[145.7845,15.1824],[145.7849,15.1769],[145.787,15.1732],[145.7976,15.1667],[145.7922,15.1635],[145.7914,15.1565],[145.7883,15.1544],[145.7892,15.1504],[145.7826,15.1519],[145.7815,15.1502],[145.7746,15.1515],[145.7699,15.1554],[145.7705,15.1575],[145.7675,15.1618],[145.7625,15.1633],[145.7597,15.1631],[145.7592,15.1615],[145.7518,15.1605],[145.7495,15.1586],[145.7486,15.1537],[145.747,15.1527],[145.7411,15.1393],[145.7426,15.1333],[145.7457,15.1279],[145.7505,15.124],[145.7549,15.1235],[145.757,15.121],[145.7566,15.1122],[145.7527,15.1065],[145.7513,15.0951],[145.7491,15.092],[145.7465,15.0934],[145.7434,15.1025],[145.7393,15.1057],[145.7326,15.1063],[145.7314,15.1051],[145.7171,15.1078],[145.7109,15.1056],[145.7072,15.1062],[145.7066,15.1105],[145.7021,15.1144],[145.6961,15.1181],[145.6896,15.1201],[145.6937,15.1234],[145.6923,15.1304],[145.6969,15.1382],[145.7002,15.1474],[145.6992,15.1514],[145.7005,15.1525],[145.7001,15.1567],[145.708,15.1647],[145.713,15.1785],[145.7167,15.1953],[145.7162,15.2023],[145.7149,15.2024],[145.7162,15.2031],[145.7156,15.2164],[145.7164,15.2189],[145.7234,15.2225],[145.7319,15.2247],[145.7387,15.2316],[145.7451,15.2334],[145.7471,15.2372],[145.7527,15.2402],[145.7544,15.2431],[145.7651,15.2461],[145.7687,15.2484],[145.7694,15.2502],[145.7772,15.253],[145.7817,15.2572],[145.7824,15.2612],[145.7864,15.2671],[145.7934,15.2725],[145.7939,15.2752],[145.7989,15.2779],[145.8107,15.2901]]],[[[146.0623,16.0276],[146.0648,16.0252],[146.0633,16.0228],[146.064,16.0218],[146.054,16.0092],[146.0529,16.0053],[146.0517,16.0055],[146.0533,16.0125],[146.0559,16.0141],[146.0562,16.0181],[146.0602,16.0224],[146.0604,16.025],[146.0623,16.0276]]],[[[145.6565,16.3708],[145.6717,16.3696],[145.6792,16.3677],[145.705,16.3698],[145.7075,16.3679],[145.7122,16.3675],[145.7128,16.3658],[145.7185,16.3632],[145.7194,16.3614],[145.7209,16.3618],[145.7202,16.3608],[145.7231,16.3593],[145.7242,16.3514],[145.72,16.3486],[145.7185,16.3443],[145.7191,16.3427],[145.7177,16.3424],[145.7144,16.3373],[145.7027,16.3336],[145.6965,16.3331],[145.6945,16.335],[145.6807,16.3335],[145.6749,16.335],[145.6727,16.3345],[145.6723,16.3332],[145.6675,16.3352],[145.6645,16.3343],[145.6642,16.3322],[145.6634,16.3333],[145.6617,16.332],[145.6607,16.3351],[145.6578,16.3358],[145.6555,16.3342],[145.6534,16.335],[145.6485,16.3315],[145.6454,16.3321],[145.6456,16.3367],[145.6437,16.3388],[145.6392,16.3389],[145.6381,16.3436],[145.6366,16.3444],[145.6376,16.346],[145.6368,16.348],[145.6353,16.3501],[145.6333,16.3495],[145.6332,16.352],[145.6323,16.3522],[145.6337,16.3538],[145.6332,16.3563],[145.6344,16.3608],[145.6322,16.3638],[145.6322,16.367],[145.638,16.3706],[145.6428,16.3686],[145.6473,16.3704],[145.6524,16.3696],[145.6565,16.3708]]],[[[145.7813,16.7177],[145.7824,16.7145],[145.7844,16.7147],[145.7843,16.7136],[145.787,16.7123],[145.7879,16.706],[145.7902,16.7042],[145.7888,16.7034],[145.7864,16.6971],[145.7876,16.6922],[145.7862,16.6911],[145.7765,16.6937],[145.7706,16.7007],[145.7672,16.7024],[145.7663,16.705],[145.7696,16.7123],[145.7734,16.7119],[145.7747,16.7141],[145.7777,16.7156],[145.7774,16.717],[145.7813,16.7177]]],[[[145.8448,17.2959],[145.8445,17.2958],[145.8445,17.2961],[145.8448,17.2959]]],[[[145.8437,17.2964],[145.844,17.2959],[145.8436,17.2964],[145.8437,17.2964]]],[[[145.8327,17.3029],[145.8325,17.3027],[145.8325,17.3028],[145.8327,17.3029]]],[[[145.832,17.3154],[145.832,17.3153],[145.8318,17.3154],[145.832,17.3154]]],[[[145.8456,17.3205],[145.8455,17.3204],[145.8456,17.3205],[145.8456,17.3205]]],[[[145.8448,17.3212],[145.8445,17.3208],[145.8448,17.3213],[145.8448,17.3212]]],[[[145.8418,17.3227],[145.8422,17.3212],[145.8501,17.3173],[145.8493,17.316],[145.8532,17.311],[145.8528,17.3097],[145.8519,17.3101],[145.8524,17.3083],[145.8501,17.3073],[145.8487,17.3016],[145.8447,17.2965],[145.8332,17.3025],[145.8317,17.3066],[145.8329,17.308],[145.8317,17.3091],[145.8326,17.3097],[145.8317,17.3144],[145.833,17.3172],[145.8359,17.3213],[145.8415,17.3217],[145.8418,17.3227]]],[[[145.852,17.5977],[145.8519,17.5974],[145.8518,17.5977],[145.852,17.5977]]],[[[145.846,17.6131],[145.8454,17.6127],[145.846,17.6132],[145.846,17.6131]]],[[[145.8272,17.6198],[145.8269,17.6194],[145.8269,17.6199],[145.8272,17.6198]]],[[[145.8307,17.6207],[145.8384,17.6197],[145.8397,17.6156],[145.8418,17.6136],[145.8454,17.6128],[145.8494,17.6057],[145.8505,17.6059],[145.8499,17.6048],[145.8523,17.5992],[145.8509,17.5966],[145.8498,17.5901],[145.8415,17.5841],[145.8398,17.5802],[145.8256,17.5801],[145.8225,17.5862],[145.8157,17.5919],[145.8149,17.604],[145.8207,17.6118],[145.8199,17.6165],[145.8218,17.6159],[145.8237,17.619],[145.8241,17.6182],[145.8289,17.6193],[145.8307,17.6207]]],[[[145.7974,18.1],[145.7973,18.0999],[145.7973,18.1],[145.7974,18.1]]],[[[145.7954,18.1002],[145.7953,18.0999],[145.7953,18.1002],[145.7954,18.1002]]],[[[145.7974,18.1004],[145.7973,18.1003],[145.7973,18.1004],[145.7974,18.1004]]],[[[145.757,18.1018],[145.7568,18.1017],[145.7568,18.1019],[145.757,18.1018]]],[[[145.8102,18.1325],[145.8105,18.1321],[145.8099,18.1323],[145.8102,18.1325]]],[[[145.8101,18.133],[145.8101,18.1329],[145.8099,18.1329],[145.8101,18.133]]],[[[145.7799,18.1697],[145.7843,18.1672],[145.792,18.1657],[145.7943,18.1665],[145.7988,18.1646],[145.8071,18.1568],[145.807,18.1498],[145.8101,18.1435],[145.8089,18.1385],[145.8094,18.1323],[145.8059,18.1266],[145.8064,18.1245],[145.804,18.1228],[145.8042,18.1185],[145.8018,18.1163],[145.7991,18.1105],[145.7969,18.11],[145.7979,18.1084],[145.7972,18.102],[145.7983,18.1015],[145.7959,18.1005],[145.7889,18.1075],[145.7839,18.1094],[145.7762,18.1078],[145.771,18.1036],[145.7673,18.103],[145.7616,18.0966],[145.7452,18.0723],[145.7463,18.0677],[145.7429,18.0658],[145.7444,18.0635],[145.7429,18.0642],[145.7407,18.0601],[145.7357,18.0569],[145.7292,18.0498],[145.7112,18.0446],[145.7085,18.0452],[145.7079,18.0484],[145.712,18.0537],[145.7111,18.0578],[145.713,18.0601],[145.7115,18.0622],[145.7142,18.0662],[145.7143,18.0705],[145.7166,18.0758],[145.7204,18.0803],[145.7277,18.0855],[145.7314,18.0846],[145.7374,18.0852],[145.7572,18.1006],[145.7588,18.1092],[145.7578,18.1221],[145.7557,18.128],[145.7607,18.1295],[145.7603,18.1333],[145.7622,18.1361],[145.7607,18.1427],[145.7566,18.1438],[145.7568,18.1453],[145.7548,18.1473],[145.7561,18.1501],[145.7551,18.1529],[145.7558,18.1562],[145.7582,18.1578],[145.7593,18.1607],[145.7706,18.1684],[145.7764,18.1681],[145.7799,18.1697]]],[[[145.6676,18.725],[145.6676,18.7249],[145.6675,18.725],[145.6676,18.725]]],[[[145.6683,18.7254],[145.6681,18.7252],[145.6681,18.7255],[145.6683,18.7254]]],[[[145.6925,18.7539],[145.6921,18.7539],[145.6923,18.7541],[145.6925,18.7539]]],[[[145.6993,18.7672],[145.6992,18.767],[145.6992,18.7672],[145.6993,18.7672]]],[[[145.6377,18.775],[145.6374,18.7749],[145.6374,18.775],[145.6377,18.775]]],[[[145.6977,18.7902],[145.6973,18.7899],[145.6974,18.7903],[145.6977,18.7902]]],[[[145.6926,18.7953],[145.6923,18.7952],[145.6924,18.7954],[145.6926,18.7953]]],[[[145.6429,18.7966],[145.6425,18.7963],[145.6424,18.7963],[145.6429,18.7966]]],[[[145.657,18.8131],[145.6569,18.813],[145.657,18.8131],[145.657,18.8131]]],[[[145.6613,18.8132],[145.6635,18.8116],[145.6649,18.8122],[145.6648,18.8098],[145.6664,18.8084],[145.6778,18.8078],[145.6779,18.8066],[145.679,18.8073],[145.6793,18.8053],[145.6817,18.8041],[145.6824,18.8012],[145.6869,18.7965],[145.6887,18.7953],[145.6912,18.7965],[145.6927,18.793],[145.6961,18.7924],[145.6957,18.791],[145.6975,18.7891],[145.6962,18.7855],[145.6974,18.7815],[145.6991,18.7807],[145.6982,18.7768],[145.6996,18.776],[145.6978,18.7727],[145.6993,18.7705],[145.6988,18.7662],[145.6999,18.7646],[145.6989,18.7642],[145.7004,18.7619],[145.6994,18.7618],[145.6996,18.7598],[145.6948,18.7593],[145.6922,18.7561],[145.6919,18.7539],[145.6929,18.752],[145.6915,18.7495],[145.6933,18.7483],[145.6934,18.7459],[145.6907,18.7426],[145.6911,18.7406],[145.6876,18.7395],[145.6866,18.7374],[145.6844,18.7388],[145.6762,18.7374],[145.6712,18.7317],[145.6723,18.7304],[145.6714,18.7279],[145.669,18.7276],[145.6673,18.7251],[145.6647,18.7283],[145.6626,18.7269],[145.6621,18.7295],[145.6589,18.7325],[145.6549,18.7331],[145.6519,18.7351],[145.6511,18.7404],[145.6478,18.744],[145.6453,18.7499],[145.6401,18.7531],[145.6418,18.7579],[145.6375,18.7657],[145.6389,18.7716],[145.6377,18.7751],[145.6362,18.775],[145.636,18.7761],[145.6363,18.7788],[145.638,18.7797],[145.6376,18.7839],[145.6411,18.7867],[145.6399,18.788],[145.641,18.7889],[145.6404,18.7919],[145.642,18.7928],[145.6412,18.7947],[145.6486,18.8011],[145.6492,18.8064],[145.651,18.8092],[145.6525,18.8089],[145.6514,18.81],[145.6526,18.8095],[145.6535,18.8113],[145.6577,18.8131],[145.6595,18.8123],[145.6613,18.8132]]],[[[145.3898,19.6811],[145.3902,19.6809],[145.3897,19.681],[145.3898,19.6811]]],[[[145.3889,19.6936],[145.389,19.6934],[145.3889,19.6935],[145.3889,19.6936]]],[[[145.4021,19.7071],[145.4021,19.707],[145.402,19.7071],[145.4021,19.7071]]],[[[145.4033,19.7072],[145.4089,19.7058],[145.4152,19.7014],[145.4183,19.6912],[145.4161,19.6838],[145.4123,19.68],[145.4098,19.6778],[145.4007,19.6754],[145.4003,19.6768],[145.3973,19.677],[145.3976,19.678],[145.3942,19.6808],[145.3906,19.6816],[145.3895,19.6885],[145.3904,19.6894],[145.3885,19.6923],[145.3898,19.6923],[145.3892,19.6933],[145.3904,19.6937],[145.3918,19.6967],[145.391,19.6975],[145.392,19.6975],[145.3922,19.6999],[145.3933,19.6996],[145.3941,19.7024],[145.3988,19.7063],[145.4033,19.7072]]],[[[145.2317,20.0137],[145.2317,20.0135],[145.2315,20.0136],[145.2317,20.0137]]],[[[145.2152,20.0331],[145.2151,20.0331],[145.2152,20.0332],[145.2152,20.0331]]],[[[145.2177,20.0344],[145.2177,20.0343],[145.2176,20.0344],[145.2177,20.0344]]],[[[145.2208,20.0355],[145.2264,20.0322],[145.2299,20.0318],[145.2383,20.0226],[145.2387,20.0187],[145.2287,20.0117],[145.2181,20.0125],[145.2166,20.0107],[145.212,20.0125],[145.2101,20.0118],[145.2102,20.0148],[145.2077,20.0165],[145.2087,20.0277],[145.2113,20.031],[145.2208,20.0355]]],[[[144.894,20.5536],[144.8973,20.549],[144.8999,20.5486],[144.9019,20.5501],[144.9032,20.546],[144.9011,20.5411],[144.8981,20.5381],[144.8932,20.5364],[144.8877,20.5379],[144.8863,20.5402],[144.8874,20.5502],[144.8918,20.5536],[144.894,20.5536]]]]}}]}