{"type":"FeatureCollection","features":[{"type":"Feature","properties":{"leaid":"3200030","name":"Churchill County School District","kind":"Unified","gradeLow":"PK","gradeHigh":"12","state":"NV"},"geometry":{"type":"Polygon","coordinates":[[[-117.5417,40.001],[-117.5407,39.9988],[-117.5314,39.9918],[-117.5324,39.9894],[-117.5303,39.9873],[-117.5275,39.985],[-117.5247,39.9845],[-117.5214,39.9808],[-117.5196,39.9773],[-117.5196,39.9725],[-117.511,39.9708],[-117.5071,39.9688],[-117.5091,39.9665],[-117.5088,39.9628],[-117.5061,39.9598],[-117.506,39.956],[-117.5025,39.9515],[-117.4919,39.9484],[-117.4868,39.9427],[-117.4813,39.943],[-117.4804,39.9409],[-117.4777,39.9393],[-117.4747,39.9297],[-117.4727,39.9282],[-117.4706,39.923],[-117.4679,39.9221],[-117.4705,39.9178],[-117.4659,39.9107],[-117.4682,39.9081],[-117.4682,39.9057],[-117.4665,39.9025],[-117.4655,39.8943],[-117.4642,39.8937],[-117.4639,39.8913],[-117.4623,39.8909],[-117.4614,39.8834],[-117.4626,39.8788],[-117.4616,39.8742],[-117.4628,39.8718],[-117.4613,39.8678],[-117.464,39.8651],[-117.4669,39.8647],[-117.4646,39.8582],[-117.4667,39.857],[-117.467,39.8553],[-117.4705,39.8545],[-117.471,39.8521],[-117.4685,39.849],[-117.4728,39.8436],[-117.4716,39.8416],[-117.4723,39.8392],[-117.4795,39.8372],[-117.4801,39.8346],[-117.4834,39.834],[-117.4831,39.8299],[-117.4843,39.8282],[-117.4882,39.8266],[-117.4863,39.822],[-117.4875,39.8208],[-117.4871,39.8183],[-117.4834,39.8117],[-117.4878,39.8094],[-117.4877,39.8074],[-117.4894,39.807],[-117.4866,39.7987],[-117.4884,39.7909],[-117.4857,39.7865],[-117.4881,39.7841],[-117.4878,39.782],[-117.4898,39.7815],[-117.4895,39.7794],[-117.4949,39.7742],[-117.4942,39.7727],[-117.496,39.7703],[-117.4946,39.767],[-117.4966,39.7605],[-117.4945,39.7547],[-117.4953,39.7484],[-117.4878,39.7463],[-117.4852,39.742],[-117.4802,39.7414],[-117.4774,39.7424],[-117.4778,39.7372],[-117.4752,39.7359],[-117.4772,39.7314],[-117.4761,39.7299],[-117.4803,39.7272],[-117.4808,39.7217],[-117.4825,39.7211],[-117.4876,39.7141],[-117.484,39.7075],[-117.485,39.7053],[-117.4878,39.7039],[-117.4846,39.6984],[-117.4815,39.6958],[-117.4807,39.6925],[-117.4727,39.6879],[-117.4644,39.679],[-117.4651,39.676],[-117.4696,39.6743],[-117.4739,39.6693],[-117.4734,39.6671],[-117.4713,39.6666],[-117.4725,39.665],[-117.4721,39.6615],[-117.4777,39.6595],[-117.4789,39.6555],[-117.478,39.6517],[-117.4811,39.6477],[-117.4839,39.6472],[-117.4861,39.6448],[-117.485,39.6424],[-117.4802,39.6402],[-117.4781,39.6373],[-117.4757,39.6376],[-117.4733,39.6347],[-117.4685,39.6333],[-117.4664,39.6348],[-117.4634,39.6331],[-117.4632,39.6248],[-117.4616,39.6226],[-117.4679,39.6177],[-117.4753,39.6082],[-117.4766,39.6041],[-117.4822,39.5982],[-117.4766,39.5967],[-117.4786,39.5928],[-117.4778,39.5888],[-117.4766,39.5882],[-117.4775,39.5856],[-117.4761,39.5836],[-117.479,39.5771],[-117.4824,39.5736],[-117.4814,39.5718],[-117.4828,39.5689],[-117.4805,39.5625],[-117.4826,39.5592],[-117.4823,39.5547],[-117.4867,39.5509],[-117.4842,39.549],[-117.4853,39.5453],[-117.4928,39.5428],[-117.4929,39.5359],[-117.4951,39.5333],[-117.5014,39.5308],[-117.5086,39.5307],[-117.5185,39.5382],[-117.5221,39.534],[-117.5261,39.5351],[-117.5281,39.5336],[-117.528,39.532],[-117.531,39.5313],[-117.532,39.5269],[-117.5341,39.5283],[-117.5434,39.5274],[-117.5481,39.5254],[-117.5522,39.5269],[-117.5561,39.5254],[-117.5608,39.5259],[-117.5657,39.5192],[-117.5776,39.5185],[-117.58,39.5201],[-117.5849,39.5181],[-117.5901,39.518],[-117.5884,39.5154],[-117.5887,39.5089],[-117.5865,39.5035],[-117.5896,39.5016],[-117.59,39.4999],[-117.5972,39.4989],[-117.6011,39.4958],[-117.6026,39.4923],[-117.6018,39.4908],[-117.6034,39.49],[-117.6115,39.491],[-117.6155,39.4898],[-117.6163,39.4826],[-117.6232,39.4762],[-117.6321,39.4769],[-117.6352,39.4758],[-117.6364,39.473],[-117.6419,39.4698],[-117.6476,39.4704],[-117.6509,39.467],[-117.6566,39.4679],[-117.6559,39.4653],[-117.6573,39.4623],[-117.6537,39.4594],[-117.6538,39.4578],[-117.6494,39.4592],[-117.645,39.4584],[-117.6372,39.4518],[-117.6402,39.4461],[-117.6384,39.4397],[-117.6428,39.4358],[-117.6425,39.4305],[-117.646,39.4266],[-117.6507,39.427],[-117.6544,39.4252],[-117.6614,39.4255],[-117.6731,39.4238],[-117.6756,39.4225],[-117.677,39.4177],[-117.6764,39.4136],[-117.6817,39.4126],[-117.6827,39.4108],[-117.6808,39.4059],[-117.6837,39.4044],[-117.6857,39.4014],[-117.6851,39.3984],[-117.6963,39.3859],[-117.7068,39.3843],[-117.7104,39.3812],[-117.7135,39.3826],[-117.7199,39.3829],[-117.7281,39.3802],[-117.7386,39.3811],[-117.7469,39.3857],[-117.7502,39.3838],[-117.7528,39.3778],[-117.7558,39.3762],[-117.7563,39.3708],[-117.7598,39.3692],[-117.7589,39.3639],[-117.7626,39.3584],[-117.7613,39.3576],[-117.763,39.3528],[-117.7594,39.3515],[-117.7594,39.3465],[-117.7575,39.3448],[-117.7606,39.34],[-117.7599,39.3341],[-117.7558,39.3311],[-117.7542,39.3257],[-117.7516,39.3231],[-117.7526,39.3199],[-117.7515,39.3155],[-117.7527,39.3118],[-117.7478,39.3085],[-117.7468,39.3041],[-117.7429,39.3015],[-117.7397,39.2968],[-117.7417,39.2944],[-117.7436,39.2878],[-117.733,39.2813],[-117.7301,39.2712],[-117.7313,39.2678],[-117.7272,39.2643],[-117.7228,39.2508],[-117.7164,39.2486],[-117.7141,39.2456],[-117.7151,39.2435],[-117.7174,39.2424],[-117.7172,39.2387],[-117.7201,39.2363],[-117.7207,39.2305],[-117.7193,39.228],[-117.7216,39.225],[-117.7204,39.221],[-117.7227,39.217],[-117.7197,39.213],[-117.7267,39.2133],[-117.7346,39.2101],[-117.7357,39.2083],[-117.7353,39.2053],[-117.7416,39.1989],[-117.7442,39.1985],[-117.7442,39.1914],[-117.7489,39.1904],[-117.7532,39.1848],[-117.7618,39.1854],[-117.7648,39.1831],[-117.7659,39.1794],[-117.771,39.1742],[-117.7764,39.1735],[-117.7824,39.1758],[-117.7849,39.174],[-117.7861,39.17],[-117.7916,39.1696],[-117.7888,39.1644],[-117.7927,39.1617],[-117.7926,39.1589],[-117.7904,39.1581],[-117.7846,39.151],[-117.7934,39.1481],[-117.7935,39.1448],[-117.8068,39.1454],[-117.8058,39.1418],[-117.8015,39.1388],[-117.7949,39.1388],[-117.7938,39.1343],[-117.7915,39.1314],[-117.7914,39.1288],[-117.7936,39.1268],[-117.7926,39.1255],[-117.7964,39.122],[-117.7938,39.1209],[-117.7931,39.1176],[-117.7963,39.117],[-117.7987,39.1187],[-117.8008,39.1175],[-117.8017,39.1159],[-117.8001,39.1125],[-117.7934,39.1083],[-117.7893,39.1082],[-117.7815,39.1049],[-117.7786,39.1014],[-117.7763,39.0951],[-117.7772,39.0944],[-117.7755,39.0934],[-117.8651,39.0737],[-118.7551,39.0747],[-118.7551,39.1128],[-118.7922,39.1129],[-118.7922,39.1418],[-118.8108,39.1418],[-118.8108,39.1563],[-118.8294,39.1563],[-118.8294,39.1711],[-118.8481,39.1712],[-118.8481,39.1853],[-118.8667,39.1853],[-118.8668,39.1982],[-118.8908,39.1982],[-118.8907,39.2272],[-118.909,39.2272],[-118.9091,39.2417],[-118.9277,39.2417],[-118.9278,39.2562],[-118.9463,39.2562],[-118.9464,39.2707],[-118.965,39.2707],[-118.965,39.2855],[-118.9877,39.2855],[-118.9878,39.3],[-119.0068,39.3],[-119.0068,39.3156],[-119.0255,39.3156],[-119.0255,39.3301],[-119.0442,39.3301],[-119.0443,39.3446],[-119.0623,39.3446],[-119.0623,39.3593],[-119.0809,39.3594],[-119.0812,39.3736],[-119.0996,39.3738],[-119.0997,39.3879],[-119.1177,39.3887],[-119.1178,39.5189],[-119.0905,39.5189],[-119.0891,39.6368],[-119.0771,39.6368],[-119.0771,39.7226],[-119.068,39.7226],[-119.068,39.7299],[-119.0586,39.7299],[-119.0586,39.7371],[-119.0634,39.7371],[-119.1013,39.7021],[-119.1149,39.6875],[-119.1608,39.6561],[-119.1786,39.652],[-119.1834,39.6395],[-119.1907,39.6318],[-119.1927,39.6368],[-119.1893,39.6368],[-119.1893,39.6805],[-119.1706,39.6805],[-119.1709,39.7883],[-119.1897,39.7882],[-119.1898,39.81],[-119.2085,39.81],[-119.2086,39.8995],[-119.2261,39.8994],[-119.2252,39.9994],[-118.6059,39.9983],[-118.501,39.9987],[-118.2455,40.0024],[-117.7327,40.0025],[-117.5417,40.001]]]}},{"type":"Feature","properties":{"leaid":"3200060","name":"Clark County School District","kind":"Unified","gradeLow":"PK","gradeHigh":"12","state":"NV"},"geometry":{"type":"Polygon","coordinates":[[[-114.0504,36.8431],[-114.0499,36.7095],[-114.0456,36.5211],[-114.0428,36.4482],[-114.043,36.3859],[-114.0447,36.3463],[-114.0441,36.3176],[-114.0456,36.2888],[-114.0438,36.2451],[-114.0439,36.1934],[-114.0527,36.1909],[-114.0587,36.1878],[-114.0668,36.1791],[-114.0788,36.1574],[-114.0812,36.1502],[-114.0917,36.1373],[-114.097,36.1208],[-114.1004,36.1194],[-114.1084,36.1192],[-114.1185,36.1139],[-114.1209,36.1108],[-114.121,36.1039],[-114.1152,36.0999],[-114.112,36.0949],[-114.1196,36.0858],[-114.124,36.0756],[-114.1298,36.0685],[-114.1334,36.0617],[-114.1362,36.0532],[-114.1348,36.0453],[-114.1357,36.0412],[-114.1383,36.0372],[-114.1457,36.033],[-114.1456,36.0286],[-114.147,36.0261],[-114.1502,36.0235],[-114.1534,36.0232],[-114.1644,36.0269],[-114.1747,36.0267],[-114.1912,36.02],[-114.2135,36.0146],[-114.2248,36.0137],[-114.228,36.0147],[-114.2334,36.0128],[-114.2439,36.0153],[-114.2644,36.0279],[-114.2686,36.035],[-114.2689,36.0409],[-114.2709,36.0455],[-114.2739,36.0465],[-114.2796,36.0461],[-114.288,36.0491],[-114.2909,36.0505],[-114.2934,36.0545],[-114.2986,36.0573],[-114.3086,36.057],[-114.3136,36.059],[-114.3143,36.062],[-114.3124,36.0661],[-114.3075,36.0697],[-114.3044,36.074],[-114.3069,36.0825],[-114.3209,36.0965],[-114.3258,36.1039],[-114.3288,36.1059],[-114.3346,36.1068],[-114.3451,36.1186],[-114.359,36.1278],[-114.3702,36.1426],[-114.3753,36.1436],[-114.3815,36.1413],[-114.4056,36.147],[-114.4125,36.1465],[-114.4153,36.1451],[-114.4231,36.1374],[-114.445,36.1253],[-114.4513,36.1298],[-114.4565,36.138],[-114.4626,36.1396],[-114.4687,36.1389],[-114.4838,36.1297],[-114.4988,36.1266],[-114.5047,36.1272],[-114.5085,36.1299],[-114.5092,36.1332],[-114.5051,36.1381],[-114.5003,36.1407],[-114.5002,36.1432],[-114.5081,36.1497],[-114.5112,36.1506],[-114.5311,36.1476],[-114.5392,36.1518],[-114.5487,36.1507],[-114.5562,36.1525],[-114.5612,36.1509],[-114.5711,36.1511],[-114.5771,36.1488],[-114.5807,36.146],[-114.5965,36.1415],[-114.6093,36.1322],[-114.6155,36.1297],[-114.6206,36.1318],[-114.6271,36.1408],[-114.6305,36.1422],[-114.6358,36.1362],[-114.6401,36.1351],[-114.6555,36.1262],[-114.6643,36.1163],[-114.6719,36.116],[-114.6818,36.1092],[-114.6937,36.1125],[-114.7037,36.1083],[-114.7349,36.1044],[-114.7489,36.0952],[-114.7545,36.0862],[-114.754,36.0831],[-114.7506,36.0803],[-114.7489,36.075],[-114.7435,36.071],[-114.7401,36.0624],[-114.736,36.0591],[-114.7353,36.0566],[-114.7357,36.0534],[-114.7417,36.0479],[-114.7425,36.0457],[-114.7413,36.038],[-114.7334,36.0379],[-114.7237,36.0312],[-114.7221,36.029],[-114.7289,36.0214],[-114.7386,36.0152],[-114.743,36.0085],[-114.7393,35.9918],[-114.7436,35.9858],[-114.7405,35.9755],[-114.7287,35.9618],[-114.7285,35.9604],[-114.7298,35.9599],[-114.7133,35.9338],[-114.7134,35.9319],[-114.7128,35.9326],[-114.7076,35.9279],[-114.7074,35.9181],[-114.7092,35.9168],[-114.7081,35.9099],[-114.7057,35.9093],[-114.7003,35.9018],[-114.6949,35.8976],[-114.6961,35.8965],[-114.6945,35.8966],[-114.679,35.8855],[-114.672,35.878],[-114.6681,35.8752],[-114.6632,35.8737],[-114.6616,35.8712],[-114.6626,35.8692],[-114.6697,35.865],[-114.6821,35.863],[-114.6878,35.8607],[-114.6915,35.8587],[-114.6944,35.8545],[-114.7019,35.8532],[-114.7059,35.8505],[-114.7063,35.8462],[-114.6958,35.8334],[-114.6953,35.8311],[-114.7037,35.8146],[-114.7093,35.8101],[-114.712,35.8055],[-114.6993,35.7905],[-114.701,35.7697],[-114.6974,35.7607],[-114.6943,35.7566],[-114.6965,35.7546],[-114.6977,35.751],[-114.6964,35.7427],[-114.6979,35.7317],[-114.7054,35.7118],[-114.7056,35.7083],[-114.7014,35.7011],[-114.6913,35.6931],[-114.6827,35.6886],[-114.6806,35.684],[-114.6823,35.6778],[-114.6902,35.6652],[-114.6895,35.6514],[-114.6861,35.6475],[-114.6776,35.6418],[-114.669,35.6289],[-114.6667,35.6231],[-114.6595,35.6196],[-114.6552,35.6141],[-114.6535,35.6097],[-114.6545,35.6052],[-114.6539,35.5985],[-114.6592,35.5875],[-114.6702,35.5835],[-114.6757,35.58],[-114.6749,35.5784],[-114.6684,35.5743],[-114.6644,35.5684],[-114.6628,35.5643],[-114.6635,35.561],[-114.662,35.5559],[-114.6615,35.5441],[-114.6568,35.535],[-114.6578,35.5307],[-114.6646,35.5215],[-114.6695,35.5208],[-114.6757,35.5156],[-114.6775,35.5109],[-114.6786,35.4976],[-114.6763,35.4931],[-114.6768,35.4898],[-114.6719,35.4821],[-114.6732,35.4748],[-114.6674,35.4699],[-114.6657,35.4669],[-114.6672,35.4604],[-114.6642,35.4558],[-114.6629,35.4464],[-114.6543,35.4369],[-114.6521,35.4301],[-114.6268,35.4096],[-114.6209,35.3969],[-114.6177,35.3801],[-114.6112,35.3701],[-114.6046,35.3552],[-114.5956,35.3265],[-114.5972,35.3032],[-114.5967,35.2946],[-114.5866,35.2624],[-114.5861,35.2489],[-114.585,35.2427],[-114.5828,35.2387],[-114.5825,35.2332],[-114.5835,35.2303],[-114.5803,35.2201],[-114.5795,35.2089],[-114.575,35.2067],[-114.5721,35.2008],[-114.5714,35.191],[-114.5693,35.1834],[-114.5695,35.1623],[-114.5739,35.1454],[-114.5726,35.1396],[-114.5783,35.1288],[-114.5849,35.1252],[-114.5978,35.1217],[-114.6186,35.1216],[-114.6284,35.1189],[-114.6374,35.1125],[-114.6452,35.105],[-114.6468,35.1019],[-114.6428,35.0965],[-114.6225,35.0887],[-114.6131,35.0831],[-114.6047,35.0748],[-114.6029,35.0686],[-114.6036,35.0642],[-114.6067,35.0589],[-114.6271,35.0447],[-114.6347,35.0337],[-114.6382,35.0221],[-114.6371,35.0104],[-114.6335,35.0019],[-114.7973,35.1349],[-115.084,35.3634],[-115.101,35.3757],[-115.2597,35.5035],[-115.846,35.9637],[-115.8458,36.1708],[-115.8958,36.1722],[-115.8953,36.6278],[-115.8969,36.8421],[-115.7407,36.8419],[-115.7408,36.8531],[-115.3147,36.8537],[-114.7625,36.8535],[-114.7623,36.8439],[-114.0504,36.8431]]]}},{"type":"Feature","properties":{"leaid":"3200090","name":"Douglas County School District","kind":"Unified","gradeLow":"PK","gradeHigh":"12","state":"NV"},"geometry":{"type":"Polygon","coordinates":[[[-119.5504,39.0863],[-119.3108,39.0847],[-119.3105,38.9909],[-119.3434,38.991],[-119.3434,38.9873],[-119.348,38.9873],[-119.3481,38.9829],[-119.3645,38.9842],[-119.4019,38.9837],[-119.4023,38.9547],[-119.4202,38.9547],[-119.4218,38.882],[-119.4398,38.8821],[-119.4401,38.853],[-119.4218,38.8529],[-119.4216,38.8239],[-119.4123,38.8239],[-119.4122,38.8093],[-119.403,38.8093],[-119.403,38.7657],[-119.4055,38.7657],[-119.406,38.7335],[-119.3875,38.7335],[-119.3875,38.7366],[-119.3499,38.7362],[-119.3478,38.6488],[-119.3299,38.6487],[-119.3301,38.536],[-120.001,38.9996],[-120.0034,39.1127],[-119.7612,39.114],[-119.7612,39.0995],[-119.7522,39.0995],[-119.7521,39.0849],[-119.5504,39.0863]]]}},{"type":"Feature","properties":{"leaid":"3200120","name":"Elko County School District","kind":"Unified","gradeLow":"PK","gradeHigh":"12","state":"NV"},"geometry":{"type":"Polygon","coordinates":[[[-114.8235,42.0018],[-114.5761,41.9944],[-114.0415,41.9939],[-114.0402,41.9488],[-114.0395,41.7189],[-114.0466,40.1169],[-114.3684,40.1173],[-114.8643,40.1224],[-114.8838,40.1214],[-115.0009,40.1228],[-115.2458,40.1223],[-115.3759,40.1261],[-115.4986,40.1271],[-115.5009,40.1279],[-115.7747,40.1285],[-116.0009,40.1274],[-116.1578,40.6664],[-116.1582,40.9999],[-117.0184,41.0003],[-117.0176,41.4942],[-117.0195,41.7638],[-117.0181,41.8761],[-117.0182,41.9997],[-117.0081,41.9987],[-116.3685,41.9963],[-116.1894,41.9977],[-116.0666,41.9975],[-116.0454,41.9963],[-115.8903,41.9972],[-115.0694,41.9961],[-114.9735,41.9975],[-114.8563,42.0017],[-114.8235,42.0018]]]}},{"type":"Feature","properties":{"leaid":"3200150","name":"Esmeralda County School District","kind":"Unified","gradeLow":"PK","gradeHigh":"12","state":"NV"},"geometry":{"type":"Polygon","coordinates":[[[-117.166,36.9711],[-117.5001,37.2204],[-117.5814,37.2789],[-117.6806,37.3534],[-117.7124,37.3749],[-117.8759,37.4973],[-117.9046,37.5158],[-118.0522,37.6249],[-118.4281,37.8962],[-118.4179,37.8965],[-118.415,37.8939],[-118.3515,37.8937],[-118.251,37.9831],[-118.2344,37.9999],[-118.126,38.0937],[-118.0787,38.1371],[-117.691,38.4738],[-117.2409,38.0699],[-117.2411,38.0501],[-117.2193,38.0503],[-117.1656,38.0017],[-117.1648,37.9879],[-117.1664,37.6602],[-117.1652,37.4296],[-117.166,36.9711]]]}},{"type":"Feature","properties":{"leaid":"3200180","name":"Eureka County School District","kind":"Unified","gradeLow":"PK","gradeHigh":"12","state":"NV"},"geometry":{"type":"Polygon","coordinates":[[[-115.835,40.1278],[-115.8326,40.1254],[-115.8241,40.1212],[-115.8238,40.1188],[-115.8306,40.1127],[-115.8254,40.1061],[-115.8268,40.1043],[-115.8402,40.0976],[-115.8342,40.0927],[-115.8331,40.0879],[-115.8391,40.0845],[-115.8393,40.0808],[-115.8352,40.08],[-115.8335,40.0779],[-115.8329,40.0708],[-115.8273,40.0626],[-115.8278,40.0583],[-115.8266,40.0531],[-115.8277,40.0493],[-115.8332,40.0432],[-115.8294,40.0379],[-115.8303,40.0331],[-115.8265,40.0261],[-115.8272,40.0234],[-115.832,40.021],[-115.8353,40.0174],[-115.8341,40.0105],[-115.8315,40.0079],[-115.8323,40.0017],[-115.8313,39.9992],[-115.8358,39.9939],[-115.8343,39.9917],[-115.8334,39.985],[-115.8275,39.982],[-115.8269,39.979],[-115.8236,39.9745],[-115.8244,39.9722],[-115.8236,39.9676],[-115.8208,39.9648],[-115.8162,39.9549],[-115.8148,39.9481],[-115.8181,39.9328],[-115.8174,39.931],[-115.8125,39.9249],[-115.809,39.9236],[-115.8052,39.9148],[-115.8024,39.9128],[-115.8017,39.9091],[-115.8028,39.9055],[-115.8058,39.904],[-115.8078,39.8992],[-115.807,39.8944],[-115.8052,39.8931],[-115.8058,39.8899],[-115.803,39.8857],[-115.803,39.8809],[-115.801,39.8774],[-115.8023,39.8734],[-115.8053,39.8698],[-115.8043,39.8679],[-115.7991,39.865],[-115.7949,39.8539],[-115.7986,39.8498],[-115.7983,39.8468],[-115.8,39.8427],[-115.7987,39.8351],[-115.8041,39.8326],[-115.8093,39.8245],[-115.8125,39.8245],[-115.8135,39.8165],[-115.8156,39.8143],[-115.8134,39.8107],[-115.8125,39.8016],[-115.8101,39.7958],[-115.8121,39.7883],[-115.8107,39.7821],[-115.8139,39.7787],[-115.8134,39.7727],[-115.8107,39.7694],[-115.8128,39.7666],[-115.8101,39.7619],[-115.8128,39.7564],[-115.8121,39.7529],[-115.816,39.7503],[-115.8174,39.7472],[-115.8243,39.744],[-115.8253,39.7405],[-115.8285,39.7386],[-115.8309,39.735],[-115.8333,39.7281],[-115.8335,39.718],[-115.8305,39.7154],[-115.8322,39.711],[-115.8286,39.704],[-115.8296,39.6968],[-115.8244,39.6874],[-115.8239,39.6731],[-115.8226,39.6702],[-115.8243,39.6656],[-115.823,39.6627],[-115.8242,39.6601],[-115.8231,39.6558],[-115.8275,39.646],[-115.8254,39.6418],[-115.8246,39.6289],[-115.8193,39.6219],[-115.8185,39.608],[-115.8167,39.6019],[-115.8139,39.5985],[-115.8135,39.5935],[-115.816,39.5859],[-115.8186,39.5846],[-115.8217,39.5782],[-115.8332,39.5681],[-115.8382,39.5562],[-115.837,39.5538],[-115.8333,39.5521],[-115.8328,39.5461],[-115.8305,39.5414],[-115.8323,39.5353],[-115.8381,39.5239],[-115.84,39.5222],[-115.8415,39.515],[-115.8448,39.5132],[-115.8422,39.5112],[-115.8443,39.5086],[-115.8512,39.5088],[-115.8558,39.5039],[-115.8518,39.5009],[-115.8525,39.499],[-115.8644,39.4936],[-115.8649,39.4889],[-115.8703,39.4871],[-115.8665,39.4786],[-115.8703,39.47],[-115.8751,39.4693],[-115.8759,39.4657],[-115.8811,39.466],[-115.8861,39.4631],[-115.894,39.4616],[-115.8983,39.4539],[-115.9032,39.4557],[-115.9042,39.4613],[-115.9077,39.4644],[-115.9071,39.1618],[-116.6009,39.1615],[-116.601,39.1761],[-116.5971,39.1762],[-116.5968,39.3728],[-116.5924,39.3728],[-116.5929,39.6337],[-116.591,39.6337],[-116.5901,39.7247],[-116.5904,40.0723],[-116.6,40.0723],[-116.6001,40.074],[-116.5995,40.161],[-116.5942,40.3203],[-116.594,40.481],[-116.5964,40.6103],[-116.5958,40.7499],[-116.5968,40.9465],[-116.5871,40.947],[-116.5868,41.0004],[-116.1582,40.9999],[-116.1578,40.6664],[-116.0009,40.1274],[-115.835,40.1278]]]}},{"type":"Feature","properties":{"leaid":"3200210","name":"Humboldt County School District","kind":"Unified","gradeLow":"PK","gradeHigh":"12","state":"NV"},"geometry":{"type":"Polygon","coordinates":[[[-118.2232,41.9972],[-117.0182,41.9997],[-117.0181,41.8761],[-117.0195,41.7638],[-117.0176,41.4942],[-117.0187,41.2723],[-117.0182,40.7859],[-117.0186,40.7043],[-117.0198,40.6993],[-117.0186,40.6945],[-117.0187,40.643],[-117.2468,40.6424],[-117.3006,40.5261],[-117.3,40.6763],[-117.3012,40.6823],[-117.3094,40.6835],[-117.6444,40.6843],[-117.6442,40.8578],[-118.1374,40.8577],[-118.4382,40.8557],[-118.7867,40.8559],[-118.7867,40.9609],[-119.3298,40.9604],[-119.3314,41.039],[-119.3311,41.2351],[-119.3057,41.2345],[-119.3042,41.3077],[-119.3046,41.4147],[-119.324,41.4145],[-119.3218,41.4747],[-119.3211,41.5909],[-119.327,41.5906],[-119.3274,41.6863],[-119.3271,41.8424],[-119.327,41.8569],[-119.3248,41.8569],[-119.3242,41.9939],[-118.6765,41.9922],[-118.5697,41.9945],[-118.2232,41.9972]]]}},{"type":"Feature","properties":{"leaid":"3200240","name":"Lander County School District","kind":"Unified","gradeLow":"PK","gradeHigh":"12","state":"NV"},"geometry":{"type":"Polygon","coordinates":[[[-116.5868,41.0004],[-116.5871,40.947],[-116.5968,40.9465],[-116.5958,40.7499],[-116.5964,40.6103],[-116.594,40.481],[-116.5942,40.3203],[-116.5995,40.161],[-116.6001,40.074],[-116.6,40.0723],[-116.5904,40.0723],[-116.5901,39.7247],[-116.591,39.6337],[-116.5929,39.6337],[-116.5924,39.3728],[-116.5968,39.3728],[-116.5971,39.1762],[-116.601,39.1761],[-116.6009,39.1615],[-117.3319,39.1634],[-117.5009,39.1394],[-117.7768,39.0939],[-117.7785,39.1013],[-117.781,39.1046],[-117.7846,39.1068],[-117.7934,39.1083],[-117.8001,39.1125],[-117.8017,39.1159],[-117.8008,39.1175],[-117.7987,39.1187],[-117.7963,39.117],[-117.7931,39.1176],[-117.7938,39.1209],[-117.7964,39.122],[-117.7926,39.1255],[-117.7936,39.1268],[-117.7914,39.1288],[-117.7915,39.1314],[-117.7938,39.1343],[-117.7949,39.1388],[-117.8015,39.1388],[-117.8058,39.1418],[-117.8068,39.1454],[-117.7935,39.1448],[-117.7934,39.1481],[-117.7846,39.151],[-117.7904,39.1581],[-117.7926,39.1589],[-117.7927,39.1617],[-117.7888,39.1644],[-117.7916,39.1696],[-117.7861,39.17],[-117.7849,39.174],[-117.7824,39.1758],[-117.7764,39.1735],[-117.771,39.1742],[-117.7659,39.1794],[-117.7648,39.1831],[-117.7618,39.1854],[-117.7532,39.1848],[-117.7489,39.1904],[-117.7442,39.1914],[-117.7442,39.1985],[-117.7416,39.1989],[-117.7353,39.2053],[-117.7357,39.2083],[-117.7346,39.2101],[-117.7267,39.2133],[-117.7197,39.213],[-117.7227,39.217],[-117.7204,39.221],[-117.7216,39.225],[-117.7193,39.228],[-117.7207,39.2305],[-117.7201,39.2363],[-117.7172,39.2387],[-117.7174,39.2424],[-117.7151,39.2435],[-117.7141,39.2456],[-117.7164,39.2486],[-117.7228,39.2508],[-117.7272,39.2643],[-117.7313,39.2678],[-117.7301,39.2712],[-117.733,39.2813],[-117.7436,39.2878],[-117.7417,39.2944],[-117.7397,39.2968],[-117.7429,39.3015],[-117.7468,39.3041],[-117.7478,39.3085],[-117.7527,39.3118],[-117.7515,39.3155],[-117.7526,39.3199],[-117.7516,39.3231],[-117.7542,39.3257],[-117.7558,39.3311],[-117.7599,39.3341],[-117.7606,39.34],[-117.7575,39.3448],[-117.7594,39.3465],[-117.7594,39.3515],[-117.763,39.3528],[-117.7613,39.3576],[-117.7626,39.3584],[-117.7589,39.3639],[-117.7598,39.3692],[-117.7563,39.3708],[-117.7558,39.3762],[-117.7528,39.3778],[-117.7502,39.3838],[-117.7469,39.3857],[-117.7386,39.3811],[-117.7281,39.3802],[-117.7199,39.3829],[-117.7135,39.3826],[-117.7104,39.3812],[-117.7068,39.3843],[-117.6963,39.3859],[-117.6851,39.3984],[-117.6857,39.4014],[-117.6837,39.4044],[-117.6808,39.4059],[-117.6827,39.4108],[-117.6817,39.4126],[-117.6764,39.4136],[-117.677,39.4177],[-117.6756,39.4225],[-117.6731,39.4238],[-117.6614,39.4255],[-117.6544,39.4252],[-117.6507,39.427],[-117.646,39.4266],[-117.6425,39.4305],[-117.6428,39.4358],[-117.6384,39.4397],[-117.6402,39.4461],[-117.6372,39.4518],[-117.645,39.4584],[-117.6494,39.4592],[-117.6538,39.4578],[-117.6537,39.4594],[-117.6573,39.4623],[-117.6559,39.4653],[-117.6566,39.4679],[-117.6509,39.467],[-117.6476,39.4704],[-117.6419,39.4698],[-117.6364,39.473],[-117.6352,39.4758],[-117.6321,39.4769],[-117.6232,39.4762],[-117.6163,39.4826],[-117.6155,39.4898],[-117.6115,39.491],[-117.6034,39.49],[-117.6018,39.4908],[-117.6026,39.4923],[-117.6011,39.4958],[-117.5972,39.4989],[-117.59,39.4999],[-117.5896,39.5016],[-117.5865,39.5035],[-117.5887,39.5089],[-117.5884,39.5154],[-117.5901,39.518],[-117.5849,39.5181],[-117.58,39.5201],[-117.5776,39.5185],[-117.5657,39.5192],[-117.5608,39.5259],[-117.5561,39.5254],[-117.5522,39.5269],[-117.5481,39.5254],[-117.5434,39.5274],[-117.5341,39.5283],[-117.532,39.5269],[-117.531,39.5313],[-117.528,39.532],[-117.5281,39.5336],[-117.5261,39.5351],[-117.5221,39.534],[-117.5185,39.5382],[-117.5105,39.5313],[-117.5014,39.5308],[-117.4951,39.5333],[-117.4929,39.5359],[-117.4928,39.5428],[-117.4853,39.5453],[-117.4842,39.549],[-117.4867,39.5509],[-117.4823,39.5547],[-117.4826,39.5592],[-117.4805,39.5625],[-117.4828,39.5689],[-117.4814,39.5718],[-117.4824,39.5736],[-117.479,39.5771],[-117.4761,39.5836],[-117.4775,39.5856],[-117.4766,39.5882],[-117.4778,39.5888],[-117.4786,39.5928],[-117.4766,39.5967],[-117.4822,39.5982],[-117.4766,39.6041],[-117.4753,39.6082],[-117.4679,39.6177],[-117.4616,39.6226],[-117.4632,39.6248],[-117.4634,39.6331],[-117.4664,39.6348],[-117.4685,39.6333],[-117.4733,39.6347],[-117.4757,39.6376],[-117.4781,39.6373],[-117.4802,39.6402],[-117.485,39.6424],[-117.4861,39.6448],[-117.4839,39.6472],[-117.4811,39.6477],[-117.478,39.6517],[-117.4789,39.6555],[-117.4777,39.6595],[-117.4721,39.6615],[-117.4725,39.665],[-117.4713,39.6666],[-117.4734,39.6671],[-117.4739,39.6693],[-117.4696,39.6743],[-117.4651,39.676],[-117.4644,39.679],[-117.4727,39.6879],[-117.4807,39.6925],[-117.4815,39.6958],[-117.4846,39.6984],[-117.4878,39.7039],[-117.485,39.7053],[-117.484,39.7075],[-117.4876,39.7141],[-117.4825,39.7211],[-117.4808,39.7217],[-117.4803,39.7272],[-117.4761,39.7299],[-117.4772,39.7314],[-117.4752,39.7359],[-117.4778,39.7372],[-117.4774,39.7424],[-117.4802,39.7414],[-117.4852,39.742],[-117.4878,39.7463],[-117.4953,39.7484],[-117.4945,39.7547],[-117.4966,39.7611],[-117.4946,39.767],[-117.496,39.7704],[-117.4942,39.7727],[-117.4949,39.7742],[-117.4895,39.7794],[-117.4898,39.7815],[-117.4878,39.782],[-117.4881,39.7841],[-117.4857,39.7865],[-117.4884,39.7909],[-117.4866,39.7987],[-117.4894,39.807],[-117.4877,39.8074],[-117.4878,39.8094],[-117.4834,39.8117],[-117.4871,39.8183],[-117.4875,39.8208],[-117.4863,39.822],[-117.4882,39.8266],[-117.4843,39.8282],[-117.4831,39.8299],[-117.4834,39.834],[-117.4801,39.8346],[-117.4795,39.8372],[-117.4723,39.8392],[-117.4716,39.8416],[-117.4728,39.8436],[-117.4685,39.849],[-117.471,39.8521],[-117.4705,39.8545],[-117.467,39.8553],[-117.4667,39.857],[-117.4646,39.8582],[-117.4669,39.8647],[-117.464,39.8651],[-117.4613,39.8678],[-117.4628,39.8718],[-117.4616,39.8742],[-117.4626,39.8788],[-117.4616,39.8868],[-117.4629,39.8892],[-117.4623,39.8909],[-117.4639,39.8913],[-117.4642,39.8937],[-117.4655,39.8943],[-117.4665,39.9025],[-117.4678,39.9034],[-117.4682,39.9081],[-117.4661,39.9115],[-117.4705,39.9178],[-117.4679,39.9221],[-117.4706,39.923],[-117.4727,39.9282],[-117.4747,39.9297],[-117.4777,39.9393],[-117.4823,39.9436],[-117.4877,39.9431],[-117.4919,39.9484],[-117.5025,39.9515],[-117.506,39.956],[-117.5061,39.9598],[-117.5088,39.9628],[-117.5091,39.9665],[-117.5071,39.9688],[-117.511,39.9708],[-117.5196,39.9725],[-117.5196,39.9773],[-117.5214,39.9808],[-117.5247,39.9845],[-117.5275,39.985],[-117.5303,39.9873],[-117.5324,39.9894],[-117.5314,39.9918],[-117.5407,39.9988],[-117.5417,40.001],[-117.2468,40.6424],[-117.0187,40.643],[-117.0186,40.6945],[-117.0198,40.6993],[-117.0186,40.7043],[-117.0183,40.7606],[-117.0184,41.0003],[-116.5868,41.0004]]]}},{"type":"Feature","properties":{"leaid":"3200270","name":"Lincoln County School District","kind":"Unified","gradeLow":"PK","gradeHigh":"12","state":"NV"},"geometry":{"type":"Polygon","coordinates":[[[-114.0498,38.6774],[-114.0505,38.4961],[-114.0493,38.2661],[-114.0503,38.2371],[-114.0505,37.9533],[-114.0496,37.8235],[-114.0483,37.8094],[-114.0499,37.7661],[-114.0517,37.7515],[-114.0529,37.5609],[-114.0516,37.3039],[-114.0525,37.1129],[-114.0501,37.0141],[-114.0504,36.8431],[-114.7623,36.8439],[-114.7625,36.8535],[-115.3147,36.8537],[-115.7408,36.8531],[-115.7407,36.8419],[-115.8969,36.8421],[-115.8945,36.8617],[-115.8964,36.922],[-115.8963,37.25],[-115.8948,37.2752],[-115.8963,37.3778],[-115.8932,37.9614],[-115.8944,37.9999],[-115.8939,38.0505],[-115.0008,38.0508],[-115.0008,38.6773],[-114.0498,38.6774]]]}},{"type":"Feature","properties":{"leaid":"3200300","name":"Lyon County School District","kind":"Unified","gradeLow":"PK","gradeHigh":"12","state":"NV"},"geometry":{"type":"Polygon","coordinates":[[[-118.7551,39.0747],[-118.9187,39.0752],[-119.001,38.9658],[-119.0149,38.9441],[-119.0145,38.852],[-118.9021,38.8519],[-118.9021,38.7647],[-118.9075,38.7647],[-118.9062,38.4154],[-119.1559,38.4138],[-119.3301,38.5351],[-119.3299,38.6487],[-119.3478,38.6488],[-119.3499,38.7362],[-119.3875,38.7366],[-119.3875,38.7335],[-119.406,38.7335],[-119.4055,38.7657],[-119.403,38.7657],[-119.403,38.8093],[-119.4122,38.8093],[-119.4123,38.8239],[-119.4216,38.8239],[-119.4218,38.8529],[-119.4401,38.853],[-119.4398,38.8821],[-119.4217,38.8822],[-119.4202,38.9547],[-119.4023,38.9547],[-119.4019,38.9837],[-119.3645,38.9842],[-119.3481,38.9829],[-119.348,38.9873],[-119.3434,38.9873],[-119.3434,38.991],[-119.3105,38.9909],[-119.3108,39.0847],[-119.5504,39.0863],[-119.5483,39.0908],[-119.5499,39.0917],[-119.5512,39.0995],[-119.5569,39.1031],[-119.5565,39.1062],[-119.5589,39.1108],[-119.5581,39.1186],[-119.5614,39.132],[-119.5602,39.1338],[-119.5613,39.1369],[-119.5668,39.1398],[-119.5714,39.1444],[-119.5718,39.1526],[-119.5747,39.1548],[-119.5708,39.1583],[-119.5703,39.1615],[-119.5652,39.1683],[-119.5647,39.174],[-119.5629,39.1746],[-119.5607,39.1785],[-119.561,39.184],[-119.5593,39.1899],[-119.5617,39.1926],[-119.5616,39.1946],[-119.6479,39.1951],[-119.6825,39.2093],[-119.7123,39.2513],[-119.6473,39.2668],[-119.4788,39.3379],[-119.2831,39.6223],[-119.2769,39.6223],[-119.2573,39.6513],[-119.1893,39.6514],[-119.1893,39.6368],[-119.1927,39.6368],[-119.1907,39.6318],[-119.1834,39.6395],[-119.1786,39.652],[-119.1608,39.6561],[-119.1149,39.6875],[-119.1013,39.7021],[-119.0634,39.7371],[-119.0586,39.7371],[-119.0586,39.7299],[-119.068,39.7299],[-119.068,39.7226],[-119.0771,39.7226],[-119.0771,39.6368],[-119.0891,39.6368],[-119.0905,39.5189],[-119.1178,39.5189],[-119.1177,39.3887],[-119.0997,39.3879],[-119.0996,39.3738],[-119.0812,39.3736],[-119.0809,39.3594],[-119.0623,39.3593],[-119.0623,39.3446],[-119.0443,39.3446],[-119.0442,39.3301],[-119.0255,39.3301],[-119.0255,39.3156],[-119.0068,39.3156],[-119.0068,39.3],[-118.9878,39.3],[-118.9877,39.2855],[-118.965,39.2855],[-118.965,39.2707],[-118.9464,39.2707],[-118.9463,39.2562],[-118.9278,39.2562],[-118.9277,39.2417],[-118.9091,39.2417],[-118.909,39.2272],[-118.8907,39.2272],[-118.8908,39.1982],[-118.8668,39.1982],[-118.8667,39.1853],[-118.8481,39.1853],[-118.8481,39.1712],[-118.8294,39.1711],[-118.8294,39.1563],[-118.8108,39.1563],[-118.8108,39.1418],[-118.7922,39.1418],[-118.7922,39.1129],[-118.7551,39.1128],[-118.7551,39.0747]]]}},{"type":"Feature","properties":{"leaid":"3200330","name":"Mineral County School District","kind":"Unified","gradeLow":"PK","gradeHigh":"12","state":"NV"},"geometry":{"type":"Polygon","coordinates":[[[-118.9187,39.0752],[-117.8651,39.0737],[-118.1963,38.9999],[-118.1962,38.9191],[-117.691,38.4738],[-118.0787,38.1371],[-118.126,38.0937],[-118.2344,37.9999],[-118.251,37.9831],[-118.3515,37.8937],[-118.415,37.8939],[-118.4179,37.8965],[-118.4281,37.8962],[-118.572,37.9999],[-118.6217,38.0344],[-118.7142,38.1021],[-119.1556,38.4138],[-118.9062,38.4154],[-118.9075,38.7647],[-118.9021,38.7647],[-118.9021,38.8519],[-119.0145,38.852],[-119.0149,38.9441],[-119.001,38.9658],[-118.9187,39.0752]]]}},{"type":"Feature","properties":{"leaid":"3200360","name":"Nye County School District","kind":"Unified","gradeLow":"PK","gradeHigh":"12","state":"NV"},"geometry":{"type":"Polygon","coordinates":[[[-116.6009,39.1615],[-115.9071,39.1618],[-115.6016,38.9999],[-115.5679,38.9832],[-115.0008,38.6773],[-115.0008,38.0508],[-115.8939,38.0505],[-115.8944,37.9999],[-115.8932,37.9614],[-115.8963,37.3778],[-115.8948,37.2752],[-115.8963,37.25],[-115.8964,36.922],[-115.8945,36.8617],[-115.8969,36.8422],[-115.8953,36.6278],[-115.8958,36.1722],[-115.8458,36.1708],[-115.846,35.9637],[-116.0942,36.1563],[-116.3759,36.3726],[-116.3803,36.375],[-116.4882,36.4591],[-116.8743,36.7521],[-117.166,36.9711],[-117.1652,37.4296],[-117.1664,37.6602],[-117.1648,37.9879],[-117.1656,38.0017],[-117.2193,38.0503],[-117.2411,38.0501],[-117.2409,38.0699],[-117.3551,38.1713],[-117.6259,38.4161],[-118.1962,38.9191],[-118.1963,38.9999],[-117.7755,39.0934],[-117.5009,39.1394],[-117.3319,39.1634],[-116.6009,39.1615]]]}},{"type":"Feature","properties":{"leaid":"3200390","name":"Carson City School District","kind":"Unified","gradeLow":"PK","gradeHigh":"12","state":"NV"},"geometry":{"type":"Polygon","coordinates":[[[-119.5504,39.0863],[-119.7521,39.0849],[-119.7522,39.0995],[-119.7612,39.0995],[-119.7612,39.114],[-120.0034,39.1127],[-120.0043,39.1656],[-119.8808,39.1655],[-119.8808,39.1709],[-119.8621,39.1711],[-119.8625,39.1856],[-119.8533,39.1858],[-119.8533,39.193],[-119.8439,39.1932],[-119.8439,39.2008],[-119.8267,39.2008],[-119.8267,39.208],[-119.8095,39.2094],[-119.7989,39.208],[-119.7989,39.2152],[-119.7709,39.2153],[-119.7709,39.2298],[-119.7522,39.2299],[-119.7521,39.2444],[-119.7153,39.2443],[-119.7121,39.251],[-119.6825,39.2093],[-119.6479,39.1951],[-119.5616,39.1946],[-119.5617,39.1926],[-119.5593,39.1899],[-119.561,39.184],[-119.5607,39.1785],[-119.5629,39.1746],[-119.5647,39.174],[-119.5652,39.1683],[-119.5703,39.1615],[-119.5708,39.1583],[-119.5747,39.1548],[-119.5718,39.1526],[-119.5714,39.1444],[-119.5668,39.1398],[-119.5613,39.1369],[-119.5602,39.1338],[-119.5614,39.132],[-119.5581,39.1186],[-119.5589,39.1108],[-119.5565,39.1062],[-119.5569,39.1031],[-119.5512,39.0995],[-119.5499,39.0917],[-119.5483,39.0908],[-119.5504,39.0863]]]}},{"type":"Feature","properties":{"leaid":"3200420","name":"Pershing County School District","kind":"Unified","gradeLow":"PK","gradeHigh":"12","state":"NV"},"geometry":{"type":"Polygon","coordinates":[[[-117.3006,40.5261],[-117.5417,40.001],[-117.7327,40.0025],[-118.2455,40.0024],[-118.501,39.9987],[-118.6059,39.9983],[-118.9561,39.9993],[-119.3393,39.9986],[-119.3378,40.3549],[-119.3385,40.5178],[-119.313,40.5183],[-119.3132,40.6249],[-119.3114,40.7499],[-119.3121,40.7817],[-119.3092,40.8776],[-119.3096,40.9604],[-118.7867,40.9609],[-118.7867,40.8559],[-118.4382,40.8557],[-118.1374,40.8577],[-117.6442,40.8578],[-117.6444,40.6843],[-117.3094,40.6835],[-117.3012,40.6823],[-117.3,40.6763],[-117.3006,40.5261]]]}},{"type":"Feature","properties":{"leaid":"3200450","name":"Storey County School District","kind":"Unified","gradeLow":"PK","gradeHigh":"12","state":"NV"},"geometry":{"type":"Polygon","coordinates":[[[-119.2798,39.6271],[-119.4788,39.3379],[-119.6473,39.2668],[-119.7126,39.2509],[-119.7141,39.2592],[-119.6965,39.2591],[-119.696,39.2809],[-119.6775,39.2809],[-119.6774,39.3317],[-119.6585,39.3315],[-119.6588,39.3461],[-119.6681,39.3462],[-119.6681,39.3608],[-119.6775,39.3606],[-119.6775,39.3751],[-119.6854,39.3751],[-119.6855,39.3896],[-119.6773,39.3896],[-119.677,39.4045],[-119.6571,39.4041],[-119.6551,39.4475],[-119.6961,39.4475],[-119.6956,39.52],[-119.6882,39.52],[-119.6774,39.5128],[-119.6698,39.5114],[-119.6648,39.5084],[-119.6532,39.5082],[-119.6425,39.5128],[-119.6334,39.5128],[-119.6296,39.5112],[-119.6232,39.511],[-119.6195,39.5139],[-119.618,39.5206],[-119.6088,39.5272],[-119.6088,39.5312],[-119.5943,39.544],[-119.5862,39.5473],[-119.5737,39.5503],[-119.548,39.5619],[-119.5409,39.5637],[-119.5408,39.5623],[-119.5367,39.561],[-119.531,39.566],[-119.5283,39.5667],[-119.5153,39.5641],[-119.5117,39.5623],[-119.5092,39.5633],[-119.5038,39.5623],[-119.5021,39.5637],[-119.4999,39.5628],[-119.4985,39.5642],[-119.49,39.5629],[-119.4853,39.5658],[-119.4772,39.5672],[-119.4759,39.5672],[-119.4747,39.5655],[-119.4727,39.566],[-119.4692,39.57],[-119.4705,39.5709],[-119.4714,39.5759],[-119.4685,39.5784],[-119.4678,39.584],[-119.4643,39.5847],[-119.4559,39.5893],[-119.4539,39.5892],[-119.451,39.5864],[-119.4435,39.585],[-119.4402,39.5856],[-119.4394,39.5872],[-119.4376,39.5877],[-119.422,39.5879],[-119.4133,39.5908],[-119.4041,39.5897],[-119.3949,39.5857],[-119.3878,39.5881],[-119.3706,39.5869],[-119.369,39.5875],[-119.3643,39.5955],[-119.3584,39.5977],[-119.3402,39.5965],[-119.334,39.6001],[-119.3262,39.6015],[-119.3179,39.6075],[-119.314,39.6074],[-119.3078,39.6131],[-119.3046,39.6129],[-119.299,39.6149],[-119.2974,39.617],[-119.2939,39.6175],[-119.2915,39.6207],[-119.2848,39.6228],[-119.2824,39.6289],[-119.2798,39.6271]]]}},{"type":"Feature","properties":{"leaid":"3200480","name":"Washoe County School District","kind":"Unified","gradeLow":"PK","gradeHigh":"12","state":"NV"},"geometry":{"type":"Polygon","coordinates":[[[-119.8268,41.9975],[-119.3242,41.9939],[-119.3248,41.8569],[-119.327,41.8569],[-119.3271,41.8424],[-119.3274,41.6863],[-119.327,41.5906],[-119.3211,41.5909],[-119.3218,41.4747],[-119.324,41.4145],[-119.3046,41.4147],[-119.3042,41.3077],[-119.3057,41.2345],[-119.3311,41.2351],[-119.3314,41.039],[-119.3298,40.9604],[-119.3096,40.9604],[-119.3092,40.8776],[-119.3121,40.7817],[-119.3114,40.7499],[-119.3132,40.6249],[-119.313,40.5183],[-119.3385,40.5178],[-119.3378,40.3549],[-119.3393,39.9986],[-119.2251,39.9994],[-119.2261,39.8994],[-119.2086,39.8995],[-119.2085,39.81],[-119.1898,39.81],[-119.1897,39.7882],[-119.1709,39.7883],[-119.1706,39.6805],[-119.1893,39.6805],[-119.1893,39.6514],[-119.2573,39.6513],[-119.2769,39.6223],[-119.2831,39.6223],[-119.2798,39.6271],[-119.2824,39.6289],[-119.2848,39.6228],[-119.2915,39.6207],[-119.2939,39.6175],[-119.2974,39.617],[-119.299,39.6149],[-119.3046,39.6129],[-119.3078,39.6131],[-119.314,39.6074],[-119.3179,39.6075],[-119.3262,39.6015],[-119.334,39.6001],[-119.3402,39.5965],[-119.3584,39.5977],[-119.3643,39.5955],[-119.369,39.5875],[-119.3706,39.5869],[-119.3878,39.5881],[-119.3949,39.5857],[-119.4041,39.5897],[-119.4133,39.5908],[-119.422,39.5879],[-119.4376,39.5877],[-119.4394,39.5872],[-119.4402,39.5856],[-119.4435,39.585],[-119.451,39.5864],[-119.4539,39.5892],[-119.4559,39.5893],[-119.4643,39.5847],[-119.4678,39.584],[-119.4685,39.5784],[-119.4714,39.5759],[-119.4705,39.5709],[-119.4692,39.57],[-119.4727,39.566],[-119.4747,39.5655],[-119.4759,39.5672],[-119.4772,39.5672],[-119.4853,39.5658],[-119.49,39.5629],[-119.4985,39.5642],[-119.4999,39.5628],[-119.5021,39.5637],[-119.5038,39.5623],[-119.5092,39.5633],[-119.5117,39.5623],[-119.5153,39.5641],[-119.5283,39.5667],[-119.531,39.566],[-119.5367,39.561],[-119.5408,39.5623],[-119.5409,39.5637],[-119.5475,39.562],[-119.5737,39.5503],[-119.5862,39.5473],[-119.5943,39.544],[-119.6088,39.5312],[-119.6088,39.5272],[-119.618,39.5206],[-119.6195,39.5139],[-119.6232,39.511],[-119.6296,39.5112],[-119.6334,39.5128],[-119.6425,39.5128],[-119.6532,39.5082],[-119.6648,39.5084],[-119.6698,39.5114],[-119.6774,39.5128],[-119.6882,39.52],[-119.6956,39.52],[-119.6961,39.4475],[-119.6551,39.4475],[-119.6571,39.4041],[-119.677,39.4045],[-119.6773,39.3896],[-119.6855,39.3896],[-119.6854,39.3751],[-119.6775,39.3751],[-119.6775,39.3606],[-119.6681,39.3608],[-119.6681,39.3462],[-119.6588,39.3461],[-119.6585,39.3315],[-119.6774,39.3317],[-119.6775,39.2809],[-119.696,39.2809],[-119.6965,39.2591],[-119.7141,39.2592],[-119.7126,39.2509],[-119.7153,39.2443],[-119.7521,39.2444],[-119.7522,39.2299],[-119.7709,39.2298],[-119.7709,39.2153],[-119.7989,39.2152],[-119.7989,39.208],[-119.8095,39.2094],[-119.8267,39.208],[-119.8267,39.2008],[-119.8439,39.2008],[-119.8439,39.1932],[-119.8533,39.193],[-119.8533,39.1858],[-119.8625,39.1856],[-119.8621,39.1711],[-119.8808,39.1709],[-119.8808,39.1655],[-120.0043,39.1656],[-120.0065,39.2729],[-120.0061,39.3741],[-120.0029,39.4644],[-120.0008,39.6068],[-120.0011,39.7522],[-119.9977,39.9999],[-119.9956,40.4049],[-119.996,40.5706],[-119.9988,40.7739],[-119.9999,40.9999],[-119.9996,41.4702],[-119.9983,41.6188],[-119.9992,41.9949],[-119.9479,41.9968],[-119.8268,41.9975]]]}},{"type":"Feature","properties":{"leaid":"3200510","name":"White Pine County School District","kind":"Unified","gradeLow":"PK","gradeHigh":"12","state":"NV"},"geometry":{"type":"Polygon","coordinates":[[[-114.0466,40.1169],[-114.0498,38.6774],[-115.0008,38.6773],[-115.5679,38.9832],[-115.6016,38.9999],[-115.9071,39.1618],[-115.9077,39.4644],[-115.9042,39.4613],[-115.9032,39.4557],[-115.8983,39.4539],[-115.894,39.4616],[-115.8861,39.4631],[-115.8811,39.466],[-115.8759,39.4657],[-115.8751,39.4693],[-115.8703,39.47],[-115.8665,39.4786],[-115.8703,39.4871],[-115.8649,39.4889],[-115.8644,39.4936],[-115.8525,39.499],[-115.8518,39.5009],[-115.8558,39.5039],[-115.8512,39.5088],[-115.8443,39.5086],[-115.8422,39.5112],[-115.8448,39.5132],[-115.8415,39.515],[-115.84,39.5222],[-115.8381,39.5239],[-115.8323,39.5353],[-115.8305,39.5414],[-115.8328,39.5461],[-115.8333,39.5521],[-115.837,39.5538],[-115.8382,39.5562],[-115.8332,39.5681],[-115.8217,39.5782],[-115.8186,39.5846],[-115.816,39.5859],[-115.8135,39.5935],[-115.8139,39.5985],[-115.8167,39.6019],[-115.8185,39.608],[-115.8193,39.6219],[-115.8246,39.6289],[-115.8254,39.6418],[-115.8275,39.646],[-115.8231,39.6558],[-115.8242,39.6601],[-115.823,39.6627],[-115.8243,39.6656],[-115.8226,39.6702],[-115.8239,39.6731],[-115.8244,39.6874],[-115.8296,39.6968],[-115.8286,39.704],[-115.8322,39.711],[-115.8305,39.7154],[-115.8335,39.718],[-115.8333,39.7281],[-115.8309,39.735],[-115.8285,39.7386],[-115.8253,39.7405],[-115.8243,39.744],[-115.8174,39.7472],[-115.816,39.7503],[-115.8121,39.7529],[-115.8128,39.7564],[-115.8101,39.7619],[-115.8128,39.7666],[-115.8107,39.7694],[-115.8134,39.7727],[-115.8139,39.7787],[-115.8107,39.7821],[-115.8121,39.7883],[-115.8101,39.7958],[-115.8125,39.8016],[-115.8134,39.8107],[-115.8156,39.8143],[-115.8135,39.8165],[-115.8125,39.8245],[-115.8093,39.8245],[-115.8041,39.8326],[-115.7987,39.8351],[-115.8,39.8427],[-115.7983,39.8468],[-115.7986,39.8498],[-115.7949,39.8539],[-115.7991,39.865],[-115.8043,39.8679],[-115.8053,39.8698],[-115.8023,39.8734],[-115.801,39.8774],[-115.803,39.8809],[-115.803,39.8857],[-115.8058,39.8899],[-115.8052,39.8931],[-115.807,39.8944],[-115.8078,39.8992],[-115.8058,39.904],[-115.8028,39.9055],[-115.8017,39.9091],[-115.8024,39.9128],[-115.8052,39.9148],[-115.809,39.9236],[-115.8125,39.9249],[-115.8174,39.931],[-115.8181,39.9328],[-115.8148,39.9481],[-115.8162,39.9549],[-115.8208,39.9648],[-115.8236,39.9676],[-115.8244,39.9722],[-115.8236,39.9745],[-115.8269,39.979],[-115.8275,39.982],[-115.8334,39.985],[-115.8343,39.9917],[-115.8358,39.9939],[-115.8313,39.9992],[-115.8323,40.0017],[-115.8315,40.0079],[-115.8341,40.0105],[-115.8353,40.0174],[-115.832,40.021],[-115.8272,40.0234],[-115.8265,40.0261],[-115.8303,40.0331],[-115.8294,40.0379],[-115.8332,40.0432],[-115.8277,40.0493],[-115.8266,40.0531],[-115.8278,40.0583],[-115.8273,40.0626],[-115.8329,40.0708],[-115.8335,40.0779],[-115.8352,40.08],[-115.8393,40.0808],[-115.8391,40.0845],[-115.8331,40.0879],[-115.8342,40.0927],[-115.8402,40.0976],[-115.8268,40.1043],[-115.8254,40.1061],[-115.8306,40.1127],[-115.8238,40.1188],[-115.8241,40.1212],[-115.8326,40.1254],[-115.835,40.1278],[-115.5009,40.1279],[-115.4986,40.1271],[-115.3759,40.1261],[-115.2458,40.1223],[-115.0009,40.1228],[-114.8838,40.1214],[-114.8643,40.1224],[-114.3684,40.1173],[-114.0466,40.1169]]]}}]}