{"type":"FeatureCollection","features":[{"type":"Feature","properties":{"leaid":"7200030","name":"Puerto Rico Department of Education","kind":"Unified","gradeLow":"PK","gradeHigh":"12","state":"PR"},"geometry":{"type":"MultiPolygon","coordinates":[[[[-66.5312,17.8832],[-66.5315,17.8821],[-66.5338,17.8814],[-66.5332,17.8827],[-66.5312,17.8832]]],[[[-66.5135,17.9029],[-66.5102,17.9011],[-66.5095,17.8985],[-66.5165,17.8917],[-66.5196,17.8913],[-66.5279,17.8834],[-66.5294,17.8837],[-66.528,17.8849],[-66.5245,17.8954],[-66.5135,17.9029]]],[[[-66.2382,17.9143],[-66.2385,17.9138],[-66.2385,17.9143],[-66.2382,17.9143]]],[[[-66.2412,17.9144],[-66.2416,17.9145],[-66.2413,17.915],[-66.2412,17.9144]]],[[[-66.2456,17.9157],[-66.2451,17.9159],[-66.2453,17.9153],[-66.2456,17.9157]]],[[[-66.2325,17.9161],[-66.2317,17.914],[-66.23,17.9144],[-66.23,17.9163],[-66.2277,17.9141],[-66.2261,17.9152],[-66.2252,17.9137],[-66.2337,17.9133],[-66.2363,17.9158],[-66.2325,17.9161]]],[[[-66.2391,17.9163],[-66.2387,17.9148],[-66.2395,17.9132],[-66.2412,17.9149],[-66.2395,17.9156],[-66.2394,17.9144],[-66.2391,17.9163]]],[[[-66.2381,17.9163],[-66.2373,17.9171],[-66.2374,17.9137],[-66.2386,17.9174],[-66.2381,17.9163]]],[[[-66.2306,17.9174],[-66.2311,17.9156],[-66.2323,17.9159],[-66.2323,17.9166],[-66.2306,17.9174]]],[[[-66.2396,17.9176],[-66.2425,17.9142],[-66.2451,17.9171],[-66.2402,17.9183],[-66.2396,17.9176]]],[[[-66.2496,17.9186],[-66.246,17.9179],[-66.2461,17.9155],[-66.2494,17.9165],[-66.2496,17.9186]]],[[[-66.2524,17.9197],[-66.2536,17.9195],[-66.2528,17.9202],[-66.2524,17.9197]]],[[[-66.2517,17.9204],[-66.2499,17.9198],[-66.2499,17.9169],[-66.252,17.9185],[-66.2517,17.9204]]],[[[-66.3854,17.9217],[-66.3856,17.9197],[-66.3865,17.9193],[-66.3871,17.9206],[-66.3854,17.9217]]],[[[-66.2138,17.9221],[-66.2135,17.9216],[-66.2137,17.9216],[-66.2138,17.9221]]],[[[-66.2133,17.9223],[-66.2131,17.9219],[-66.2135,17.9225],[-66.2133,17.9223]]],[[[-66.3818,17.9226],[-66.3816,17.9208],[-66.3825,17.9205],[-66.3836,17.9217],[-66.3818,17.9226]]],[[[-66.2112,17.9232],[-66.2116,17.9232],[-66.2119,17.9236],[-66.2112,17.9232]]],[[[-66.2128,17.9232],[-66.2129,17.9226],[-66.2137,17.9238],[-66.2128,17.9232]]],[[[-66.2611,17.9242],[-66.2579,17.9219],[-66.261,17.9225],[-66.2611,17.9242]]],[[[-66.2128,17.9241],[-66.212,17.9228],[-66.2136,17.9242],[-66.2128,17.9241]]],[[[-66.2151,17.9244],[-66.2137,17.9207],[-66.2174,17.9217],[-66.2151,17.9244]]],[[[-66.4553,17.925],[-66.4556,17.9245],[-66.4558,17.9249],[-66.4553,17.925]]],[[[-66.2131,17.9251],[-66.2109,17.9242],[-66.2107,17.9232],[-66.2131,17.9251]]],[[[-66.4534,17.9242],[-66.4543,17.9234],[-66.4556,17.924],[-66.4544,17.9252],[-66.4534,17.9242]]],[[[-66.2632,17.9252],[-66.2612,17.9246],[-66.2618,17.923],[-66.2632,17.9252]]],[[[-66.2072,17.9259],[-66.2077,17.9261],[-66.2076,17.9265],[-66.2072,17.9259]]],[[[-66.2119,17.9261],[-66.2126,17.9263],[-66.2127,17.9267],[-66.2119,17.9261]]],[[[-66.209,17.9249],[-66.2116,17.9256],[-66.2109,17.9268],[-66.209,17.9249]]],[[[-66.2072,17.9269],[-66.2074,17.9265],[-66.2074,17.927],[-66.2072,17.9269]]],[[[-66.2059,17.9267],[-66.2061,17.9266],[-66.2066,17.9272],[-66.2059,17.9267]]],[[[-66.2722,17.9268],[-66.2727,17.9269],[-66.2723,17.9274],[-66.2722,17.9268]]],[[[-66.3206,17.9274],[-66.323,17.9267],[-66.324,17.9272],[-66.3206,17.9274]]],[[[-66.2048,17.9283],[-66.2049,17.9277],[-66.2056,17.9287],[-66.2048,17.9283]]],[[[-66.2102,17.9291],[-66.2076,17.927],[-66.208,17.9264],[-66.2076,17.925],[-66.211,17.9273],[-66.2105,17.9285],[-66.2098,17.9279],[-66.2102,17.9291]]],[[[-66.3658,17.9287],[-66.3668,17.9282],[-66.3663,17.9292],[-66.3658,17.9287]]],[[[-66.3669,17.9294],[-66.3688,17.9282],[-66.3693,17.9291],[-66.3669,17.9294]]],[[[-66.2399,17.9296],[-66.2406,17.9289],[-66.2407,17.9298],[-66.2399,17.9296]]],[[[-66.3653,17.9297],[-66.3642,17.9294],[-66.3644,17.929],[-66.3653,17.9297]]],[[[-66.9735,17.9301],[-66.9722,17.93],[-66.9719,17.9295],[-66.9726,17.9291],[-66.9735,17.9301]]],[[[-66.3529,17.9259],[-66.3545,17.9254],[-66.3552,17.9257],[-66.3554,17.9262],[-66.3521,17.9269],[-66.3518,17.9303],[-66.3514,17.9274],[-66.3529,17.9259]]],[[[-66.9333,17.9303],[-66.9342,17.9303],[-66.9341,17.9305],[-66.9333,17.9303]]],[[[-66.3201,17.9276],[-66.3194,17.9296],[-66.32,17.9307],[-66.3195,17.9303],[-66.3192,17.9291],[-66.3201,17.9276]]],[[[-66.2096,17.9308],[-66.2066,17.9297],[-66.2046,17.9267],[-66.2096,17.9308]]],[[[-66.2018,17.9279],[-66.2026,17.9282],[-66.205,17.931],[-66.2023,17.9297],[-66.2018,17.9279]]],[[[-66.2029,17.9282],[-66.2052,17.929],[-66.2079,17.9314],[-66.2055,17.931],[-66.2029,17.9282]]],[[[-66.2434,17.9318],[-66.2438,17.9313],[-66.2453,17.9328],[-66.2434,17.9318]]],[[[-66.4586,17.9327],[-66.4553,17.9316],[-66.454,17.9276],[-66.4542,17.9256],[-66.4559,17.925],[-66.4564,17.9236],[-66.4564,17.9267],[-66.4553,17.9259],[-66.4585,17.9309],[-66.4586,17.9327]]],[[[-66.2893,17.9332],[-66.2895,17.9333],[-66.2894,17.9335],[-66.2893,17.9332]]],[[[-66.235,17.9313],[-66.2347,17.9291],[-66.2394,17.9267],[-66.2392,17.9292],[-66.2371,17.9315],[-66.2402,17.9342],[-66.235,17.9313]]],[[[-66.2883,17.9334],[-66.2892,17.9333],[-66.2887,17.9345],[-66.2883,17.9334]]],[[[-66.2459,17.9345],[-66.2466,17.9342],[-66.2465,17.9347],[-66.2459,17.9345]]],[[[-66.2873,17.935],[-66.283,17.9343],[-66.2826,17.9338],[-66.2872,17.9326],[-66.2882,17.9341],[-66.2873,17.935]]],[[[-66.2915,17.9357],[-66.2891,17.9355],[-66.2899,17.9331],[-66.2915,17.9343],[-66.2915,17.9357]]],[[[-66.2919,17.9343],[-66.2928,17.9349],[-66.2918,17.9357],[-66.2917,17.9352],[-66.2919,17.9343]]],[[[-66.2566,17.9354],[-66.2553,17.9353],[-66.2551,17.935],[-66.2566,17.9354]]],[[[-66.2988,17.9368],[-66.2966,17.9345],[-66.2982,17.9342],[-66.3011,17.9352],[-66.2988,17.9368]]],[[[-66.237,17.9374],[-66.2378,17.9362],[-66.2368,17.9348],[-66.2401,17.9348],[-66.2407,17.9367],[-66.237,17.9374]]],[[[-66.2609,17.9383],[-66.2615,17.9372],[-66.262,17.9378],[-66.2609,17.9383]]],[[[-66.386,17.9392],[-66.3867,17.9382],[-66.3867,17.9386],[-66.386,17.9392]]],[[[-66.2387,17.9387],[-66.2398,17.9383],[-66.2401,17.9394],[-66.2395,17.9395],[-66.2387,17.9387]]],[[[-66.2633,17.9387],[-66.2616,17.9394],[-66.2617,17.9388],[-66.2633,17.9387]]],[[[-66.2641,17.9404],[-66.2647,17.9402],[-66.265,17.9405],[-66.2641,17.9404]]],[[[-66.3891,17.9407],[-66.39,17.9396],[-66.3902,17.94],[-66.3891,17.9407]]],[[[-66.3868,17.9388],[-66.3879,17.9401],[-66.3866,17.9406],[-66.3862,17.9409],[-66.3868,17.9388]]],[[[-66.3868,17.9414],[-66.3873,17.9405],[-66.3885,17.941],[-66.3882,17.9414],[-66.3868,17.9414]]],[[[-66.2432,17.9419],[-66.2431,17.9415],[-66.2433,17.9416],[-66.2432,17.9419]]],[[[-66.2368,17.9426],[-66.2361,17.9423],[-66.2371,17.942],[-66.2368,17.9426]]],[[[-66.2655,17.9428],[-66.2663,17.9417],[-66.2665,17.942],[-66.2655,17.9428]]],[[[-66.8702,17.9428],[-66.871,17.9414],[-66.8722,17.9421],[-66.8722,17.9408],[-66.8752,17.9412],[-66.8738,17.9429],[-66.8702,17.9428]]],[[[-66.2665,17.943],[-66.2668,17.9423],[-66.2673,17.9425],[-66.2665,17.943]]],[[[-66.268,17.9432],[-66.2678,17.9429],[-66.2682,17.9431],[-66.268,17.9432]]],[[[-66.2676,17.9436],[-66.267,17.9436],[-66.2674,17.9433],[-66.2676,17.9436]]],[[[-66.8706,17.9443],[-66.8698,17.9432],[-66.8722,17.9439],[-66.8706,17.9443]]],[[[-66.973,17.9449],[-66.9703,17.9434],[-66.9717,17.9433],[-66.973,17.9449]]],[[[-66.9125,17.9461],[-66.9124,17.9458],[-66.9127,17.946],[-66.9125,17.9461]]],[[[-66.9119,17.9463],[-66.9123,17.9462],[-66.9123,17.9463],[-66.9119,17.9463]]],[[[-66.978,17.9468],[-66.9783,17.9465],[-66.9783,17.9468],[-66.978,17.9468]]],[[[-66.9111,17.947],[-66.9114,17.9464],[-66.9119,17.9465],[-66.9111,17.947]]],[[[-67.1222,17.9471],[-67.1228,17.9466],[-67.1229,17.9468],[-67.1222,17.9471]]],[[[-66.979,17.9471],[-66.9789,17.9465],[-66.9795,17.9467],[-66.979,17.9471]]],[[[-66.8656,17.946],[-66.8666,17.944],[-66.8697,17.9445],[-66.8668,17.9454],[-66.867,17.9471],[-66.8656,17.946]]],[[[-66.9804,17.9477],[-66.9804,17.9473],[-66.9807,17.9474],[-66.9804,17.9477]]],[[[-66.9807,17.9477],[-66.9808,17.9478],[-66.9807,17.9479],[-66.9807,17.9477]]],[[[-66.9809,17.948],[-66.9811,17.9478],[-66.981,17.9481],[-66.9809,17.948]]],[[[-66.4004,17.9482],[-66.3929,17.9447],[-66.3926,17.9424],[-66.4004,17.9482]]],[[[-66.9813,17.9484],[-66.9816,17.9478],[-66.9814,17.9484],[-66.9813,17.9484]]],[[[-66.9824,17.9489],[-66.9826,17.9486],[-66.9826,17.9488],[-66.9824,17.9489]]],[[[-66.984,17.9492],[-66.9833,17.9486],[-66.9843,17.949],[-66.984,17.9492]]],[[[-66.9847,17.9493],[-66.9848,17.9492],[-66.9848,17.9493],[-66.9847,17.9493]]],[[[-66.9849,17.9496],[-66.9852,17.9493],[-66.9854,17.9497],[-66.9849,17.9496]]],[[[-66.9884,17.9497],[-66.988,17.9497],[-66.9885,17.9496],[-66.9884,17.9497]]],[[[-66.4004,17.9486],[-66.4021,17.9488],[-66.4023,17.9499],[-66.4004,17.9486]]],[[[-66.9867,17.9501],[-66.9858,17.9496],[-66.9869,17.9498],[-66.9867,17.9501]]],[[[-67.1335,17.9504],[-67.1334,17.9502],[-67.1336,17.9504],[-67.1335,17.9504]]],[[[-67.1333,17.9501],[-67.1297,17.9504],[-67.1287,17.9491],[-67.1306,17.9485],[-67.1333,17.9501]]],[[[-66.2059,17.9509],[-66.2065,17.9501],[-66.207,17.9507],[-66.2059,17.9509]]],[[[-67.1338,17.951],[-67.1342,17.9506],[-67.135,17.9514],[-67.1338,17.951]]],[[[-66.9816,17.9523],[-66.9819,17.9514],[-66.9819,17.9523],[-66.9816,17.9523]]],[[[-67.2136,17.9524],[-67.2146,17.9517],[-67.2137,17.9526],[-67.2136,17.9524]]],[[[-66.9822,17.9532],[-66.9825,17.9528],[-66.9825,17.9533],[-66.9822,17.9532]]],[[[-67.045,17.9533],[-67.0454,17.9532],[-67.0454,17.9535],[-67.045,17.9533]]],[[[-67.0464,17.9536],[-67.0461,17.953],[-67.0471,17.9532],[-67.0464,17.9536]]],[[[-66.6822,17.9522],[-66.6831,17.9527],[-66.6827,17.9537],[-66.6819,17.9535],[-66.6822,17.9522]]],[[[-66.6799,17.9527],[-66.6807,17.9523],[-66.6813,17.9537],[-66.6799,17.9527]]],[[[-66.9825,17.9546],[-66.9831,17.9543],[-66.9827,17.9546],[-66.9825,17.9546]]],[[[-66.2958,17.956],[-66.2951,17.956],[-66.2954,17.9556],[-66.2958,17.956]]],[[[-66.2942,17.957],[-66.2918,17.9509],[-66.2927,17.9488],[-66.2954,17.9499],[-66.2957,17.953],[-66.2944,17.9507],[-66.294,17.9517],[-66.297,17.9558],[-66.2948,17.9551],[-66.2942,17.957]]],[[[-66.634,17.9572],[-66.6356,17.956],[-66.6362,17.9576],[-66.634,17.9572]]],[[[-67.0732,17.9577],[-67.0735,17.9574],[-67.0736,17.9576],[-67.0732,17.9577]]],[[[-66.5899,17.9597],[-66.5893,17.959],[-66.5902,17.9589],[-66.5899,17.9597]]],[[[-67.0924,17.9577],[-67.0929,17.9584],[-67.0926,17.9598],[-67.092,17.9593],[-67.0924,17.9577]]],[[[-66.6737,17.9597],[-66.6744,17.9599],[-66.6737,17.9598],[-66.6737,17.9597]]],[[[-67.0396,17.9597],[-67.04,17.9598],[-67.0395,17.9599],[-67.0396,17.9597]]],[[[-67.0391,17.9601],[-67.0376,17.9597],[-67.0392,17.96],[-67.0391,17.9601]]],[[[-67.0917,17.96],[-67.0923,17.96],[-67.0917,17.9603],[-67.0917,17.96]]],[[[-66.5871,17.9605],[-66.5876,17.96],[-66.5872,17.9605],[-66.5871,17.9605]]],[[[-66.5859,17.9609],[-66.586,17.9606],[-66.5861,17.9606],[-66.5859,17.9609]]],[[[-66.363,17.9609],[-66.3611,17.9592],[-66.3627,17.9566],[-66.3653,17.9579],[-66.363,17.9609]]],[[[-67.0863,17.9607],[-67.0869,17.9606],[-67.0868,17.961],[-67.0863,17.9607]]],[[[-67.0849,17.9611],[-67.0854,17.9603],[-67.0861,17.9607],[-67.0849,17.9611]]],[[[-67.0889,17.961],[-67.0875,17.9584],[-67.0897,17.9516],[-67.0918,17.9512],[-67.0905,17.9516],[-67.09,17.9524],[-67.0924,17.952],[-67.0905,17.956],[-67.0922,17.9571],[-67.0921,17.9587],[-67.0914,17.9609],[-67.0889,17.961]]],[[[-66.9841,17.9615],[-66.9854,17.9605],[-66.9857,17.9607],[-66.9841,17.9615]]],[[[-67.0357,17.9614],[-67.0361,17.9612],[-67.0363,17.9616],[-67.0357,17.9614]]],[[[-67.0086,17.9603],[-67.0096,17.9611],[-67.0097,17.9621],[-67.0091,17.9617],[-67.0086,17.9603]]],[[[-66.9843,17.9625],[-66.9843,17.9622],[-66.9844,17.9624],[-66.9843,17.9625]]],[[[-66.9909,17.9621],[-66.9901,17.9626],[-66.99,17.9625],[-66.9909,17.9621]]],[[[-67.035,17.9626],[-67.0352,17.9621],[-67.0355,17.9622],[-67.035,17.9626]]],[[[-67.0705,17.9624],[-67.0709,17.9624],[-67.0708,17.9627],[-67.0705,17.9624]]],[[[-66.5523,17.9626],[-66.5539,17.9618],[-66.5579,17.962],[-66.5562,17.9628],[-66.5523,17.9626]]],[[[-67.0866,17.9635],[-67.0863,17.9618],[-67.0873,17.9627],[-67.0866,17.9635]]],[[[-66.9859,17.9638],[-66.9868,17.9627],[-66.988,17.9631],[-66.9859,17.9638]]],[[[-67.0332,17.9639],[-67.033,17.9634],[-67.0335,17.9638],[-67.0332,17.9639]]],[[[-66.9861,17.9643],[-66.9863,17.964],[-66.9864,17.9642],[-66.9861,17.9643]]],[[[-66.5826,17.9613],[-66.5844,17.962],[-66.5824,17.9644],[-66.5814,17.9626],[-66.5826,17.9613]]],[[[-67.0705,17.9643],[-67.0713,17.9642],[-67.0707,17.9646],[-67.0705,17.9643]]],[[[-66.9856,17.9648],[-66.9857,17.9643],[-66.9859,17.9645],[-66.9856,17.9648]]],[[[-67.0642,17.9655],[-67.0646,17.9651],[-67.0645,17.9655],[-67.0642,17.9655]]],[[[-67.065,17.9658],[-67.0654,17.9659],[-67.0651,17.9659],[-67.065,17.9658]]],[[[-67.0488,17.9661],[-67.0493,17.9657],[-67.0491,17.9663],[-67.0488,17.9661]]],[[[-67.0666,17.9666],[-67.0666,17.9662],[-67.0669,17.9664],[-67.0666,17.9666]]],[[[-66.7536,17.9662],[-66.7542,17.966],[-66.7545,17.9668],[-66.7536,17.9662]]],[[[-66.7532,17.9667],[-66.7496,17.9658],[-66.7482,17.9666],[-66.7508,17.9648],[-66.7532,17.9667]]],[[[-66.9902,17.9669],[-66.9909,17.9667],[-66.9904,17.9672],[-66.9902,17.9669]]],[[[-66.9894,17.9688],[-66.9896,17.9685],[-66.9896,17.9688],[-66.9894,17.9688]]],[[[-67.0212,17.9683],[-67.0227,17.9682],[-67.0229,17.9685],[-67.0227,17.9689],[-67.0223,17.9686],[-67.0212,17.9683]]],[[[-67.0024,17.9693],[-67.0008,17.9679],[-67.0019,17.9668],[-67.0027,17.9671],[-67.0024,17.9693]]],[[[-66.7338,17.9692],[-66.732,17.9676],[-66.7334,17.9671],[-66.7338,17.9692]]],[[[-66.9988,17.9703],[-66.9993,17.9693],[-67.0001,17.9693],[-66.9999,17.9702],[-66.9988,17.9703]]],[[[-67.0461,17.97],[-67.0415,17.9693],[-67.0418,17.9682],[-67.044,17.9674],[-67.0461,17.97]]],[[[-67.0734,17.9704],[-67.0762,17.9676],[-67.0765,17.9678],[-67.0734,17.9704]]],[[[-66.9953,17.9703],[-66.996,17.9701],[-66.9957,17.9706],[-66.9953,17.9703]]],[[[-66.9941,17.9701],[-66.9948,17.9699],[-66.9949,17.9708],[-66.9941,17.9701]]],[[[-67.0478,17.9707],[-67.0484,17.9703],[-67.0486,17.9708],[-67.0478,17.9707]]],[[[-67.0359,17.9711],[-67.0365,17.9706],[-67.0366,17.9708],[-67.0359,17.9711]]],[[[-67.0392,17.971],[-67.0401,17.9709],[-67.0397,17.9712],[-67.0392,17.971]]],[[[-66.9922,17.9698],[-66.9931,17.9711],[-66.9922,17.9716],[-66.9922,17.9698]]],[[[-66.7313,17.9709],[-66.7329,17.9694],[-66.7337,17.9712],[-66.7327,17.972],[-66.7313,17.9709]]],[[[-67.0609,17.9719],[-67.0617,17.9712],[-67.0617,17.9721],[-67.0609,17.9719]]],[[[-67.0676,17.9717],[-67.0698,17.9709],[-67.0703,17.9713],[-67.0682,17.9722],[-67.0676,17.9717]]],[[[-67.0504,17.9726],[-67.0514,17.972],[-67.0528,17.9723],[-67.0527,17.9724],[-67.0504,17.9726]]],[[[-67.0541,17.973],[-67.056,17.9714],[-67.0569,17.9728],[-67.0541,17.973]]],[[[-67.0687,17.9724],[-67.0692,17.9731],[-67.0685,17.9731],[-67.0687,17.9724]]],[[[-67.0636,17.9734],[-67.0647,17.9734],[-67.0644,17.9741],[-67.0636,17.9734]]],[[[-67.06,17.974],[-67.0584,17.9736],[-67.0603,17.9733],[-67.06,17.974]]],[[[-67.0674,17.9722],[-67.0658,17.9742],[-67.0655,17.9728],[-67.0666,17.9718],[-67.0674,17.9722]]],[[[-67.0629,17.9734],[-67.0631,17.9743],[-67.0617,17.9748],[-67.0618,17.9745],[-67.0629,17.9734]]],[[[-66.7456,17.9744],[-66.7446,17.9727],[-66.7496,17.974],[-66.7503,17.9754],[-66.7456,17.9744]]],[[[-66.7171,17.9795],[-66.717,17.9786],[-66.7174,17.9791],[-66.7171,17.9795]]],[[[-66.712,17.9823],[-66.709,17.9811],[-66.7089,17.9807],[-66.712,17.9823]]],[[[-66.7394,17.9824],[-66.7392,17.9811],[-66.7402,17.9808],[-66.7405,17.9817],[-66.7394,17.9824]]],[[[-66.7356,17.9836],[-66.7388,17.9813],[-66.7388,17.9824],[-66.7397,17.9828],[-66.7366,17.9847],[-66.7356,17.9836]]],[[[-67.178,18.0073],[-67.1787,18.0071],[-67.1781,18.0077],[-67.178,18.0073]]],[[[-65.7954,18.0687],[-65.7956,18.0683],[-65.7955,18.0687],[-65.7954,18.0687]]],[[[-65.7945,18.0687],[-65.7952,18.0688],[-65.7948,18.0691],[-65.7945,18.0687]]],[[[-67.197,18.0725],[-67.1965,18.0712],[-67.1975,18.0714],[-67.197,18.0725]]],[[[-67.1981,18.075],[-67.1978,18.0735],[-67.1988,18.0756],[-67.1981,18.075]]],[[[-65.7977,18.0798],[-65.7953,18.0793],[-65.7948,18.0782],[-65.7971,18.0793],[-65.7991,18.0777],[-65.7977,18.0798]]],[[[-67.2018,18.0808],[-67.1998,18.0804],[-67.2001,18.0792],[-67.2018,18.0808]]],[[[-67.2005,18.0819],[-67.2013,18.0817],[-67.2012,18.0823],[-67.2005,18.0819]]],[[[-67.1994,18.0849],[-67.1997,18.0848],[-67.1997,18.0851],[-67.1994,18.0849]]],[[[-67.1991,18.0859],[-67.1996,18.0859],[-67.199,18.0863],[-67.1991,18.0859]]],[[[-65.4719,18.0868],[-65.474,18.0878],[-65.4723,18.0904],[-65.4714,18.0879],[-65.4719,18.0868]]],[[[-65.4659,18.0877],[-65.4688,18.0892],[-65.4678,18.0919],[-65.4653,18.0896],[-65.4659,18.0877]]],[[[-65.3782,18.1071],[-65.3787,18.1072],[-65.3783,18.1078],[-65.3782,18.1071]]],[[[-65.3847,18.1094],[-65.3828,18.1056],[-65.3839,18.1052],[-65.3847,18.1094]]],[[[-65.4245,18.1091],[-65.4253,18.1101],[-65.425,18.1105],[-65.4243,18.1102],[-65.4245,18.1091]]],[[[-65.4289,18.1102],[-65.4293,18.1111],[-65.4291,18.1118],[-65.4284,18.1112],[-65.4289,18.1102]]],[[[-65.427,18.1118],[-65.4275,18.1102],[-65.4282,18.1109],[-65.427,18.1118]]],[[[-65.3394,18.1136],[-65.3386,18.1126],[-65.3397,18.1129],[-65.3394,18.1136]]],[[[-65.3539,18.1155],[-65.3541,18.1152],[-65.3545,18.1157],[-65.3539,18.1155]]],[[[-65.7712,18.1158],[-65.7707,18.1152],[-65.7711,18.1151],[-65.7712,18.1158]]],[[[-65.3582,18.1187],[-65.3586,18.1181],[-65.3585,18.1188],[-65.3582,18.1187]]],[[[-67.8618,18.1221],[-67.8557,18.1147],[-67.8487,18.1104],[-67.8432,18.0949],[-67.8435,18.0854],[-67.8453,18.0819],[-67.8529,18.0793],[-67.8558,18.0735],[-67.8605,18.0712],[-67.8715,18.0578],[-67.8776,18.0564],[-67.8816,18.054],[-67.8959,18.0523],[-67.9044,18.0591],[-67.9223,18.0645],[-67.9305,18.0707],[-67.9362,18.0782],[-67.9403,18.0797],[-67.9435,18.0789],[-67.946,18.0816],[-67.9458,18.0833],[-67.9405,18.089],[-67.9387,18.0928],[-67.9374,18.1005],[-67.9351,18.1039],[-67.9358,18.1087],[-67.9323,18.1132],[-67.9102,18.1197],[-67.9065,18.119],[-67.9013,18.1155],[-67.8871,18.1126],[-67.876,18.1143],[-67.8698,18.1188],[-67.8618,18.1221]]],[[[-65.3076,18.1228],[-65.307,18.1219],[-65.3078,18.121],[-65.3082,18.122],[-65.3076,18.1228]]],[[[-65.3014,18.1228],[-65.3001,18.123],[-65.3014,18.1226],[-65.3014,18.1228]]],[[[-65.3497,18.1249],[-65.3503,18.1245],[-65.3503,18.1248],[-65.3497,18.1249]]],[[[-65.308,18.1485],[-65.3085,18.1476],[-65.3088,18.1484],[-65.308,18.1485]]],[[[-67.9525,18.1577],[-67.9499,18.157],[-67.9495,18.1545],[-67.9541,18.1546],[-67.9525,18.1577]]],[[[-65.73,18.1585],[-65.7307,18.1573],[-65.7329,18.158],[-65.7325,18.1541],[-65.7337,18.1535],[-65.7349,18.1588],[-65.73,18.1585]]],[[[-65.4046,18.1605],[-65.3929,18.1619],[-65.3888,18.1599],[-65.3866,18.1608],[-65.3822,18.1595],[-65.3811,18.1602],[-65.3789,18.158],[-65.3736,18.1572],[-65.3661,18.1581],[-65.3605,18.1532],[-65.3566,18.1544],[-65.3561,18.1559],[-65.3487,18.1513],[-65.3444,18.1511],[-65.3439,18.1499],[-65.3402,18.149],[-65.3352,18.1492],[-65.3345,18.1479],[-65.3322,18.1479],[-65.3305,18.1464],[-65.3289,18.1471],[-65.3291,18.1486],[-65.3244,18.1494],[-65.3221,18.147],[-65.3154,18.1447],[-65.3105,18.1441],[-65.3078,18.1452],[-65.306,18.1425],[-65.3032,18.1411],[-65.3009,18.1419],[-65.3012,18.1439],[-65.2953,18.1426],[-65.2941,18.1452],[-65.2912,18.1458],[-65.2881,18.1483],[-65.2884,18.1469],[-65.2867,18.1463],[-65.2864,18.1446],[-65.2846,18.144],[-65.283,18.1451],[-65.2797,18.1392],[-65.2771,18.1388],[-65.2775,18.1366],[-65.2752,18.1344],[-65.2684,18.1359],[-65.2673,18.1344],[-65.271,18.133],[-65.2727,18.1299],[-65.276,18.1319],[-65.2828,18.1331],[-65.2865,18.131],[-65.2925,18.1301],[-65.2952,18.1273],[-65.2961,18.1281],[-65.2954,18.1294],[-65.2993,18.1351],[-65.3022,18.1342],[-65.304,18.1358],[-65.305,18.1347],[-65.3066,18.1355],[-65.3104,18.1315],[-65.3094,18.1287],[-65.3075,18.1292],[-65.3067,18.1282],[-65.3085,18.1262],[-65.3095,18.1269],[-65.3152,18.1256],[-65.3164,18.1236],[-65.319,18.1266],[-65.3228,18.1266],[-65.3274,18.1238],[-65.3277,18.1208],[-65.33,18.1224],[-65.3307,18.1254],[-65.3335,18.1257],[-65.3348,18.1242],[-65.3336,18.122],[-65.3356,18.1201],[-65.3335,18.1174],[-65.3381,18.1203],[-65.3387,18.1189],[-65.3366,18.1149],[-65.3391,18.1137],[-65.3391,18.1154],[-65.3409,18.1161],[-65.3421,18.1112],[-65.3459,18.1126],[-65.3465,18.1106],[-65.3497,18.1127],[-65.3515,18.1117],[-65.353,18.1139],[-65.3517,18.1131],[-65.3509,18.1144],[-65.3457,18.1162],[-65.3426,18.1153],[-65.3434,18.117],[-65.3399,18.1191],[-65.3416,18.1211],[-65.345,18.121],[-65.3429,18.1238],[-65.3465,18.1213],[-65.3464,18.1243],[-65.3487,18.1218],[-65.3506,18.1227],[-65.3494,18.1247],[-65.3492,18.1262],[-65.3531,18.1244],[-65.3534,18.1258],[-65.3547,18.1247],[-65.3564,18.1268],[-65.3583,18.1259],[-65.3621,18.1306],[-65.365,18.1287],[-65.3639,18.1258],[-65.3663,18.1249],[-65.3647,18.1204],[-65.3678,18.1246],[-65.3751,18.1234],[-65.3748,18.1199],[-65.3724,18.1169],[-65.3733,18.1161],[-65.3737,18.1174],[-65.3758,18.1174],[-65.3761,18.1149],[-65.3773,18.1144],[-65.3766,18.1129],[-65.3776,18.1112],[-65.3746,18.1078],[-65.3752,18.1067],[-65.3781,18.1082],[-65.378,18.1103],[-65.3819,18.1125],[-65.391,18.112],[-65.3931,18.1093],[-65.3928,18.1073],[-65.3973,18.1109],[-65.3999,18.1084],[-65.4001,18.1106],[-65.4014,18.1112],[-65.4032,18.1086],[-65.4055,18.1084],[-65.4059,18.1132],[-65.4089,18.1136],[-65.4109,18.1114],[-65.4077,18.1074],[-65.412,18.1059],[-65.4123,18.1079],[-65.4149,18.1085],[-65.4152,18.1073],[-65.4182,18.1065],[-65.4185,18.1046],[-65.4169,18.1026],[-65.419,18.1013],[-65.4215,18.102],[-65.4253,18.1075],[-65.4235,18.1063],[-65.4237,18.1115],[-65.4263,18.1122],[-65.4299,18.112],[-65.4304,18.1097],[-65.4313,18.1101],[-65.4319,18.1088],[-65.4327,18.1095],[-65.4362,18.1064],[-65.4307,18.1048],[-65.4308,18.1033],[-65.4265,18.1033],[-65.4255,18.1012],[-65.4222,18.0998],[-65.4238,18.0978],[-65.4232,18.0957],[-65.4263,18.0937],[-65.4274,18.0946],[-65.4297,18.093],[-65.4311,18.094],[-65.4316,18.0926],[-65.4377,18.0913],[-65.4386,18.093],[-65.4414,18.093],[-65.4449,18.0913],[-65.4452,18.0886],[-65.4471,18.0889],[-65.4484,18.0872],[-65.4489,18.0906],[-65.4512,18.0905],[-65.4506,18.0862],[-65.4568,18.0877],[-65.454,18.0931],[-65.4577,18.096],[-65.4648,18.0961],[-65.4671,18.0947],[-65.4682,18.0922],[-65.4798,18.0963],[-65.4892,18.094],[-65.4925,18.0953],[-65.5073,18.0916],[-65.5124,18.089],[-65.513,18.0906],[-65.51,18.0916],[-65.5144,18.0917],[-65.5189,18.0904],[-65.5204,18.0875],[-65.5137,18.0906],[-65.5127,18.089],[-65.5242,18.0817],[-65.5304,18.0817],[-65.5329,18.0798],[-65.5375,18.0819],[-65.5417,18.0809],[-65.5504,18.0843],[-65.5586,18.0857],[-65.5606,18.0879],[-65.5655,18.0891],[-65.566,18.0905],[-65.5694,18.0918],[-65.5709,18.0983],[-65.5778,18.1022],[-65.573,18.1038],[-65.5739,18.1063],[-65.575,18.1041],[-65.5769,18.1034],[-65.5751,18.1105],[-65.5754,18.112],[-65.577,18.1119],[-65.5754,18.1122],[-65.5756,18.1157],[-65.5776,18.1194],[-65.571,18.1185],[-65.5667,18.12],[-65.5462,18.1193],[-65.5243,18.1271],[-65.5164,18.1283],[-65.5117,18.1322],[-65.5131,18.1473],[-65.5144,18.148],[-65.5132,18.1481],[-65.5134,18.1508],[-65.5113,18.1335],[-65.5075,18.1331],[-65.504,18.134],[-65.5032,18.1362],[-65.4943,18.135],[-65.4864,18.1367],[-65.4832,18.1391],[-65.4762,18.1409],[-65.4731,18.1429],[-65.464,18.1436],[-65.4634,18.1447],[-65.4622,18.144],[-65.4587,18.1456],[-65.4484,18.1459],[-65.4446,18.1479],[-65.443,18.1506],[-65.4437,18.1549],[-65.4371,18.1577],[-65.4219,18.1584],[-65.4096,18.1605],[-65.4087,18.1597],[-65.4059,18.1612],[-65.4046,18.1605]]],[[[-65.487,18.1719],[-65.4856,18.1707],[-65.4888,18.1723],[-65.487,18.1719]]],[[[-65.4944,18.1708],[-65.4963,18.1721],[-65.4982,18.1724],[-65.4959,18.1722],[-65.4944,18.1708]]],[[[-65.6043,18.2139],[-65.599,18.2131],[-65.5991,18.211],[-65.602,18.2117],[-65.6042,18.2107],[-65.6051,18.2118],[-65.6043,18.2139]]],[[[-65.6023,18.221],[-65.6012,18.2208],[-65.6011,18.2205],[-65.6023,18.221]]],[[[-65.6369,18.2261],[-65.6374,18.2262],[-65.6371,18.2264],[-65.6369,18.2261]]],[[[-65.6163,18.246],[-65.6174,18.2452],[-65.6166,18.2463],[-65.6163,18.246]]],[[[-65.6213,18.2501],[-65.6186,18.2497],[-65.6189,18.2491],[-65.6187,18.2474],[-65.6201,18.2465],[-65.6216,18.2477],[-65.6213,18.2501]]],[[[-65.5767,18.2501],[-65.5756,18.2493],[-65.5776,18.2464],[-65.5803,18.2474],[-65.5767,18.2501]]],[[[-65.5857,18.2539],[-65.5826,18.2468],[-65.5845,18.2478],[-65.5881,18.247],[-65.5919,18.2493],[-65.595,18.2487],[-65.5966,18.2498],[-65.5976,18.2494],[-65.5959,18.2478],[-65.5982,18.2476],[-65.5994,18.2489],[-65.5989,18.2512],[-65.6004,18.2553],[-65.5925,18.2559],[-65.5885,18.2538],[-65.5854,18.2571],[-65.5857,18.2539]]],[[[-65.6049,18.2608],[-65.607,18.2572],[-65.6106,18.2558],[-65.61,18.2519],[-65.6121,18.2494],[-65.6148,18.2485],[-65.6141,18.2471],[-65.6182,18.2469],[-65.6181,18.2509],[-65.6142,18.2533],[-65.6119,18.253],[-65.614,18.2535],[-65.6172,18.2522],[-65.6174,18.2532],[-65.6119,18.257],[-65.6109,18.2605],[-65.6069,18.2618],[-65.6049,18.2608]]],[[[-65.2493,18.2978],[-65.2496,18.2964],[-65.2515,18.2978],[-65.2493,18.2978]]],[[[-65.2524,18.2999],[-65.2525,18.2993],[-65.2526,18.2999],[-65.2524,18.2999]]],[[[-65.2997,18.3022],[-65.2908,18.3009],[-65.2864,18.2979],[-65.2879,18.2957],[-65.2873,18.2934],[-65.2894,18.2915],[-65.2824,18.2939],[-65.2828,18.2916],[-65.2807,18.2885],[-65.2838,18.2867],[-65.2814,18.2838],[-65.2856,18.2838],[-65.2858,18.2821],[-65.2832,18.2801],[-65.286,18.2772],[-65.2874,18.278],[-65.2867,18.2817],[-65.2896,18.2828],[-65.2944,18.2912],[-65.2983,18.2944],[-65.3011,18.2942],[-65.3004,18.2975],[-65.3032,18.2982],[-65.2997,18.3022]]],[[[-65.2782,18.3051],[-65.2782,18.3061],[-65.2773,18.3061],[-65.2773,18.3059],[-65.2782,18.3051]]],[[[-65.2788,18.3055],[-65.279,18.3065],[-65.2782,18.3067],[-65.2782,18.3065],[-65.2788,18.3055]]],[[[-65.3466,18.3119],[-65.3477,18.3112],[-65.3475,18.3119],[-65.3466,18.3119]]],[[[-65.3527,18.3143],[-65.3535,18.3141],[-65.3529,18.3147],[-65.3527,18.3143]]],[[[-65.6084,18.3121],[-65.6112,18.3124],[-65.6097,18.315],[-65.6084,18.3121]]],[[[-65.33,18.316],[-65.3291,18.3151],[-65.3303,18.3113],[-65.3278,18.309],[-65.3284,18.3016],[-65.3302,18.2996],[-65.3279,18.2973],[-65.3286,18.2951],[-65.3316,18.2963],[-65.3312,18.2996],[-65.3337,18.302],[-65.338,18.3018],[-65.3369,18.3067],[-65.34,18.31],[-65.3367,18.3095],[-65.3358,18.3108],[-65.3325,18.3114],[-65.33,18.316]]],[[[-65.3681,18.318],[-65.3684,18.3178],[-65.3682,18.3181],[-65.3681,18.318]]],[[[-65.353,18.3191],[-65.354,18.3187],[-65.3537,18.3198],[-65.353,18.3191]]],[[[-65.619,18.3224],[-65.6193,18.3222],[-65.6194,18.3228],[-65.619,18.3224]]],[[[-65.2274,18.3229],[-65.2253,18.3233],[-65.2216,18.321],[-65.2228,18.3185],[-65.2255,18.3179],[-65.2261,18.3165],[-65.225,18.3137],[-65.2237,18.3138],[-65.2241,18.3119],[-65.2211,18.3123],[-65.2229,18.3105],[-65.2297,18.3109],[-65.2314,18.3153],[-65.238,18.3193],[-65.2377,18.3212],[-65.2359,18.3216],[-65.228,18.3177],[-65.2261,18.3198],[-65.2285,18.323],[-65.2275,18.3239],[-65.2274,18.3229]]],[[[-65.2414,18.325],[-65.24,18.3253],[-65.24,18.3247],[-65.2414,18.325]]],[[[-65.381,18.3261],[-65.3755,18.3257],[-65.3761,18.3229],[-65.3746,18.3213],[-65.3783,18.3226],[-65.381,18.3261]]],[[[-65.392,18.3323],[-65.3923,18.3321],[-65.3923,18.3324],[-65.392,18.3323]]],[[[-65.3921,18.3349],[-65.3912,18.3338],[-65.3925,18.3325],[-65.3933,18.3338],[-65.3921,18.3349]]],[[[-65.3926,18.3362],[-65.3928,18.3358],[-65.3931,18.3362],[-65.3926,18.3362]]],[[[-65.2894,18.3363],[-65.2904,18.3361],[-65.2899,18.3375],[-65.2894,18.3363]]],[[[-65.2447,18.3377],[-65.2458,18.3378],[-65.2451,18.3385],[-65.2447,18.3377]]],[[[-65.5668,18.3388],[-65.5677,18.3386],[-65.567,18.3392],[-65.5668,18.3388]]],[[[-65.6173,18.3394],[-65.6165,18.3376],[-65.6189,18.3352],[-65.6185,18.3384],[-65.6173,18.3394]]],[[[-65.2332,18.3404],[-65.2297,18.3381],[-65.2294,18.3373],[-65.2332,18.3388],[-65.2332,18.3404]]],[[[-65.6215,18.3416],[-65.619,18.3407],[-65.6188,18.3395],[-65.6214,18.3399],[-65.6215,18.3416]]],[[[-65.2588,18.3421],[-65.2526,18.3405],[-65.251,18.3375],[-65.2464,18.336],[-65.2459,18.3343],[-65.2472,18.3333],[-65.2499,18.3346],[-65.2569,18.3333],[-65.2601,18.3345],[-65.2663,18.3406],[-65.2659,18.3419],[-65.2628,18.341],[-65.2588,18.3421]]],[[[-65.2373,18.3449],[-65.238,18.3452],[-65.2377,18.3455],[-65.2373,18.3449]]],[[[-65.2365,18.3477],[-65.2367,18.3475],[-65.2369,18.3478],[-65.2365,18.3477]]],[[[-65.3461,18.3497],[-65.3448,18.3487],[-65.3452,18.3484],[-65.3461,18.3497]]],[[[-65.3381,18.3502],[-65.3366,18.3462],[-65.3351,18.3453],[-65.3353,18.3432],[-65.3318,18.3388],[-65.3252,18.3372],[-65.3185,18.3283],[-65.3151,18.3281],[-65.3131,18.3294],[-65.3124,18.334],[-65.3098,18.338],[-65.3048,18.3319],[-65.2992,18.3308],[-65.2986,18.3299],[-65.2972,18.3292],[-65.2985,18.3304],[-65.295,18.3306],[-65.2926,18.335],[-65.2911,18.3356],[-65.2902,18.3325],[-65.2862,18.3302],[-65.2817,18.3294],[-65.2785,18.3307],[-65.2773,18.3326],[-65.267,18.3277],[-65.2573,18.3208],[-65.2529,18.3184],[-65.2519,18.319],[-65.2504,18.3158],[-65.2455,18.311],[-65.2441,18.3036],[-65.2466,18.3034],[-65.2528,18.3066],[-65.2555,18.3064],[-65.257,18.3091],[-65.2597,18.3077],[-65.2578,18.3049],[-65.2586,18.3027],[-65.2565,18.3033],[-65.2549,18.3007],[-65.2555,18.2988],[-65.2574,18.3004],[-65.2577,18.2973],[-65.2548,18.2935],[-65.2584,18.2934],[-65.2616,18.2893],[-65.2639,18.2902],[-65.2629,18.292],[-65.2635,18.2957],[-65.2649,18.2969],[-65.2689,18.2974],[-65.2743,18.2952],[-65.2776,18.2979],[-65.2762,18.3029],[-65.2794,18.3004],[-65.2803,18.3009],[-65.2794,18.3029],[-65.2817,18.303],[-65.2775,18.3047],[-65.2778,18.3054],[-65.2752,18.3051],[-65.2782,18.3069],[-65.28,18.307],[-65.2803,18.3076],[-65.2802,18.3063],[-65.2846,18.3063],[-65.285,18.3091],[-65.2855,18.307],[-65.2872,18.3068],[-65.2917,18.3117],[-65.2924,18.3099],[-65.2911,18.3078],[-65.3025,18.3105],[-65.3022,18.3054],[-65.2995,18.3034],[-65.3016,18.3012],[-65.3042,18.3027],[-65.3074,18.3017],[-65.3088,18.303],[-65.3112,18.3009],[-65.3104,18.3035],[-65.3127,18.3076],[-65.3164,18.3094],[-65.3175,18.318],[-65.321,18.3196],[-65.3226,18.3187],[-65.3228,18.3212],[-65.3273,18.3237],[-65.3308,18.3219],[-65.3295,18.3261],[-65.3344,18.3339],[-65.3354,18.338],[-65.3382,18.3401],[-65.3402,18.3452],[-65.3446,18.3487],[-65.3436,18.3493],[-65.3413,18.3472],[-65.3381,18.3502]]],[[[-65.3431,18.3513],[-65.3441,18.3508],[-65.344,18.351],[-65.3431,18.3513]]],[[[-65.3421,18.3516],[-65.3426,18.3507],[-65.3424,18.3517],[-65.3421,18.3516]]],[[[-65.5687,18.3523],[-65.5645,18.3477],[-65.5679,18.3433],[-65.5718,18.3512],[-65.5745,18.3519],[-65.5687,18.3523]]],[[[-65.3624,18.3577],[-65.3621,18.358],[-65.362,18.3578],[-65.3624,18.3577]]],[[[-65.347,18.358],[-65.3473,18.3579],[-65.3475,18.3582],[-65.347,18.358]]],[[[-65.3614,18.3585],[-65.3616,18.3581],[-65.3617,18.3584],[-65.3614,18.3585]]],[[[-65.3698,18.3621],[-65.3679,18.3608],[-65.3699,18.3605],[-65.3698,18.3621]]],[[[-65.5274,18.3636],[-65.529,18.3621],[-65.5322,18.3616],[-65.5317,18.363],[-65.5293,18.3624],[-65.5274,18.3636]]],[[[-65.5513,18.3736],[-65.5522,18.3732],[-65.5516,18.3739],[-65.5513,18.3736]]],[[[-65.5609,18.3755],[-65.5617,18.3748],[-65.5618,18.3748],[-65.5609,18.3755]]],[[[-65.5652,18.3778],[-65.5662,18.3771],[-65.5664,18.3772],[-65.5652,18.3778]]],[[[-65.5639,18.3781],[-65.5643,18.3777],[-65.5645,18.3778],[-65.5639,18.3781]]],[[[-65.5703,18.379],[-65.5679,18.3789],[-65.5692,18.3778],[-65.5663,18.3784],[-65.5715,18.3763],[-65.5703,18.379]]],[[[-65.7562,18.3807],[-65.7544,18.3805],[-65.7563,18.38],[-65.7562,18.3807]]],[[[-65.5685,18.3812],[-65.5696,18.3811],[-65.5696,18.3815],[-65.569,18.382],[-65.5685,18.3812]]],[[[-65.5701,18.3821],[-65.5725,18.3815],[-65.57,18.3826],[-65.5701,18.3821]]],[[[-65.5783,18.3824],[-65.5797,18.3809],[-65.5817,18.382],[-65.5791,18.383],[-65.5783,18.3824]]],[[[-65.577,18.3842],[-65.5776,18.384],[-65.5771,18.3846],[-65.577,18.3842]]],[[[-65.5802,18.3848],[-65.5805,18.3847],[-65.5802,18.3852],[-65.5802,18.3848]]],[[[-65.5808,18.3857],[-65.5809,18.3851],[-65.5811,18.3852],[-65.5808,18.3857]]],[[[-65.5821,18.3861],[-65.5822,18.3856],[-65.5827,18.3858],[-65.5821,18.3861]]],[[[-65.5936,18.3912],[-65.5893,18.3905],[-65.5825,18.3865],[-65.5845,18.3851],[-65.5836,18.3837],[-65.5873,18.382],[-65.5921,18.3847],[-65.5916,18.387],[-65.5936,18.3912]]],[[[-67.4801,18.3917],[-67.4724,18.3828],[-67.478,18.3789],[-67.4855,18.3822],[-67.4907,18.3869],[-67.4864,18.3876],[-67.4838,18.3907],[-67.4801,18.3917]]],[[[-65.5985,18.3965],[-65.5989,18.3963],[-65.5985,18.3968],[-65.5985,18.3965]]],[[[-65.5982,18.3984],[-65.598,18.3976],[-65.5988,18.3977],[-65.5982,18.3984]]],[[[-65.6119,18.4011],[-65.6118,18.4003],[-65.6123,18.4008],[-65.6119,18.4011]]],[[[-65.6116,18.4018],[-65.6121,18.4017],[-65.6121,18.4022],[-65.6116,18.4018]]],[[[-65.9616,18.4142],[-65.9618,18.4137],[-65.9618,18.4147],[-65.9616,18.4142]]],[[[-66.0092,18.4243],[-66.0139,18.4251],[-66.0133,18.4269],[-66.0015,18.4265],[-66.0092,18.4243]]],[[[-66.0355,18.4304],[-66.0339,18.4303],[-66.0356,18.4295],[-66.0355,18.4304]]],[[[-66.0637,18.435],[-66.0626,18.4339],[-66.0645,18.4348],[-66.0637,18.435]]],[[[-66.0741,18.4383],[-66.0766,18.4388],[-66.0762,18.4397],[-66.0741,18.4383]]],[[[-65.9765,18.4461],[-65.9733,18.4463],[-65.9723,18.4419],[-65.9737,18.4411],[-65.9751,18.4427],[-65.978,18.4432],[-65.9787,18.4456],[-65.9769,18.4476],[-65.9765,18.4461]]],[[[-66.0166,18.4483],[-66.0168,18.4477],[-66.017,18.4484],[-66.0166,18.4483]]],[[[-65.9802,18.4495],[-65.9802,18.4464],[-65.9828,18.4453],[-65.983,18.4487],[-65.9802,18.4495]]],[[[-65.9892,18.4547],[-65.9864,18.4534],[-65.9882,18.4525],[-65.9892,18.4547]]],[[[-66.0827,18.4619],[-66.0733,18.4577],[-66.0661,18.4575],[-66.0604,18.4546],[-66.0545,18.4546],[-66.0473,18.4528],[-66.0389,18.4545],[-66.0367,18.4501],[-66.0338,18.4477],[-66.0232,18.4439],[-66.0194,18.4445],[-66.0161,18.4468],[-66.0105,18.4438],[-66.0031,18.4459],[-65.9962,18.4509],[-65.9934,18.4576],[-65.9929,18.4552],[-65.9916,18.4564],[-65.9915,18.4543],[-65.9901,18.4557],[-65.9893,18.455],[-65.9889,18.4532],[-65.9898,18.453],[-65.9876,18.4487],[-65.9939,18.445],[-65.9894,18.4465],[-65.9872,18.4437],[-65.987,18.4377],[-65.9817,18.4384],[-65.9863,18.4315],[-65.9875,18.435],[-65.9905,18.4348],[-65.9874,18.4346],[-65.9873,18.4326],[-65.9996,18.4326],[-65.9872,18.4322],[-65.9863,18.4313],[-65.9902,18.4274],[-65.9944,18.4271],[-65.9957,18.4284],[-66.0014,18.4266],[-66.0132,18.4272],[-66.0145,18.4323],[-66.0135,18.4322],[-66.0113,18.4321],[-66.0074,18.4325],[-66.0145,18.4324],[-66.015,18.435],[-66.0103,18.4351],[-66.0153,18.4357],[-66.0153,18.4365],[-66.0119,18.4375],[-66.011,18.4383],[-66.0156,18.4369],[-66.0157,18.4398],[-66.0121,18.4414],[-66.0157,18.4399],[-66.0162,18.439],[-66.0137,18.4274],[-66.0143,18.4258],[-66.0192,18.4293],[-66.0218,18.433],[-66.0286,18.4348],[-66.0352,18.4451],[-66.0386,18.444],[-66.0416,18.4457],[-66.0444,18.4432],[-66.0431,18.4398],[-66.0399,18.4366],[-66.0345,18.4366],[-66.0337,18.4337],[-66.0389,18.4285],[-66.0433,18.4293],[-66.0462,18.4288],[-66.0521,18.4326],[-66.0534,18.4326],[-66.0551,18.4311],[-66.0562,18.4333],[-66.0569,18.4338],[-66.061,18.4331],[-66.0633,18.4355],[-66.0699,18.4365],[-66.076,18.4407],[-66.0777,18.4388],[-66.0815,18.4389],[-66.0822,18.4447],[-66.088,18.4487],[-66.087,18.4502],[-66.0899,18.4469],[-66.0897,18.4488],[-66.0913,18.4466],[-66.0908,18.4477],[-66.0942,18.4472],[-66.0993,18.4515],[-66.1023,18.4513],[-66.1044,18.4537],[-66.1034,18.454],[-66.1051,18.454],[-66.1066,18.4559],[-66.105,18.4597],[-66.0877,18.4579],[-66.0862,18.4589],[-66.0772,18.4546],[-66.0752,18.4549],[-66.0766,18.4575],[-66.08,18.4598],[-66.0855,18.4594],[-66.0827,18.4619]]],[[[-66.0447,18.4649],[-66.0442,18.4647],[-66.0448,18.4642],[-66.0447,18.4649]]],[[[-66.0904,18.4695],[-66.0913,18.4693],[-66.0914,18.4699],[-66.0904,18.4695]]],[[[-66.1243,18.4716],[-66.1124,18.4685],[-66.1018,18.4676],[-66.0981,18.466],[-66.0874,18.4677],[-66.0857,18.4663],[-66.087,18.4662],[-66.0869,18.465],[-66.0849,18.4648],[-66.0838,18.4626],[-66.0856,18.4618],[-66.0859,18.4597],[-66.0877,18.4595],[-66.0946,18.4617],[-66.1029,18.4618],[-66.1025,18.4631],[-66.1046,18.4627],[-66.1042,18.4642],[-66.1062,18.4633],[-66.1061,18.4646],[-66.1069,18.4634],[-66.1137,18.4631],[-66.1137,18.4617],[-66.1141,18.4631],[-66.1151,18.4629],[-66.1164,18.4588],[-66.1196,18.4652],[-66.1242,18.4677],[-66.1254,18.471],[-66.1243,18.4716]]],[[[-66.4785,18.4727],[-66.4786,18.4723],[-66.4791,18.4726],[-66.4785,18.4727]]],[[[-66.5027,18.4763],[-66.5029,18.476],[-66.503,18.4762],[-66.5027,18.4763]]],[[[-66.5042,18.4766],[-66.5042,18.4763],[-66.5044,18.4764],[-66.5042,18.4766]]],[[[-66.1888,18.4768],[-66.1874,18.4758],[-66.1896,18.4757],[-66.1888,18.4768]]],[[[-66.507,18.4775],[-66.5071,18.4773],[-66.5071,18.4775],[-66.507,18.4775]]],[[[-66.5108,18.4778],[-66.5111,18.4771],[-66.5113,18.4772],[-66.5108,18.4778]]],[[[-66.5101,18.4783],[-66.5103,18.4778],[-66.5101,18.4784],[-66.5101,18.4783]]],[[[-66.5138,18.4802],[-66.5137,18.4799],[-66.5138,18.4799],[-66.5138,18.4802]]],[[[-66.5129,18.4802],[-66.5131,18.48],[-66.5132,18.4801],[-66.5129,18.4802]]],[[[-66.7037,18.4803],[-66.7039,18.4801],[-66.7039,18.4803],[-66.7037,18.4803]]],[[[-66.5144,18.4805],[-66.5142,18.4799],[-66.5146,18.4803],[-66.5144,18.4805]]],[[[-66.5149,18.4808],[-66.515,18.4804],[-66.5155,18.4809],[-66.5149,18.4808]]],[[[-66.5158,18.4813],[-66.5158,18.4808],[-66.516,18.4812],[-66.5158,18.4813]]],[[[-66.7032,18.4814],[-66.7032,18.4812],[-66.7034,18.4814],[-66.7032,18.4814]]],[[[-66.5165,18.4815],[-66.5164,18.4813],[-66.5165,18.4813],[-66.5165,18.4815]]],[[[-66.7029,18.4816],[-66.703,18.4814],[-66.7031,18.4815],[-66.7029,18.4816]]],[[[-66.702,18.4819],[-66.702,18.4817],[-66.7023,18.4818],[-66.702,18.4819]]],[[[-66.5203,18.4824],[-66.5205,18.4821],[-66.5208,18.4823],[-66.5203,18.4824]]],[[[-66.6965,18.4826],[-66.6965,18.4823],[-66.6966,18.4824],[-66.6965,18.4826]]],[[[-66.5197,18.4826],[-66.52,18.4825],[-66.52,18.4826],[-66.5197,18.4826]]],[[[-66.6942,18.4831],[-66.6943,18.4829],[-66.6944,18.4831],[-66.6942,18.4831]]],[[[-66.5215,18.4827],[-66.5225,18.4827],[-66.5227,18.4833],[-66.5215,18.4827]]],[[[-66.6957,18.4833],[-66.6957,18.483],[-66.6959,18.4832],[-66.6957,18.4833]]],[[[-66.5233,18.4833],[-66.5233,18.4832],[-66.5234,18.4833],[-66.5233,18.4833]]],[[[-66.5227,18.4835],[-66.5228,18.4833],[-66.5228,18.4835],[-66.5227,18.4835]]],[[[-66.5276,18.4851],[-66.5277,18.4849],[-66.5277,18.4851],[-66.5276,18.4851]]],[[[-66.5785,18.4854],[-66.5787,18.4854],[-66.5787,18.4856],[-66.5785,18.4854]]],[[[-66.5286,18.4857],[-66.5284,18.485],[-66.5293,18.4854],[-66.5286,18.4857]]],[[[-66.5437,18.4861],[-66.5436,18.4859],[-66.5438,18.486],[-66.5437,18.4861]]],[[[-66.5483,18.4873],[-66.5483,18.4872],[-66.5483,18.4873],[-66.5483,18.4873]]],[[[-66.5472,18.4874],[-66.5474,18.4872],[-66.5474,18.4875],[-66.5472,18.4874]]],[[[-66.546,18.4873],[-66.5463,18.4872],[-66.5463,18.4876],[-66.546,18.4873]]],[[[-66.5465,18.4876],[-66.5465,18.4871],[-66.5469,18.4873],[-66.5465,18.4876]]],[[[-66.5469,18.4877],[-66.547,18.4874],[-66.547,18.4875],[-66.5469,18.4877]]],[[[-66.5481,18.4879],[-66.5483,18.4876],[-66.5485,18.4877],[-66.5481,18.4879]]],[[[-66.5492,18.488],[-66.5492,18.4879],[-66.5493,18.4879],[-66.5492,18.488]]],[[[-66.5504,18.4883],[-66.5503,18.4882],[-66.5504,18.4882],[-66.5504,18.4883]]],[[[-66.5486,18.4883],[-66.5487,18.4878],[-66.5489,18.488],[-66.5486,18.4883]]],[[[-66.5505,18.4887],[-66.5505,18.4887],[-66.5506,18.4887],[-66.5505,18.4887]]],[[[-66.5512,18.4888],[-66.5511,18.4887],[-66.5512,18.4887],[-66.5512,18.4888]]],[[[-66.557,18.4901],[-66.5571,18.49],[-66.5571,18.4901],[-66.557,18.4901]]],[[[-66.5577,18.4902],[-66.5573,18.4896],[-66.5579,18.4897],[-66.5577,18.4902]]],[[[-66.573,18.4907],[-66.5732,18.4906],[-66.5731,18.4908],[-66.573,18.4907]]],[[[-66.5633,18.4909],[-66.5636,18.4909],[-66.5635,18.491],[-66.5633,18.4909]]],[[[-66.3795,18.4906],[-66.377,18.4912],[-66.3768,18.4902],[-66.3795,18.4906]]],[[[-66.5746,18.4915],[-66.5752,18.4914],[-66.5751,18.4917],[-66.5746,18.4915]]],[[[-66.8565,18.4925],[-66.8568,18.4923],[-66.8569,18.4924],[-66.8565,18.4925]]],[[[-66.859,18.4926],[-66.8589,18.4923],[-66.859,18.4924],[-66.859,18.4926]]],[[[-66.8535,18.4926],[-66.8534,18.4924],[-66.8536,18.4925],[-66.8535,18.4926]]],[[[-66.8554,18.4926],[-66.8546,18.4919],[-66.8555,18.4925],[-66.8554,18.4926]]],[[[-66.8692,18.4929],[-66.8689,18.4922],[-66.8703,18.4927],[-66.8692,18.4929]]],[[[-66.3961,18.493],[-66.396,18.4928],[-66.3962,18.4928],[-66.3961,18.493]]],[[[-66.604,18.4932],[-66.604,18.493],[-66.6041,18.493],[-66.604,18.4932]]],[[[-66.6035,18.4933],[-66.6033,18.493],[-66.6037,18.4931],[-66.6035,18.4933]]],[[[-66.4035,18.4935],[-66.4038,18.4932],[-66.4039,18.4934],[-66.4035,18.4935]]],[[[-66.4126,18.4936],[-66.4126,18.4934],[-66.4127,18.4935],[-66.4126,18.4936]]],[[[-66.4021,18.4937],[-66.4025,18.4932],[-66.4028,18.4932],[-66.4021,18.4937]]],[[[-66.6064,18.4937],[-66.6066,18.4935],[-66.6066,18.4936],[-66.6064,18.4937]]],[[[-66.4101,18.4936],[-66.4103,18.4934],[-66.4106,18.4935],[-66.4101,18.4936]]],[[[-66.4055,18.4937],[-66.4057,18.4934],[-66.406,18.4935],[-66.4055,18.4937]]],[[[-66.4142,18.4937],[-66.4142,18.4935],[-66.4145,18.4935],[-66.4142,18.4937]]],[[[-66.7979,18.4938],[-66.7983,18.4935],[-66.7984,18.4937],[-66.7979,18.4938]]],[[[-66.605,18.4939],[-66.6051,18.4936],[-66.6056,18.4938],[-66.605,18.4939]]],[[[-66.3953,18.4935],[-66.3924,18.4937],[-66.3921,18.4932],[-66.3953,18.4935]]],[[[-66.4052,18.4941],[-66.4051,18.4939],[-66.4054,18.494],[-66.4052,18.4941]]],[[[-66.4071,18.4943],[-66.4071,18.494],[-66.4073,18.4941],[-66.4071,18.4943]]],[[[-66.7962,18.4943],[-66.7964,18.4939],[-66.7965,18.4943],[-66.7962,18.4943]]],[[[-66.4118,18.4945],[-66.4118,18.4943],[-66.4119,18.4943],[-66.4118,18.4945]]],[[[-66.6219,18.4945],[-66.6223,18.4944],[-66.6222,18.4947],[-66.6219,18.4945]]],[[[-66.5508,18.4877],[-66.5453,18.4851],[-66.5353,18.4813],[-66.5258,18.4839],[-66.527,18.4851],[-66.5233,18.484],[-66.5235,18.4824],[-66.52,18.4807],[-66.5187,18.4814],[-66.5191,18.4824],[-66.517,18.4818],[-66.517,18.48],[-66.5119,18.477],[-66.5091,18.4768],[-66.5094,18.4765],[-66.5094,18.4752],[-66.5075,18.4741],[-66.5088,18.4718],[-66.5085,18.4677],[-66.5122,18.4674],[-66.5107,18.467],[-66.5112,18.4666],[-66.511,18.4646],[-66.511,18.4667],[-66.5085,18.4676],[-66.5081,18.4681],[-66.5087,18.4718],[-66.507,18.4731],[-66.5075,18.4742],[-66.5094,18.4754],[-66.509,18.4768],[-66.5101,18.4775],[-66.5092,18.4787],[-66.5069,18.4767],[-66.506,18.4773],[-66.5058,18.4762],[-66.5021,18.4751],[-66.5,18.4757],[-66.4999,18.4772],[-66.4976,18.477],[-66.4855,18.474],[-66.4854,18.4727],[-66.4849,18.4738],[-66.4826,18.4736],[-66.4835,18.473],[-66.4823,18.4713],[-66.4759,18.4699],[-66.4561,18.4689],[-66.4492,18.471],[-66.4443,18.4769],[-66.4424,18.4771],[-66.44,18.4855],[-66.4248,18.4886],[-66.4171,18.4881],[-66.4132,18.4898],[-66.4021,18.489],[-66.3983,18.4925],[-66.4006,18.4942],[-66.3956,18.4937],[-66.3979,18.4933],[-66.3943,18.4897],[-66.3871,18.4874],[-66.3811,18.4838],[-66.3784,18.4847],[-66.3782,18.4895],[-66.3766,18.4878],[-66.3728,18.4877],[-66.3645,18.4848],[-66.3599,18.4863],[-66.3555,18.4859],[-66.3428,18.481],[-66.339,18.4825],[-66.3387,18.485],[-66.3367,18.4855],[-66.3371,18.4846],[-66.3356,18.4852],[-66.3325,18.4825],[-66.3273,18.4817],[-66.3252,18.4799],[-66.3252,18.4781],[-66.3211,18.4795],[-66.3212,18.4767],[-66.3162,18.4764],[-66.3155,18.4747],[-66.3122,18.4751],[-66.3102,18.4769],[-66.3025,18.4753],[-66.2986,18.478],[-66.2927,18.4728],[-66.2887,18.4717],[-66.2838,18.4721],[-66.2802,18.4755],[-66.2773,18.4763],[-66.2766,18.4781],[-66.2735,18.4795],[-66.271,18.479],[-66.2698,18.4803],[-66.2576,18.4766],[-66.2544,18.4772],[-66.2556,18.4755],[-66.2549,18.4731],[-66.2568,18.4704],[-66.2535,18.4728],[-66.2546,18.4749],[-66.2515,18.4725],[-66.2482,18.4723],[-66.2418,18.4687],[-66.2208,18.4661],[-66.2025,18.4663],[-66.1983,18.4684],[-66.1988,18.4678],[-66.1994,18.4654],[-66.2047,18.4638],[-66.2111,18.4657],[-66.2203,18.465],[-66.2284,18.4664],[-66.233,18.4667],[-66.2338,18.4667],[-66.2364,18.4638],[-66.2371,18.4664],[-66.2375,18.4638],[-66.2364,18.4633],[-66.2335,18.4666],[-66.2204,18.4649],[-66.2146,18.465],[-66.2307,18.4542],[-66.2314,18.4533],[-66.2318,18.4525],[-66.2313,18.4498],[-66.2357,18.4526],[-66.2334,18.45],[-66.2309,18.4497],[-66.2316,18.4525],[-66.2305,18.4541],[-66.213,18.4654],[-66.2081,18.4644],[-66.2107,18.4616],[-66.2106,18.4606],[-66.212,18.4597],[-66.2105,18.4605],[-66.2078,18.4642],[-66.2049,18.4633],[-66.1998,18.4641],[-66.1997,18.4612],[-66.1978,18.4584],[-66.1967,18.4578],[-66.1901,18.4588],[-66.1897,18.4544],[-66.191,18.4531],[-66.1833,18.4441],[-66.1745,18.4376],[-66.1688,18.4376],[-66.1746,18.4378],[-66.1838,18.4449],[-66.1884,18.4508],[-66.1881,18.4591],[-66.1895,18.4598],[-66.1886,18.4614],[-66.1897,18.4619],[-66.1961,18.4583],[-66.1982,18.459],[-66.1997,18.462],[-66.198,18.4656],[-66.199,18.4659],[-66.1986,18.4676],[-66.196,18.466],[-66.1913,18.4666],[-66.1868,18.4696],[-66.1862,18.4758],[-66.1819,18.4757],[-66.1813,18.4748],[-66.1824,18.4736],[-66.1803,18.4736],[-66.1807,18.4749],[-66.1785,18.4753],[-66.1792,18.4729],[-66.1825,18.4733],[-66.1852,18.4701],[-66.1852,18.4656],[-66.1828,18.4589],[-66.1731,18.4517],[-66.1617,18.4514],[-66.1525,18.4548],[-66.1489,18.457],[-66.1501,18.4575],[-66.1477,18.458],[-66.1446,18.4623],[-66.1366,18.4668],[-66.1371,18.4718],[-66.1397,18.4751],[-66.1335,18.4717],[-66.1349,18.471],[-66.1354,18.466],[-66.1367,18.4663],[-66.1398,18.4633],[-66.1385,18.4601],[-66.1358,18.4568],[-66.1298,18.4534],[-66.1284,18.4521],[-66.1304,18.4498],[-66.1294,18.4514],[-66.1306,18.4535],[-66.1349,18.4544],[-66.1357,18.4563],[-66.1387,18.4572],[-66.1377,18.4515],[-66.1326,18.4454],[-66.1229,18.4414],[-66.1181,18.4422],[-66.1169,18.4439],[-66.111,18.4442],[-66.1127,18.4404],[-66.1104,18.4371],[-66.1111,18.429],[-66.1092,18.4281],[-66.1082,18.4296],[-66.1079,18.4276],[-66.1072,18.4292],[-66.1072,18.4278],[-66.0887,18.4386],[-66.0829,18.4389],[-66.0829,18.4376],[-66.081,18.4375],[-66.0781,18.4342],[-66.0776,18.428],[-66.0828,18.4217],[-66.0898,18.4185],[-66.0854,18.42],[-66.0819,18.4222],[-66.0818,18.4206],[-66.081,18.4189],[-66.0783,18.4152],[-66.0755,18.4129],[-66.0815,18.4208],[-66.0813,18.4226],[-66.0775,18.4274],[-66.0769,18.4295],[-66.0775,18.4341],[-66.0807,18.4382],[-66.0722,18.4367],[-66.0729,18.4353],[-66.0711,18.4345],[-66.0739,18.4306],[-66.072,18.4317],[-66.071,18.4345],[-66.0724,18.4355],[-66.0718,18.4365],[-66.0625,18.4332],[-66.061,18.4303],[-66.0598,18.4332],[-66.0566,18.4334],[-66.0559,18.4314],[-66.0546,18.4306],[-66.0527,18.4325],[-66.0464,18.4285],[-66.0398,18.4279],[-66.0407,18.4261],[-66.0384,18.4212],[-66.0403,18.426],[-66.0392,18.4271],[-66.0334,18.4234],[-66.0299,18.4175],[-66.0269,18.4148],[-66.02,18.4132],[-66.014,18.4144],[-66.0123,18.4173],[-66.009,18.4137],[-66.0039,18.4113],[-66.0011,18.4107],[-66.0082,18.4137],[-66.0046,18.4169],[-66.0007,18.4179],[-66.0001,18.4169],[-65.9996,18.4164],[-66.0005,18.418],[-66.0051,18.4169],[-66.0084,18.4138],[-66.0117,18.4171],[-66.0102,18.4237],[-65.9902,18.4272],[-65.9831,18.4334],[-65.9844,18.4335],[-65.9831,18.4356],[-65.9814,18.4358],[-65.9829,18.4358],[-65.9817,18.4372],[-65.9793,18.4374],[-65.9791,18.4363],[-65.9806,18.4359],[-65.9789,18.4353],[-65.9805,18.4351],[-65.9788,18.4342],[-65.9802,18.4338],[-65.9761,18.4328],[-65.9762,18.4346],[-65.9785,18.4342],[-65.9787,18.4351],[-65.9762,18.4353],[-65.9787,18.4353],[-65.9788,18.4361],[-65.9764,18.4364],[-65.9788,18.4363],[-65.979,18.4372],[-65.9766,18.4375],[-65.979,18.4374],[-65.9776,18.4417],[-65.9743,18.4388],[-65.9735,18.4329],[-65.9749,18.4323],[-65.9703,18.4313],[-65.9706,18.4331],[-65.9734,18.4333],[-65.9742,18.4389],[-65.9712,18.4393],[-65.9677,18.4324],[-65.9677,18.4205],[-65.9722,18.4191],[-65.971,18.4183],[-65.9686,18.4178],[-65.9689,18.4195],[-65.9689,18.4181],[-65.9711,18.4187],[-65.9686,18.4199],[-65.9675,18.4198],[-65.9662,18.4129],[-65.9676,18.4039],[-65.9663,18.4012],[-65.97,18.3919],[-65.9737,18.3889],[-65.9701,18.3911],[-65.9683,18.3948],[-65.9629,18.3948],[-65.9626,18.3925],[-65.9637,18.3917],[-65.9614,18.3917],[-65.9626,18.3949],[-65.9678,18.3953],[-65.9658,18.401],[-65.967,18.4045],[-65.9658,18.415],[-65.9629,18.4148],[-65.9627,18.4115],[-65.9598,18.4113],[-65.9606,18.4151],[-65.966,18.416],[-65.9674,18.4223],[-65.967,18.4322],[-65.9662,18.4321],[-65.9654,18.4324],[-65.9636,18.4342],[-65.9596,18.4317],[-65.9545,18.4314],[-65.9499,18.4381],[-65.9502,18.4425],[-65.953,18.4449],[-65.956,18.4435],[-65.9561,18.4388],[-65.9579,18.4364],[-65.9613,18.4336],[-65.9638,18.4344],[-65.9665,18.4323],[-65.9669,18.4347],[-65.9701,18.4381],[-65.9685,18.4392],[-65.9673,18.4379],[-65.9691,18.44],[-65.9684,18.4412],[-65.9659,18.4412],[-65.9654,18.4392],[-65.9644,18.4394],[-65.9647,18.4428],[-65.9695,18.4422],[-65.9723,18.4468],[-65.9776,18.4494],[-65.9785,18.452],[-65.9856,18.4529],[-65.9861,18.4565],[-65.9879,18.4554],[-65.9905,18.4579],[-65.9926,18.4577],[-65.9919,18.4604],[-65.982,18.4569],[-65.9799,18.4581],[-65.981,18.4595],[-65.9784,18.4595],[-65.9744,18.4565],[-65.9585,18.4513],[-65.9257,18.4449],[-65.9168,18.4446],[-65.9107,18.4471],[-65.9078,18.4469],[-65.9049,18.4504],[-65.9073,18.4516],[-65.9038,18.453],[-65.8975,18.4512],[-65.8953,18.4495],[-65.8954,18.4472],[-65.8782,18.438],[-65.8535,18.4353],[-65.8435,18.4315],[-65.8369,18.4329],[-65.8342,18.4319],[-65.8294,18.4238],[-65.8248,18.42],[-65.8213,18.4201],[-65.8195,18.4138],[-65.8173,18.411],[-65.8122,18.4095],[-65.8039,18.4111],[-65.8083,18.4043],[-65.8136,18.4032],[-65.8143,18.4025],[-65.8114,18.3984],[-65.8107,18.3949],[-65.8135,18.3913],[-65.8157,18.3917],[-65.8169,18.3914],[-65.8168,18.3876],[-65.8207,18.3853],[-65.8245,18.3791],[-65.8236,18.3764],[-65.8205,18.3755],[-65.8184,18.373],[-65.8202,18.3756],[-65.8235,18.3766],[-65.824,18.3791],[-65.8212,18.3844],[-65.8166,18.3876],[-65.8165,18.3912],[-65.8131,18.3912],[-65.8104,18.395],[-65.8106,18.3974],[-65.8138,18.4026],[-65.8081,18.4041],[-65.8045,18.4096],[-65.7915,18.4217],[-65.789,18.4204],[-65.7899,18.4164],[-65.7966,18.4106],[-65.7971,18.4082],[-65.7988,18.4079],[-65.7952,18.4033],[-65.7946,18.4028],[-65.7931,18.4024],[-65.7875,18.4025],[-65.7934,18.4026],[-65.7955,18.4046],[-65.7857,18.4071],[-65.7744,18.4143],[-65.7717,18.4137],[-65.7696,18.4103],[-65.7725,18.4055],[-65.7716,18.4008],[-65.7663,18.3979],[-65.762,18.3982],[-65.7592,18.3928],[-65.7503,18.3859],[-65.7501,18.3852],[-65.7517,18.3846],[-65.7535,18.3805],[-65.7558,18.3812],[-65.7608,18.3781],[-65.7613,18.3748],[-65.7635,18.3731],[-65.7634,18.3716],[-65.7658,18.3699],[-65.7667,18.3677],[-65.7634,18.3713],[-65.7632,18.3731],[-65.7613,18.3746],[-65.7608,18.378],[-65.7534,18.3802],[-65.7506,18.3848],[-65.7445,18.3812],[-65.7394,18.3802],[-65.7307,18.3839],[-65.7286,18.3896],[-65.7257,18.3885],[-65.7221,18.3896],[-65.7204,18.3881],[-65.7203,18.3827],[-65.7167,18.3819],[-65.716,18.3785],[-65.7125,18.3747],[-65.7129,18.3733],[-65.7116,18.3716],[-65.7121,18.373],[-65.71,18.372],[-65.7112,18.3698],[-65.7164,18.3686],[-65.7167,18.367],[-65.7162,18.3685],[-65.7113,18.3695],[-65.7097,18.3719],[-65.709,18.3715],[-65.7124,18.3746],[-65.6991,18.3682],[-65.6887,18.3666],[-65.6788,18.3682],[-65.6752,18.3632],[-65.6663,18.362],[-65.6547,18.3655],[-65.6524,18.3677],[-65.6517,18.3709],[-65.6493,18.3716],[-65.6481,18.3752],[-65.6457,18.3765],[-65.6445,18.3745],[-65.648,18.368],[-65.6424,18.3649],[-65.6413,18.3662],[-65.6408,18.373],[-65.6421,18.376],[-65.6442,18.3747],[-65.6453,18.3766],[-65.6434,18.3789],[-65.6444,18.3809],[-65.6423,18.3795],[-65.6421,18.3771],[-65.6395,18.3767],[-65.6407,18.3729],[-65.6393,18.3704],[-65.6349,18.3697],[-65.6272,18.3764],[-65.6267,18.3814],[-65.6232,18.384],[-65.6233,18.3855],[-65.625,18.3865],[-65.6228,18.3878],[-65.6205,18.3863],[-65.6182,18.3879],[-65.6176,18.3853],[-65.6138,18.384],[-65.6151,18.3825],[-65.6147,18.3809],[-65.6175,18.3784],[-65.6191,18.3678],[-65.6217,18.3654],[-65.6256,18.3648],[-65.6256,18.3635],[-65.6237,18.3625],[-65.6251,18.357],[-65.6258,18.3575],[-65.6287,18.3528],[-65.6359,18.3479],[-65.6361,18.3446],[-65.6399,18.3417],[-65.6384,18.3416],[-65.6362,18.3443],[-65.6338,18.3433],[-65.631,18.344],[-65.6317,18.3404],[-65.6341,18.3384],[-65.6317,18.3347],[-65.627,18.3317],[-65.6272,18.3297],[-65.6281,18.3282],[-65.6293,18.3286],[-65.6294,18.3307],[-65.6304,18.3313],[-65.6316,18.3306],[-65.6338,18.3268],[-65.6369,18.3276],[-65.6389,18.3275],[-65.6423,18.326],[-65.6425,18.3254],[-65.6418,18.3248],[-65.6425,18.3242],[-65.6461,18.3246],[-65.6481,18.3224],[-65.6467,18.3224],[-65.646,18.3244],[-65.6422,18.3242],[-65.6416,18.3248],[-65.6423,18.3258],[-65.6386,18.3274],[-65.6338,18.3265],[-65.6307,18.3308],[-65.63,18.3286],[-65.6277,18.3278],[-65.6274,18.3199],[-65.6288,18.3115],[-65.6264,18.3095],[-65.6246,18.3039],[-65.6263,18.3025],[-65.6265,18.2989],[-65.6322,18.2937],[-65.6329,18.2941],[-65.6342,18.2937],[-65.6325,18.2935],[-65.6353,18.2912],[-65.6358,18.2883],[-65.6328,18.2809],[-65.6308,18.2803],[-65.629,18.2814],[-65.6278,18.2804],[-65.6258,18.2831],[-65.624,18.2816],[-65.6234,18.2781],[-65.6241,18.277],[-65.6261,18.279],[-65.63,18.2792],[-65.6317,18.2783],[-65.629,18.2789],[-65.6288,18.2751],[-65.6259,18.2735],[-65.6306,18.2697],[-65.6306,18.2643],[-65.6258,18.2577],[-65.6177,18.2534],[-65.6176,18.2514],[-65.6191,18.2503],[-65.6199,18.2513],[-65.6204,18.2502],[-65.6213,18.2503],[-65.6206,18.2518],[-65.6216,18.2534],[-65.6246,18.2543],[-65.6228,18.2463],[-65.6219,18.2473],[-65.6188,18.2459],[-65.6181,18.2434],[-65.6148,18.2454],[-65.6148,18.2432],[-65.6126,18.2412],[-65.6131,18.239],[-65.6096,18.2427],[-65.6117,18.2412],[-65.6135,18.244],[-65.6123,18.2457],[-65.6115,18.2451],[-65.6101,18.245],[-65.6085,18.2466],[-65.6102,18.2451],[-65.6121,18.2459],[-65.6123,18.2458],[-65.6132,18.2449],[-65.6146,18.2463],[-65.6096,18.2516],[-65.6035,18.2429],[-65.6019,18.2365],[-65.5987,18.2354],[-65.5949,18.231],[-65.5927,18.2312],[-65.5899,18.2284],[-65.5926,18.227],[-65.5938,18.2241],[-65.6017,18.2301],[-65.6044,18.2286],[-65.6071,18.2302],[-65.6047,18.2277],[-65.6077,18.224],[-65.606,18.2238],[-65.6044,18.2176],[-65.6068,18.2178],[-65.6071,18.2149],[-65.6104,18.2144],[-65.6112,18.2107],[-65.6127,18.2153],[-65.6117,18.2192],[-65.6164,18.2243],[-65.6195,18.2229],[-65.6166,18.2247],[-65.616,18.2274],[-65.6185,18.229],[-65.6195,18.2276],[-65.6187,18.2289],[-65.6207,18.2301],[-65.6219,18.2288],[-65.6211,18.2307],[-65.6259,18.233],[-65.6267,18.2355],[-65.6291,18.2332],[-65.6311,18.2341],[-65.6331,18.2318],[-65.6392,18.2287],[-65.6376,18.2247],[-65.6344,18.2236],[-65.6376,18.2244],[-65.637,18.2218],[-65.6419,18.2184],[-65.6402,18.2175],[-65.6428,18.2163],[-65.6411,18.217],[-65.6406,18.2161],[-65.6397,18.2161],[-65.6394,18.2199],[-65.6327,18.2172],[-65.6328,18.2144],[-65.6311,18.2113],[-65.6332,18.2101],[-65.6351,18.2118],[-65.636,18.2117],[-65.635,18.2106],[-65.6358,18.2064],[-65.6344,18.2052],[-65.6298,18.2096],[-65.6275,18.2074],[-65.6315,18.2008],[-65.6353,18.2],[-65.6358,18.2035],[-65.6384,18.2069],[-65.6416,18.202],[-65.6404,18.1995],[-65.6428,18.2003],[-65.6439,18.1986],[-65.6491,18.2008],[-65.6519,18.2004],[-65.6522,18.2031],[-65.6587,18.2059],[-65.6586,18.2075],[-65.6596,18.2063],[-65.6644,18.207],[-65.6719,18.1999],[-65.674,18.2011],[-65.6758,18.1996],[-65.6778,18.2],[-65.6785,18.1975],[-65.6757,18.1932],[-65.6763,18.1925],[-65.6776,18.193],[-65.6791,18.1988],[-65.6805,18.1992],[-65.6826,18.1978],[-65.6851,18.1984],[-65.6908,18.195],[-65.6951,18.1876],[-65.6939,18.1863],[-65.6944,18.1842],[-65.6923,18.1834],[-65.691,18.1789],[-65.693,18.1779],[-65.6967,18.1798],[-65.6966,18.1831],[-65.6981,18.1844],[-65.7007,18.1818],[-65.7023,18.1837],[-65.7068,18.1847],[-65.7078,18.1822],[-65.7093,18.1845],[-65.7109,18.1846],[-65.7109,18.1872],[-65.7126,18.1892],[-65.7156,18.1886],[-65.718,18.1902],[-65.7248,18.1885],[-65.7245,18.1928],[-65.7253,18.1888],[-65.7296,18.1916],[-65.7253,18.1877],[-65.7285,18.1856],[-65.7286,18.1861],[-65.7314,18.1873],[-65.7329,18.1866],[-65.734,18.1855],[-65.7337,18.1834],[-65.7362,18.1864],[-65.7373,18.1868],[-65.737,18.1884],[-65.7393,18.1915],[-65.7381,18.1924],[-65.7385,18.1938],[-65.7412,18.1953],[-65.7428,18.1954],[-65.7436,18.1983],[-65.7463,18.1984],[-65.7437,18.1981],[-65.743,18.1952],[-65.7386,18.1936],[-65.7395,18.1915],[-65.7372,18.1883],[-65.7375,18.1867],[-65.734,18.1834],[-65.7334,18.1832],[-65.733,18.1836],[-65.7337,18.1854],[-65.7315,18.1871],[-65.7289,18.1856],[-65.7381,18.1758],[-65.7436,18.1641],[-65.7425,18.1629],[-65.7436,18.164],[-65.7565,18.158],[-65.765,18.151],[-65.7678,18.1464],[-65.7688,18.147],[-65.7666,18.1443],[-65.7752,18.1337],[-65.7798,18.1233],[-65.7804,18.1177],[-65.7782,18.117],[-65.7774,18.1145],[-65.7819,18.1112],[-65.7885,18.1013],[-65.7897,18.0955],[-65.7875,18.0905],[-65.7932,18.0887],[-65.7967,18.0837],[-65.7963,18.0798],[-65.7996,18.0806],[-65.7987,18.0793],[-65.8001,18.0802],[-65.7997,18.0782],[-65.8018,18.0772],[-65.7966,18.0761],[-65.7949,18.0735],[-65.7973,18.0704],[-65.7954,18.069],[-65.797,18.0683],[-65.7975,18.065],[-65.8,18.0638],[-65.7994,18.0613],[-65.8017,18.0605],[-65.8011,18.0591],[-65.8032,18.0577],[-65.8072,18.0578],[-65.8088,18.0567],[-65.8171,18.0634],[-65.8261,18.0579],[-65.8291,18.0538],[-65.8283,18.0524],[-65.8327,18.0558],[-65.8382,18.0534],[-65.8347,18.0498],[-65.8311,18.0506],[-65.8326,18.0463],[-65.8335,18.0479],[-65.8328,18.0455],[-65.8343,18.0388],[-65.8325,18.0374],[-65.8325,18.0344],[-65.8298,18.0308],[-65.8331,18.0231],[-65.8305,18.0204],[-65.8331,18.0171],[-65.8323,18.015],[-65.835,18.0155],[-65.8339,18.012],[-65.844,18.0162],[-65.8576,18.0051],[-65.8648,18.0074],[-65.8703,18.0066],[-65.8765,18.0012],[-65.8847,17.9877],[-65.8907,17.9922],[-65.8962,17.9904],[-65.9141,17.9769],[-65.9188,17.9752],[-65.9311,17.9764],[-65.9344,17.9757],[-65.9388,17.9719],[-65.9447,17.9729],[-65.9548,17.9703],[-65.9685,17.9743],[-65.9737,17.972],[-65.9766,17.9677],[-65.9796,17.9677],[-65.9848,17.9696],[-65.9854,17.9719],[-65.9846,17.9722],[-65.9831,17.9734],[-65.9832,17.9741],[-65.9856,17.9721],[-65.9952,17.979],[-66.0041,17.978],[-66.008,17.9805],[-66.0164,17.9792],[-66.0157,17.9812],[-66.0138,17.9818],[-66.014,17.9827],[-66.014,17.9818],[-66.0158,17.9816],[-66.0167,17.9797],[-66.0239,17.976],[-66.0291,17.9715],[-66.0352,17.9614],[-66.0398,17.9615],[-66.0431,17.9558],[-66.0459,17.9555],[-66.0481,17.9523],[-66.0514,17.9569],[-66.0582,17.9589],[-66.0581,17.9603],[-66.0592,17.9623],[-66.0585,17.9594],[-66.0641,17.9607],[-66.0685,17.9663],[-66.0754,17.9654],[-66.0782,17.9669],[-66.0808,17.9667],[-66.0907,17.9625],[-66.1127,17.9487],[-66.1162,17.9491],[-66.1284,17.9467],[-66.1359,17.9415],[-66.1407,17.941],[-66.1473,17.9341],[-66.1554,17.9294],[-66.1597,17.9283],[-66.1558,17.9368],[-66.1565,17.9374],[-66.1575,17.9359],[-66.1574,17.9377],[-66.1597,17.9366],[-66.1609,17.94],[-66.1549,17.9416],[-66.1546,17.9421],[-66.1611,17.9402],[-66.16,17.9364],[-66.1611,17.9341],[-66.1605,17.9318],[-66.1695,17.9338],[-66.1736,17.9369],[-66.1854,17.9358],[-66.1911,17.9385],[-66.1956,17.9363],[-66.2,17.9295],[-66.207,17.9323],[-66.2106,17.9321],[-66.2066,17.9342],[-66.2131,17.9411],[-66.2134,17.9446],[-66.2027,17.9448],[-66.2016,17.9428],[-66.2024,17.9413],[-66.2,17.9438],[-66.1974,17.9416],[-66.1943,17.9421],[-66.1832,17.9373],[-66.1817,17.9375],[-66.1838,17.9385],[-66.1812,17.9392],[-66.1821,17.9429],[-66.1808,17.9445],[-66.1747,17.945],[-66.1731,17.9403],[-66.1723,17.9399],[-66.1748,17.9482],[-66.1768,17.9504],[-66.1849,17.9512],[-66.1993,17.9603],[-66.2068,17.9633],[-66.2115,17.9594],[-66.2156,17.9592],[-66.2138,17.9554],[-66.2178,17.9576],[-66.218,17.9555],[-66.2218,17.9527],[-66.2219,17.9493],[-66.2224,17.9524],[-66.2251,17.9522],[-66.2266,17.951],[-66.2264,17.9482],[-66.2287,17.9486],[-66.233,17.9469],[-66.2338,17.9441],[-66.2363,17.9455],[-66.2377,17.9431],[-66.2372,17.9413],[-66.2352,17.9421],[-66.2363,17.9437],[-66.2314,17.9436],[-66.2317,17.9392],[-66.2303,17.9349],[-66.2292,17.9346],[-66.2319,17.9312],[-66.2358,17.9339],[-66.2352,17.935],[-66.2371,17.9361],[-66.2361,17.937],[-66.2382,17.9395],[-66.2336,17.9395],[-66.2333,17.9405],[-66.2351,17.9416],[-66.238,17.9407],[-66.239,17.9442],[-66.2396,17.9427],[-66.2387,17.942],[-66.2398,17.9412],[-66.2408,17.938],[-66.2412,17.94],[-66.2419,17.9383],[-66.2434,17.9394],[-66.2424,17.941],[-66.2427,17.9437],[-66.2442,17.9426],[-66.2433,17.941],[-66.2441,17.9399],[-66.2459,17.94],[-66.2456,17.9389],[-66.249,17.9394],[-66.2485,17.9375],[-66.2508,17.9382],[-66.2519,17.9371],[-66.2522,17.9416],[-66.2539,17.9406],[-66.2574,17.9437],[-66.2561,17.9459],[-66.258,17.9475],[-66.2584,17.9461],[-66.2625,17.9462],[-66.2626,17.9444],[-66.2588,17.9443],[-66.255,17.9415],[-66.2582,17.939],[-66.2565,17.9377],[-66.2546,17.9397],[-66.2529,17.9389],[-66.2529,17.9346],[-66.2521,17.9365],[-66.2472,17.937],[-66.2445,17.935],[-66.2485,17.9344],[-66.2452,17.9322],[-66.2467,17.9308],[-66.2498,17.9326],[-66.2538,17.9329],[-66.2533,17.9343],[-66.2554,17.9359],[-66.2607,17.9361],[-66.2604,17.9373],[-66.259,17.9369],[-66.2594,17.938],[-66.2631,17.9431],[-66.2709,17.9471],[-66.2741,17.9465],[-66.2755,17.9483],[-66.2798,17.9475],[-66.2887,17.9418],[-66.2908,17.9462],[-66.2895,17.9498],[-66.2905,17.954],[-66.2883,17.9528],[-66.2894,17.9567],[-66.2892,17.954],[-66.29,17.9553],[-66.29,17.9576],[-66.2888,17.9576],[-66.2899,17.9577],[-66.2906,17.9613],[-66.2945,17.9628],[-66.2954,17.9614],[-66.2944,17.9591],[-66.2977,17.9591],[-66.3066,17.9659],[-66.3129,17.9682],[-66.3152,17.9711],[-66.3169,17.9767],[-66.3237,17.9785],[-66.3392,17.9763],[-66.3544,17.966],[-66.3579,17.9649],[-66.3582,17.9682],[-66.3629,17.968],[-66.365,17.9644],[-66.3638,17.9622],[-66.3599,17.9612],[-66.3608,17.9604],[-66.3631,17.9614],[-66.3641,17.9611],[-66.3654,17.9594],[-66.367,17.9612],[-66.3697,17.9609],[-66.3703,17.959],[-66.3686,17.9576],[-66.3683,17.9541],[-66.3666,17.9528],[-66.3695,17.9529],[-66.3701,17.9512],[-66.3723,17.9525],[-66.3708,17.9549],[-66.3766,17.9556],[-66.3775,17.9522],[-66.3794,17.9521],[-66.3795,17.9511],[-66.3749,17.9535],[-66.3762,17.9493],[-66.3813,17.9482],[-66.3765,17.948],[-66.3767,17.9467],[-66.3779,17.9448],[-66.3801,17.9445],[-66.3803,17.9419],[-66.3839,17.9409],[-66.3851,17.939],[-66.3861,17.9403],[-66.3846,17.9418],[-66.3893,17.9416],[-66.3907,17.946],[-66.3967,17.9483],[-66.4021,17.9526],[-66.4105,17.9543],[-66.4104,17.9561],[-66.4121,17.9573],[-66.42,17.9594],[-66.4279,17.9587],[-66.4436,17.9779],[-66.4485,17.9804],[-66.4527,17.9806],[-66.4495,17.9832],[-66.4493,17.9842],[-66.4527,17.9813],[-66.455,17.9869],[-66.4594,17.9897],[-66.4641,17.9906],[-66.4719,17.9897],[-66.4784,17.9869],[-66.4796,17.9875],[-66.4787,17.9889],[-66.4792,17.9919],[-66.479,17.9891],[-66.4802,17.9879],[-66.482,17.9907],[-66.4816,17.9896],[-66.4836,17.991],[-66.4914,17.9903],[-66.5007,17.9886],[-66.5255,17.9797],[-66.5277,17.9806],[-66.5282,17.9825],[-66.5279,17.9805],[-66.5258,17.9796],[-66.5335,17.976],[-66.5341,17.977],[-66.5346,17.9771],[-66.5352,17.9769],[-66.5338,17.9759],[-66.5385,17.9739],[-66.5403,17.9751],[-66.5371,17.9765],[-66.537,17.977],[-66.5375,17.9775],[-66.5372,17.9766],[-66.5405,17.9757],[-66.5403,17.9748],[-66.5387,17.9739],[-66.5404,17.9735],[-66.5469,17.9744],[-66.5466,17.9748],[-66.5464,17.976],[-66.5472,17.9773],[-66.547,17.9745],[-66.5495,17.974],[-66.5495,17.9744],[-66.5497,17.9749],[-66.5497,17.9739],[-66.5592,17.9682],[-66.5637,17.9675],[-66.564,17.9692],[-66.5638,17.9675],[-66.5701,17.9664],[-66.576,17.9626],[-66.5799,17.9617],[-66.5811,17.9626],[-66.5808,17.9646],[-66.5832,17.9645],[-66.5824,17.9656],[-66.5837,17.9651],[-66.5838,17.966],[-66.5844,17.9624],[-66.5865,17.9669],[-66.5919,17.9703],[-66.596,17.9704],[-66.5994,17.9676],[-66.5975,17.9856],[-66.5938,17.9978],[-66.5919,18.008],[-66.5926,18.014],[-66.5956,18.0157],[-66.5955,18.019],[-66.5883,18.0249],[-66.5856,18.0322],[-66.5832,18.0327],[-66.5823,18.0337],[-66.582,18.0375],[-66.5826,18.04],[-66.5854,18.0435],[-66.5826,18.0477],[-66.5815,18.0499],[-66.5814,18.0506],[-66.5827,18.0485],[-66.584,18.0494],[-66.5833,18.0481],[-66.5897,18.0458],[-66.5926,18.0466],[-66.5912,18.0436],[-66.5865,18.0466],[-66.5853,18.0417],[-66.5827,18.0391],[-66.5824,18.0343],[-66.5859,18.0324],[-66.5889,18.0251],[-66.5964,18.0186],[-66.5963,18.0158],[-66.5927,18.0129],[-66.5925,18.0083],[-66.5966,17.9909],[-66.6,17.9966],[-66.6074,18.0008],[-66.6063,18.0068],[-66.6065,18.0111],[-66.6077,18.0125],[-66.6066,18.0188],[-66.6093,18.0214],[-66.6103,18.0289],[-66.6126,18.0332],[-66.6104,18.04],[-66.6085,18.0418],[-66.6112,18.0401],[-66.6157,18.041],[-66.6111,18.0388],[-66.6145,18.0314],[-66.6138,18.028],[-66.6105,18.0259],[-66.6097,18.0213],[-66.6069,18.0186],[-66.608,18.0142],[-66.6068,18.0073],[-66.6078,18.0005],[-66.6009,17.9962],[-66.5972,17.9899],[-66.6004,17.9685],[-66.6066,17.9687],[-66.609,17.967],[-66.6107,17.9636],[-66.614,17.9627],[-66.6196,17.9628],[-66.6184,17.9648],[-66.617,17.9634],[-66.6137,17.9636],[-66.6174,17.9673],[-66.6213,17.9672],[-66.6212,17.9688],[-66.6155,17.9712],[-66.6169,17.974],[-66.6189,17.9733],[-66.6193,17.9751],[-66.6169,17.9765],[-66.6174,17.9776],[-66.6266,17.9821],[-66.6319,17.9827],[-66.6484,17.9794],[-66.6584,17.9742],[-66.6633,17.9684],[-66.6656,17.9695],[-66.6672,17.9676],[-66.6728,17.9664],[-66.6788,17.973],[-66.6948,17.9753],[-66.7018,17.9783],[-66.7049,17.9812],[-66.7079,17.9812],[-66.7078,17.9829],[-66.7099,17.9821],[-66.7122,17.9858],[-66.7133,17.9852],[-66.7134,17.9878],[-66.7168,17.9903],[-66.7253,17.9921],[-66.7312,17.9916],[-66.7314,17.988],[-66.7314,17.9916],[-66.7323,17.9911],[-66.7327,17.9924],[-66.7365,17.9894],[-66.7385,17.9899],[-66.7386,17.9913],[-66.748,17.9896],[-66.7524,17.9856],[-66.7552,17.9768],[-66.7571,17.9759],[-66.7591,17.9767],[-66.7597,17.979],[-66.763,17.9798],[-66.7629,17.9846],[-66.7602,17.9819],[-66.758,17.982],[-66.7549,17.9878],[-66.7559,17.9887],[-66.7548,17.9886],[-66.7534,17.9906],[-66.7562,17.9894],[-66.7564,17.9907],[-66.7526,17.9912],[-66.7504,17.9954],[-66.754,17.9997],[-66.7533,17.9975],[-66.7564,17.9914],[-66.7573,17.9914],[-66.7581,17.9949],[-66.7607,17.9937],[-66.763,17.9943],[-66.7553,17.9967],[-66.7542,17.9989],[-66.7553,18.0012],[-66.7625,17.9999],[-66.7629,18.0014],[-66.7613,18.0024],[-66.763,18.003],[-66.765,18.0065],[-66.7663,18.0064],[-66.767,18.0043],[-66.7672,18.0067],[-66.7713,18.0055],[-66.7746,18.002],[-66.7809,17.9997],[-66.7849,17.9956],[-66.7883,17.9954],[-66.7905,17.9929],[-66.7944,17.9929],[-66.7968,17.9952],[-66.7981,17.9949],[-66.7997,17.9924],[-66.7982,17.9868],[-66.7963,17.9848],[-66.7974,17.9821],[-66.8004,17.9815],[-66.8011,17.9836],[-66.8056,17.9851],[-66.8066,17.9843],[-66.8079,17.9794],[-66.8057,17.975],[-66.8024,17.9765],[-66.7932,17.9772],[-66.7893,17.9808],[-66.7867,17.9853],[-66.7837,17.9857],[-66.7836,17.98],[-66.7873,17.9727],[-66.7928,17.9697],[-66.7971,17.9694],[-66.8083,17.9656],[-66.8104,17.964],[-66.8101,17.9629],[-66.8171,17.9596],[-66.8192,17.9557],[-66.8218,17.9563],[-66.8235,17.9542],[-66.8259,17.9553],[-66.8282,17.9532],[-66.8386,17.9499],[-66.8446,17.9509],[-66.8463,17.9532],[-66.849,17.9528],[-66.8538,17.9563],[-66.8564,17.9566],[-66.8625,17.952],[-66.8631,17.9454],[-66.868,17.9479],[-66.8683,17.9496],[-66.8717,17.9527],[-66.8746,17.949],[-66.8785,17.9477],[-66.8786,17.9513],[-66.8829,17.9526],[-66.8866,17.9512],[-66.8926,17.9515],[-66.8936,17.9501],[-66.8996,17.9483],[-66.9026,17.9489],[-66.9064,17.9548],[-66.9059,17.9647],[-66.9122,17.9632],[-66.9146,17.9653],[-66.9174,17.9658],[-66.918,17.9668],[-66.9168,17.9677],[-66.9206,17.9664],[-66.9209,17.9702],[-66.924,17.9726],[-66.926,17.9726],[-66.9289,17.9698],[-66.9285,17.9674],[-66.9243,17.9648],[-66.9278,17.9651],[-66.9313,17.9614],[-66.9223,17.9616],[-66.9161,17.9591],[-66.911,17.9551],[-66.9093,17.9505],[-66.9171,17.9451],[-66.9265,17.9433],[-66.9287,17.9439],[-66.9314,17.9424],[-66.9328,17.9394],[-66.9322,17.9373],[-66.9204,17.9334],[-66.9192,17.9319],[-66.9245,17.9268],[-66.9319,17.9284],[-66.9325,17.9298],[-66.9336,17.9307],[-66.937,17.9323],[-66.9455,17.9326],[-66.9475,17.9343],[-66.9499,17.9322],[-66.9541,17.9326],[-66.9553,17.9308],[-66.9573,17.9308],[-66.9571,17.9343],[-66.9551,17.9357],[-66.9558,17.9381],[-66.9628,17.941],[-66.9659,17.9452],[-66.9701,17.9476],[-66.9713,17.9504],[-66.9745,17.9495],[-66.9808,17.9519],[-66.9831,17.9577],[-66.9817,17.9606],[-66.9845,17.963],[-66.9848,17.9672],[-66.987,17.9707],[-66.9941,17.9723],[-66.9956,17.9708],[-66.9967,17.9729],[-66.9977,17.9716],[-66.999,17.9723],[-66.9995,17.9707],[-67.004,17.9708],[-67.0058,17.9722],[-67.0007,17.9617],[-67.003,17.9606],[-67.006,17.9614],[-67.0058,17.9629],[-67.0085,17.9647],[-67.0092,17.9622],[-67.0098,17.9652],[-67.0138,17.9672],[-67.0149,17.9687],[-67.014,17.9704],[-67.0096,17.9731],[-67.012,17.9743],[-67.011,17.9729],[-67.0133,17.9734],[-67.0127,17.9757],[-67.0154,17.9735],[-67.0149,17.9749],[-67.0157,17.976],[-67.0157,17.97],[-67.0187,17.9691],[-67.0189,17.9675],[-67.0222,17.9687],[-67.0249,17.9722],[-67.033,17.9711],[-67.035,17.9731],[-67.0379,17.9718],[-67.0399,17.9733],[-67.042,17.9712],[-67.0443,17.9711],[-67.048,17.973],[-67.0542,17.9743],[-67.0561,17.9731],[-67.0589,17.975],[-67.0626,17.9754],[-67.0671,17.9753],[-67.068,17.9734],[-67.0755,17.9728],[-67.0762,17.9723],[-67.0747,17.9715],[-67.0725,17.972],[-67.0777,17.9689],[-67.0789,17.9646],[-67.0786,17.9627],[-67.0774,17.9633],[-67.0766,17.9622],[-67.0772,17.9584],[-67.0795,17.9581],[-67.079,17.9605],[-67.0813,17.9593],[-67.0835,17.9606],[-67.0844,17.9634],[-67.0816,17.9643],[-67.0832,17.9653],[-67.0825,17.9671],[-67.084,17.9658],[-67.087,17.9657],[-67.0885,17.9612],[-67.0918,17.9615],[-67.0931,17.9589],[-67.0952,17.9584],[-67.095,17.9568],[-67.0968,17.9568],[-67.0938,17.9552],[-67.0942,17.9574],[-67.0927,17.9566],[-67.0933,17.9513],[-67.0951,17.9505],[-67.0948,17.9517],[-67.0984,17.9482],[-67.1051,17.9457],[-67.1126,17.9463],[-67.1139,17.9485],[-67.115,17.9473],[-67.1155,17.9507],[-67.1139,17.9511],[-67.1121,17.9493],[-67.1128,17.9512],[-67.1095,17.9509],[-67.1133,17.9517],[-67.1141,17.9531],[-67.1169,17.9507],[-67.121,17.9503],[-67.1184,17.9498],[-67.117,17.9474],[-67.1195,17.9475],[-67.119,17.9487],[-67.1201,17.9491],[-67.1213,17.9468],[-67.1222,17.9473],[-67.1252,17.9472],[-67.1252,17.9467],[-67.1282,17.9483],[-67.1263,17.95],[-67.1233,17.9503],[-67.1273,17.9516],[-67.1309,17.9509],[-67.1506,17.9553],[-67.1592,17.954],[-67.1581,17.9562],[-67.1592,17.9582],[-67.1647,17.9622],[-67.1758,17.9655],[-67.1788,17.965],[-67.1847,17.9615],[-67.1904,17.9559],[-67.1926,17.9515],[-67.1902,17.9467],[-67.1907,17.9433],[-67.1838,17.9383],[-67.1828,17.9343],[-67.1838,17.9309],[-67.1875,17.932],[-67.1881,17.9357],[-67.19,17.9354],[-67.1901,17.9334],[-67.1919,17.9325],[-67.1948,17.9328],[-67.1969,17.9356],[-67.1973,17.9375],[-67.1934,17.9388],[-67.1925,17.9421],[-67.1937,17.9478],[-67.1966,17.9515],[-67.2076,17.9539],[-67.2108,17.9534],[-67.2126,17.9516],[-67.2134,17.9527],[-67.2122,17.9566],[-67.2143,17.9624],[-67.2125,17.9694],[-67.2127,17.9764],[-67.2153,17.9835],[-67.2125,17.99],[-67.213,17.9925],[-67.2065,17.9987],[-67.1821,18.0082],[-67.1779,18.0089],[-67.1833,18.0055],[-67.1814,18.0044],[-67.1815,18.0054],[-67.1798,18.0053],[-67.1784,18.0039],[-67.1723,18.0067],[-67.1668,18.0065],[-67.165,18.0078],[-67.1686,18.0118],[-67.1659,18.0167],[-67.1666,18.0176],[-67.1687,18.0161],[-67.1686,18.0139],[-67.1739,18.0098],[-67.1747,18.0075],[-67.1774,18.0075],[-67.1726,18.0144],[-67.1721,18.0214],[-67.1767,18.0278],[-67.1782,18.0258],[-67.18,18.0263],[-67.1796,18.0291],[-67.1812,18.0307],[-67.1818,18.0276],[-67.184,18.0275],[-67.1862,18.0286],[-67.1862,18.0304],[-67.1881,18.0296],[-67.1885,18.0307],[-67.2013,18.0334],[-67.2036,18.0346],[-67.2034,18.0363],[-67.2099,18.0356],[-67.1987,18.0475],[-67.1986,18.0499],[-67.2018,18.0566],[-67.1967,18.0665],[-67.1907,18.0643],[-67.1842,18.0685],[-67.1845,18.072],[-67.1864,18.0741],[-67.1935,18.0776],[-67.1936,18.08],[-67.1961,18.0776],[-67.193,18.0769],[-67.1932,18.0739],[-67.1959,18.0722],[-67.1992,18.0801],[-67.1984,18.0857],[-67.1951,18.0889],[-67.1991,18.0896],[-67.1994,18.091],[-67.1949,18.0947],[-67.1951,18.097],[-67.1903,18.0986],[-67.1898,18.1004],[-67.1829,18.1043],[-67.1817,18.1126],[-67.1846,18.1203],[-67.1828,18.1258],[-67.1837,18.1298],[-67.1861,18.131],[-67.1866,18.1347],[-67.186,18.1368],[-67.1804,18.1402],[-67.1766,18.151],[-67.1786,18.1593],[-67.1829,18.1607],[-67.1851,18.1654],[-67.1786,18.1703],[-67.1658,18.1857],[-67.157,18.1927],[-67.1535,18.198],[-67.1527,18.2041],[-67.155,18.2106],[-67.1587,18.2121],[-67.1581,18.2169],[-67.1678,18.2205],[-67.1736,18.2266],[-67.1733,18.2376],[-67.1756,18.2487],[-67.1882,18.2668],[-67.1895,18.2795],[-67.1944,18.2885],[-67.1971,18.2911],[-67.2021,18.2931],[-67.2208,18.2969],[-67.2261,18.2967],[-67.2345,18.2994],[-67.2479,18.3208],[-67.2567,18.3415],[-67.2613,18.3448],[-67.2675,18.3531],[-67.2713,18.3627],[-67.2694,18.3661],[-67.2604,18.3704],[-67.2267,18.3782],[-67.2019,18.39],[-67.1949,18.3922],[-67.1884,18.4004],[-67.1649,18.412],[-67.1573,18.4181],[-67.1552,18.4244],[-67.1561,18.4275],[-67.1554,18.4346],[-67.1605,18.4469],[-67.1619,18.454],[-67.1682,18.4634],[-67.1691,18.4778],[-67.1635,18.4881],[-67.1542,18.4915],[-67.1525,18.4958],[-67.1428,18.5055],[-67.1376,18.5089],[-67.1327,18.5087],[-67.1246,18.512],[-67.1143,18.5131],[-67.1067,18.5122],[-67.1014,18.5151],[-67.0959,18.5157],[-67.0906,18.516],[-67.0793,18.5133],[-67.0764,18.5136],[-67.0767,18.5152],[-67.0746,18.5151],[-67.0686,18.5128],[-67.058,18.5151],[-67.0568,18.5139],[-67.0537,18.5152],[-67.0471,18.5135],[-67.0443,18.5142],[-67.0407,18.5126],[-67.0373,18.5135],[-67.035,18.5114],[-67.0252,18.5081],[-67.0219,18.5088],[-67.0203,18.5106],[-67.0218,18.5114],[-67.0153,18.5097],[-67.0056,18.5045],[-66.996,18.5016],[-66.9778,18.4917],[-66.9714,18.4934],[-66.9562,18.4888],[-66.9446,18.4917],[-66.9198,18.4852],[-66.9014,18.4833],[-66.8979,18.4849],[-66.8901,18.4857],[-66.8884,18.4874],[-66.8735,18.4887],[-66.8676,18.4907],[-66.8675,18.4921],[-66.8591,18.4901],[-66.8493,18.4907],[-66.8363,18.4872],[-66.8362,18.4855],[-66.8386,18.4841],[-66.8386,18.4832],[-66.8374,18.4802],[-66.8344,18.4792],[-66.8354,18.4782],[-66.8347,18.4771],[-66.8354,18.4766],[-66.8356,18.476],[-66.8351,18.4737],[-66.8346,18.4734],[-66.8331,18.4737],[-66.8325,18.4723],[-66.831,18.4721],[-66.8292,18.473],[-66.8322,18.4723],[-66.8329,18.4738],[-66.835,18.4738],[-66.8345,18.477],[-66.8353,18.4781],[-66.8341,18.479],[-66.8349,18.4799],[-66.8373,18.4804],[-66.8385,18.4832],[-66.8352,18.4848],[-66.8364,18.4876],[-66.827,18.4872],[-66.824,18.4909],[-66.8069,18.4913],[-66.7962,18.4934],[-66.7863,18.4928],[-66.7758,18.4899],[-66.7617,18.482],[-66.7485,18.4764],[-66.7391,18.4739],[-66.7319,18.4735],[-66.7301,18.4749],[-66.7216,18.4756],[-66.7103,18.4724],[-66.7034,18.4744],[-66.7005,18.4774],[-66.6982,18.4769],[-66.6993,18.4742],[-66.7014,18.4736],[-66.7037,18.4717],[-66.706,18.4719],[-66.704,18.4715],[-66.703,18.4718],[-66.6986,18.4746],[-66.6972,18.4769],[-66.6969,18.4754],[-66.6975,18.4748],[-66.6991,18.4739],[-66.7015,18.472],[-66.7018,18.4715],[-66.7016,18.4707],[-66.698,18.4683],[-66.6909,18.4669],[-66.6879,18.4587],[-66.6875,18.4583],[-66.6869,18.458],[-66.685,18.4585],[-66.6877,18.4585],[-66.6907,18.467],[-66.698,18.4684],[-66.7016,18.471],[-66.6968,18.4752],[-66.6965,18.4771],[-66.6924,18.4777],[-66.6925,18.4786],[-66.6921,18.4778],[-66.6855,18.4766],[-66.6709,18.4671],[-66.6596,18.4619],[-66.6543,18.4608],[-66.6382,18.4672],[-66.6456,18.4649],[-66.6454,18.4655],[-66.6459,18.4689],[-66.6443,18.4704],[-66.6438,18.4712],[-66.6439,18.4767],[-66.6365,18.4772],[-66.6312,18.4763],[-66.6282,18.476],[-66.6263,18.4765],[-66.6246,18.4778],[-66.6283,18.4761],[-66.6363,18.4772],[-66.6439,18.4768],[-66.6444,18.4761],[-66.6439,18.4711],[-66.6461,18.4688],[-66.6458,18.4649],[-66.6542,18.4609],[-66.6598,18.4621],[-66.6703,18.4669],[-66.6852,18.4767],[-66.6923,18.4788],[-66.6977,18.4771],[-66.7002,18.478],[-66.7002,18.4811],[-66.7025,18.4809],[-66.7009,18.482],[-66.7034,18.4806],[-66.7003,18.4827],[-66.6978,18.4831],[-66.6967,18.482],[-66.6948,18.4815],[-66.6837,18.4814],[-66.6814,18.4841],[-66.6764,18.4865],[-66.6737,18.4902],[-66.6659,18.4878],[-66.6462,18.4887],[-66.6424,18.4907],[-66.6423,18.4932],[-66.6393,18.4934],[-66.6389,18.4925],[-66.6337,18.4938],[-66.6331,18.4927],[-66.6293,18.4924],[-66.6271,18.4944],[-66.626,18.4931],[-66.6231,18.4943],[-66.6192,18.4921],[-66.6075,18.4908],[-66.5839,18.4842],[-66.5752,18.4844],[-66.5689,18.4862],[-66.5652,18.4855],[-66.5617,18.4887],[-66.562,18.4884],[-66.5611,18.4856],[-66.5563,18.4817],[-66.5573,18.4795],[-66.5561,18.4801],[-66.5554,18.4726],[-66.5564,18.466],[-66.5617,18.462],[-66.5705,18.4636],[-66.5617,18.4619],[-66.5564,18.4658],[-66.5553,18.4726],[-66.5562,18.4819],[-66.5608,18.4854],[-66.5617,18.4882],[-66.5595,18.4892],[-66.5612,18.4885],[-66.5635,18.4905],[-66.5585,18.49],[-66.5532,18.4872],[-66.5512,18.4882],[-66.5517,18.4892],[-66.5508,18.4877]]]]}}]}