{"type":"FeatureCollection","features":[{"type":"Feature","properties":{"leaid":"4400420","name":"Foster-Glocester Regional School District","kind":"Secondary","gradeLow":"06","gradeHigh":"12","state":"RI"},"geometry":{"type":"Polygon","coordinates":[[[-71.5903,41.9337],[-71.5746,41.8587],[-71.691,41.8565],[-71.6684,41.7275],[-71.7897,41.7252],[-71.7978,41.9286],[-71.5903,41.9337]]]}},{"type":"Feature","properties":{"leaid":"4400360","name":"Exeter-West Greenwich Regional School District","kind":"Elementary","gradeLow":"PK","gradeHigh":"12","state":"RI"},"geometry":{"type":"Polygon","coordinates":[[[-71.5224,41.6026],[-71.5181,41.5922],[-71.5196,41.5299],[-71.5122,41.5153],[-71.5079,41.5001],[-71.5305,41.5038],[-71.6126,41.5248],[-71.6207,41.5643],[-71.7914,41.5461],[-71.7872,41.6561],[-71.5471,41.6619],[-71.5448,41.602],[-71.5224,41.6026]]]}},{"type":"Feature","properties":{"leaid":"4400390","name":"Foster Elementary School District","kind":"Elementary","gradeLow":"PK","gradeHigh":"05","state":"RI"},"geometry":{"type":"Polygon","coordinates":[[[-71.6684,41.7275],[-71.7897,41.7252],[-71.7947,41.8544],[-71.691,41.8565],[-71.6684,41.7275]]]}},{"type":"Feature","properties":{"leaid":"4400450","name":"Glocester Elementary School District","kind":"Elementary","gradeLow":"PK","gradeHigh":"05","state":"RI"},"geometry":{"type":"Polygon","coordinates":[[[-71.5746,41.8587],[-71.7947,41.8544],[-71.7978,41.9286],[-71.5903,41.9337],[-71.5746,41.8587]]]}},{"type":"Feature","properties":{"leaid":"4400510","name":"Jamestown School District","kind":"Elementary","gradeLow":"PK","gradeHigh":"12","state":"RI"},"geometry":{"type":"MultiPolygon","coordinates":[[[[-71.3596,41.4626],[-71.3601,41.4624],[-71.3598,41.4631],[-71.3596,41.4626]]],[[[-71.3604,41.465],[-71.36,41.4647],[-71.3606,41.4649],[-71.3604,41.465]]],[[[-71.3614,41.4651],[-71.3607,41.465],[-71.3616,41.4647],[-71.3614,41.4651]]],[[[-71.3396,41.4786],[-71.3481,41.4706],[-71.3531,41.4695],[-71.354,41.4684],[-71.3558,41.4673],[-71.3563,41.4664],[-71.3575,41.4662],[-71.3588,41.4639],[-71.3577,41.4661],[-71.3528,41.4698],[-71.3478,41.4712],[-71.3409,41.4777],[-71.3396,41.4786]]],[[[-71.3381,41.4809],[-71.3382,41.4813],[-71.3377,41.4811],[-71.3381,41.4809]]],[[[-71.3999,41.5068],[-71.3964,41.5059],[-71.3956,41.5033],[-71.402,41.4998],[-71.4044,41.4959],[-71.4037,41.5046],[-71.3999,41.5068]]],[[[-71.3279,41.5191],[-71.3308,41.518],[-71.3276,41.5204],[-71.3279,41.5191]]],[[[-71.3127,41.5215],[-71.3133,41.5216],[-71.3133,41.5216],[-71.3127,41.5215]]],[[[-71.3137,41.5206],[-71.3204,41.5197],[-71.3232,41.5225],[-71.3137,41.5206]]],[[[-71.3457,41.5396],[-71.3441,41.539],[-71.3458,41.5383],[-71.3432,41.536],[-71.3424,41.5307],[-71.3433,41.5293],[-71.3458,41.5298],[-71.3462,41.5356],[-71.3457,41.5396]]],[[[-71.3608,41.5258],[-71.3619,41.5253],[-71.3628,41.5201],[-71.3655,41.5164],[-71.3661,41.5133],[-71.3638,41.5106],[-71.3597,41.5111],[-71.3577,41.5083],[-71.3595,41.5035],[-71.3661,41.4988],[-71.3667,41.495],[-71.3622,41.4876],[-71.3602,41.4862],[-71.3603,41.4829],[-71.3552,41.481],[-71.3548,41.4798],[-71.3577,41.4794],[-71.3571,41.4782],[-71.359,41.4768],[-71.3602,41.4775],[-71.3599,41.4786],[-71.3619,41.4773],[-71.3619,41.4789],[-71.364,41.4767],[-71.3713,41.4779],[-71.3727,41.4746],[-71.3754,41.4741],[-71.3771,41.4749],[-71.376,41.4761],[-71.3774,41.4762],[-71.3766,41.4783],[-71.3782,41.4793],[-71.378,41.4824],[-71.3806,41.4878],[-71.3826,41.4888],[-71.3857,41.4882],[-71.3865,41.4866],[-71.3818,41.4714],[-71.382,41.4674],[-71.3843,41.4641],[-71.3884,41.4658],[-71.39,41.4653],[-71.3893,41.4606],[-71.3903,41.455],[-71.4,41.4488],[-71.4006,41.4609],[-71.3947,41.4672],[-71.3976,41.4739],[-71.3971,41.4826],[-71.3983,41.4876],[-71.4003,41.4891],[-71.3998,41.4921],[-71.3963,41.4943],[-71.3954,41.4922],[-71.3978,41.4885],[-71.3969,41.4881],[-71.3935,41.4908],[-71.3953,41.4913],[-71.3951,41.4925],[-71.3886,41.4928],[-71.3866,41.4919],[-71.3859,41.4887],[-71.3819,41.4893],[-71.381,41.4919],[-71.3851,41.4928],[-71.3844,41.4946],[-71.386,41.496],[-71.3842,41.5001],[-71.378,41.506],[-71.3762,41.5062],[-71.3711,41.5088],[-71.3729,41.508],[-71.3717,41.5095],[-71.3735,41.5092],[-71.3781,41.5061],[-71.3807,41.5068],[-71.3909,41.5146],[-71.3923,41.5222],[-71.3896,41.5329],[-71.3857,41.539],[-71.3865,41.5462],[-71.3847,41.5581],[-71.3815,41.5597],[-71.379,41.5675],[-71.3723,41.5739],[-71.3661,41.5726],[-71.3634,41.5707],[-71.3608,41.5603],[-71.36,41.5489],[-71.3649,41.5407],[-71.3608,41.5258]]]]}},{"type":"Feature","properties":{"leaid":"4400600","name":"Little Compton School District","kind":"Elementary","gradeLow":"PK","gradeHigh":"12","state":"RI"},"geometry":{"type":"Polygon","coordinates":[[[-71.1206,41.4974],[-71.1253,41.4975],[-71.1228,41.5],[-71.1209,41.4997],[-71.1258,41.5101],[-71.1289,41.5107],[-71.127,41.5136],[-71.1286,41.5149],[-71.1289,41.512],[-71.1312,41.513],[-71.1374,41.5199],[-71.1353,41.5083],[-71.136,41.507],[-71.1326,41.4964],[-71.1278,41.4997],[-71.1261,41.4995],[-71.1256,41.4971],[-71.1348,41.4949],[-71.1399,41.4994],[-71.143,41.5002],[-71.1423,41.4972],[-71.1384,41.4935],[-71.1357,41.495],[-71.135,41.4947],[-71.1411,41.4899],[-71.1394,41.4836],[-71.1429,41.4814],[-71.1463,41.4813],[-71.1456,41.4823],[-71.147,41.4827],[-71.1462,41.4783],[-71.1504,41.4762],[-71.1594,41.4756],[-71.162,41.474],[-71.163,41.4718],[-71.1672,41.4713],[-71.168,41.4727],[-71.1637,41.4724],[-71.1631,41.4732],[-71.1641,41.4734],[-71.1584,41.4773],[-71.1609,41.4802],[-71.1676,41.4838],[-71.1674,41.48],[-71.172,41.48],[-71.1704,41.4712],[-71.1683,41.4718],[-71.1689,41.4726],[-71.1678,41.472],[-71.1705,41.468],[-71.169,41.4612],[-71.1755,41.4613],[-71.1763,41.4599],[-71.1788,41.4611],[-71.1809,41.46],[-71.1846,41.4606],[-71.1887,41.4586],[-71.1919,41.4587],[-71.1954,41.4539],[-71.1948,41.4582],[-71.1969,41.4611],[-71.1967,41.4653],[-71.195,41.4637],[-71.1924,41.4644],[-71.1933,41.4689],[-71.1919,41.4721],[-71.1924,41.4746],[-71.19,41.4784],[-71.1916,41.482],[-71.1902,41.4841],[-71.1994,41.4918],[-71.2,41.4964],[-71.2064,41.4993],[-71.2049,41.5062],[-71.2008,41.5147],[-71.2048,41.5186],[-71.2047,41.5229],[-71.2085,41.529],[-71.2051,41.5403],[-71.2064,41.5432],[-71.2051,41.5438],[-71.2118,41.5454],[-71.1278,41.5632],[-71.1224,41.5221],[-71.1206,41.4974]]]}},{"type":"Feature","properties":{"leaid":"4400030","name":"Barrington School District","kind":"Unified","gradeLow":"PK","gradeHigh":"12","state":"RI"},"geometry":{"type":"MultiPolygon","coordinates":[[[[-71.3549,41.7464],[-71.3556,41.746],[-71.3553,41.7468],[-71.3549,41.7464]]],[[[-71.3177,41.7613],[-71.319,41.7611],[-71.3189,41.7636],[-71.3168,41.7644],[-71.3177,41.7613]]],[[[-71.3164,41.7652],[-71.3174,41.7649],[-71.3184,41.7653],[-71.3176,41.7659],[-71.3164,41.7652]]],[[[-71.3206,41.774],[-71.3206,41.7681],[-71.3224,41.7726],[-71.3198,41.76],[-71.321,41.7588],[-71.3202,41.7573],[-71.3211,41.7556],[-71.3222,41.7571],[-71.3219,41.7528],[-71.3124,41.7433],[-71.306,41.7409],[-71.3002,41.7409],[-71.2951,41.7324],[-71.291,41.7317],[-71.2882,41.728],[-71.2891,41.7241],[-71.2925,41.7219],[-71.2921,41.7186],[-71.2934,41.7156],[-71.2968,41.7182],[-71.2956,41.7189],[-71.2985,41.7228],[-71.297,41.719],[-71.2994,41.7171],[-71.2985,41.7097],[-71.3021,41.7058],[-71.3049,41.7074],[-71.3079,41.7129],[-71.307,41.7155],[-71.3058,41.7151],[-71.3056,41.7188],[-71.3156,41.724],[-71.3387,41.7248],[-71.3413,41.7305],[-71.3422,41.738],[-71.3433,41.7359],[-71.3477,41.7407],[-71.348,41.7434],[-71.3461,41.7437],[-71.3459,41.7464],[-71.3479,41.7462],[-71.3473,41.7453],[-71.3487,41.743],[-71.3527,41.7456],[-71.351,41.7507],[-71.3515,41.7526],[-71.3206,41.774]]],[[[-71.3179,41.7762],[-71.2844,41.762],[-71.2892,41.7636],[-71.2899,41.7625],[-71.2858,41.7623],[-71.2867,41.7598],[-71.2853,41.7594],[-71.2874,41.7585],[-71.2872,41.7559],[-71.2891,41.7544],[-71.2881,41.752],[-71.2901,41.7513],[-71.2883,41.7501],[-71.2894,41.7474],[-71.2887,41.7417],[-71.2909,41.7383],[-71.29,41.7376],[-71.2906,41.7336],[-71.2919,41.733],[-71.2991,41.7419],[-71.3044,41.7451],[-71.3049,41.744],[-71.3085,41.7444],[-71.3099,41.7455],[-71.3096,41.7476],[-71.3105,41.7468],[-71.318,41.752],[-71.3172,41.7546],[-71.3148,41.7566],[-71.3112,41.7582],[-71.3056,41.7574],[-71.3018,41.7617],[-71.3024,41.7649],[-71.307,41.7666],[-71.3091,41.7662],[-71.31,41.7639],[-71.3138,41.7611],[-71.3183,41.7594],[-71.3084,41.7671],[-71.3133,41.7655],[-71.3159,41.766],[-71.316,41.7687],[-71.3164,41.7662],[-71.3178,41.7676],[-71.317,41.77],[-71.318,41.7725],[-71.3169,41.7722],[-71.3199,41.7746],[-71.3179,41.7762]]]]}},{"type":"Feature","properties":{"leaid":"4400065","name":"Bristol-Warren Regional School District","kind":"Unified","gradeLow":"PK","gradeHigh":"12","state":"RI"},"geometry":{"type":"MultiPolygon","coordinates":[[[[-71.2883,41.7331],[-71.2893,41.733],[-71.2898,41.7338],[-71.2892,41.7342],[-71.2883,41.7331]]],[[[-71.2844,41.762],[-71.2611,41.7521],[-71.2253,41.7105],[-71.2275,41.7057],[-71.2313,41.7041],[-71.2337,41.701],[-71.2411,41.6977],[-71.2431,41.6982],[-71.2422,41.6981],[-71.2424,41.7023],[-71.2439,41.7038],[-71.2421,41.7044],[-71.2378,41.7023],[-71.2365,41.7041],[-71.2418,41.7054],[-71.2407,41.7075],[-71.2429,41.7165],[-71.244,41.7153],[-71.2476,41.7163],[-71.251,41.7186],[-71.2513,41.7213],[-71.252,41.7184],[-71.2548,41.7175],[-71.258,41.7241],[-71.2576,41.7256],[-71.2619,41.7232],[-71.2628,41.7257],[-71.2612,41.7275],[-71.2627,41.7269],[-71.2618,41.7294],[-71.2636,41.7308],[-71.2639,41.7349],[-71.2593,41.739],[-71.2584,41.7415],[-71.2599,41.7426],[-71.2607,41.7418],[-71.2598,41.7399],[-71.2652,41.7351],[-71.2648,41.7301],[-71.2632,41.7285],[-71.2643,41.7239],[-71.262,41.7219],[-71.2622,41.7206],[-71.2589,41.7185],[-71.2601,41.7158],[-71.2499,41.7041],[-71.2484,41.7038],[-71.2483,41.7016],[-71.2447,41.7007],[-71.2466,41.6977],[-71.2449,41.6983],[-71.246,41.6963],[-71.2351,41.6772],[-71.2367,41.6674],[-71.2384,41.6658],[-71.2403,41.6657],[-71.2433,41.668],[-71.2515,41.6642],[-71.2536,41.6597],[-71.2546,41.652],[-71.259,41.6432],[-71.2615,41.6423],[-71.267,41.6449],[-71.2703,41.6522],[-71.268,41.6563],[-71.268,41.66],[-71.2723,41.6612],[-71.2781,41.6665],[-71.2781,41.669],[-71.2804,41.6721],[-71.2796,41.6788],[-71.2813,41.6788],[-71.2855,41.6821],[-71.2873,41.6801],[-71.2889,41.6801],[-71.2876,41.6739],[-71.2883,41.6678],[-71.2908,41.6621],[-71.2934,41.6604],[-71.2949,41.6621],[-71.2965,41.661],[-71.2993,41.6491],[-71.3012,41.65],[-71.3036,41.6544],[-71.3063,41.6726],[-71.3028,41.6819],[-71.2991,41.6815],[-71.2938,41.6867],[-71.2909,41.7026],[-71.2909,41.7126],[-71.2857,41.7149],[-71.2849,41.7169],[-71.2889,41.7378],[-71.287,41.7401],[-71.2769,41.7315],[-71.275,41.733],[-71.2802,41.737],[-71.2792,41.7391],[-71.2812,41.7415],[-71.2789,41.744],[-71.2812,41.7449],[-71.2808,41.751],[-71.2832,41.7511],[-71.2819,41.7531],[-71.2821,41.7565],[-71.2833,41.7568],[-71.2813,41.7575],[-71.2844,41.762]]]]}},{"type":"Feature","properties":{"leaid":"4400090","name":"Burrillville School District","kind":"Unified","gradeLow":"PK","gradeHigh":"12","state":"RI"},"geometry":{"type":"Polygon","coordinates":[[[-71.5903,41.9337],[-71.7978,41.9286],[-71.7992,42.0081],[-71.6067,42.0133],[-71.5903,41.9337]]]}},{"type":"Feature","properties":{"leaid":"4400120","name":"Central Falls School District","kind":"Unified","gradeLow":"PK","gradeHigh":"12","state":"RI"},"geometry":{"type":"Polygon","coordinates":[[[-71.3815,41.8935],[-71.3831,41.8899],[-71.3802,41.8879],[-71.3809,41.8841],[-71.4037,41.8811],[-71.4073,41.8916],[-71.4047,41.8948],[-71.3882,41.8998],[-71.3859,41.8996],[-71.383,41.8971],[-71.3815,41.8935]]]}},{"type":"Feature","properties":{"leaid":"4400150","name":"Chariho Regional School District","kind":"Unified","gradeLow":"PK","gradeHigh":"12","state":"RI"},"geometry":{"type":"MultiPolygon","coordinates":[[[[-71.7232,41.3363],[-71.7185,41.3311],[-71.7299,41.3314],[-71.7282,41.3344],[-71.7253,41.3345],[-71.7255,41.336],[-71.7232,41.3363]]],[[[-71.7171,41.3406],[-71.7186,41.3408],[-71.7193,41.3417],[-71.7171,41.3415],[-71.7171,41.3406]]],[[[-71.6515,41.3586],[-71.6528,41.3575],[-71.6532,41.3589],[-71.6515,41.3586]]],[[[-71.6245,41.3639],[-71.6257,41.3605],[-71.6383,41.3551],[-71.6382,41.3611],[-71.6338,41.3621],[-71.6343,41.3608],[-71.6326,41.3603],[-71.633,41.3615],[-71.6317,41.3614],[-71.6316,41.3627],[-71.6301,41.3621],[-71.6245,41.3639]]],[[[-71.6317,41.3658],[-71.6293,41.3648],[-71.6287,41.3637],[-71.6317,41.3658]]],[[[-71.634,41.3657],[-71.6315,41.3645],[-71.631,41.3633],[-71.6337,41.3638],[-71.634,41.3657]]],[[[-71.6075,41.5023],[-71.6095,41.4979],[-71.6089,41.4954],[-71.6072,41.4941],[-71.6086,41.4929],[-71.6079,41.4902],[-71.6089,41.4877],[-71.6043,41.4865],[-71.6007,41.4794],[-71.6013,41.4777],[-71.6056,41.4765],[-71.6056,41.4742],[-71.5992,41.4668],[-71.5968,41.4618],[-71.5986,41.458],[-71.6089,41.4522],[-71.6029,41.4494],[-71.6013,41.4503],[-71.5982,41.4496],[-71.5951,41.4462],[-71.6222,41.3705],[-71.6257,41.3707],[-71.623,41.3683],[-71.6237,41.3662],[-71.6276,41.3643],[-71.6271,41.365],[-71.6284,41.3651],[-71.6301,41.3691],[-71.6352,41.3684],[-71.6374,41.3722],[-71.6401,41.3695],[-71.645,41.369],[-71.6437,41.3713],[-71.6458,41.3725],[-71.644,41.3736],[-71.6427,41.3771],[-71.6447,41.3778],[-71.644,41.3805],[-71.6519,41.381],[-71.6507,41.3788],[-71.6475,41.3787],[-71.6511,41.3758],[-71.6493,41.3755],[-71.6487,41.3733],[-71.6526,41.3722],[-71.6523,41.3705],[-71.6534,41.3701],[-71.6515,41.3691],[-71.6522,41.3672],[-71.6493,41.3671],[-71.6536,41.3659],[-71.6536,41.364],[-71.6568,41.3618],[-71.6546,41.3602],[-71.6602,41.3601],[-71.6604,41.3581],[-71.6624,41.3566],[-71.6653,41.3572],[-71.6658,41.3597],[-71.6674,41.3575],[-71.6699,41.3572],[-71.6813,41.3586],[-71.6862,41.3615],[-71.6864,41.3601],[-71.6938,41.3551],[-71.6938,41.3526],[-71.6956,41.3543],[-71.6984,41.3507],[-71.6942,41.343],[-71.6845,41.3468],[-71.6613,41.3526],[-71.6608,41.3534],[-71.6642,41.3528],[-71.6586,41.3549],[-71.6562,41.3545],[-71.6536,41.3564],[-71.651,41.3554],[-71.6499,41.3575],[-71.6467,41.3561],[-71.6461,41.3586],[-71.6483,41.3624],[-71.647,41.363],[-71.6452,41.3616],[-71.6458,41.3596],[-71.644,41.3582],[-71.645,41.3602],[-71.6441,41.36],[-71.6427,41.3576],[-71.6436,41.3626],[-71.642,41.3641],[-71.6423,41.3622],[-71.6407,41.3634],[-71.6398,41.3619],[-71.6401,41.3651],[-71.6382,41.3649],[-71.6367,41.3627],[-71.6401,41.3611],[-71.6389,41.3598],[-71.639,41.3552],[-71.6534,41.3526],[-71.6881,41.3428],[-71.6981,41.3392],[-71.7057,41.3337],[-71.7182,41.3307],[-71.7175,41.3318],[-71.7229,41.3367],[-71.7228,41.339],[-71.7193,41.3398],[-71.7183,41.338],[-71.7208,41.3392],[-71.7197,41.3375],[-71.7169,41.3381],[-71.7179,41.3361],[-71.7163,41.3361],[-71.7155,41.3396],[-71.7166,41.3396],[-71.7155,41.3403],[-71.7132,41.339],[-71.714,41.3366],[-71.7124,41.3373],[-71.7123,41.3445],[-71.7092,41.3471],[-71.7088,41.3498],[-71.7096,41.3515],[-71.7118,41.3513],[-71.7105,41.3502],[-71.7139,41.3515],[-71.7223,41.3465],[-71.7238,41.3482],[-71.7247,41.3451],[-71.728,41.3441],[-71.7289,41.3451],[-71.7304,41.343],[-71.7312,41.3983],[-71.7351,41.3995],[-71.731,41.4008],[-71.7374,41.4],[-71.7394,41.4017],[-71.743,41.4014],[-71.7481,41.4046],[-71.7482,41.4073],[-71.7555,41.4079],[-71.7583,41.4041],[-71.7635,41.4012],[-71.7657,41.3963],[-71.7676,41.3949],[-71.7705,41.3982],[-71.7693,41.3996],[-71.7674,41.399],[-71.7676,41.3998],[-71.7707,41.4014],[-71.7723,41.4007],[-71.7714,41.3972],[-71.7734,41.396],[-71.7754,41.3941],[-71.7732,41.396],[-71.7737,41.395],[-71.7768,41.3933],[-71.7789,41.3946],[-71.7811,41.3932],[-71.7788,41.3896],[-71.7796,41.3868],[-71.7814,41.389],[-71.7835,41.3865],[-71.7847,41.3884],[-71.7838,41.3897],[-71.7867,41.3897],[-71.7905,41.3928],[-71.7921,41.3921],[-71.7972,41.3932],[-71.7983,41.3965],[-71.7941,41.3973],[-71.7997,41.3986],[-71.8006,41.4012],[-71.8035,41.4041],[-71.7988,41.405],[-71.796,41.4073],[-71.7981,41.408],[-71.7986,41.4101],[-71.796,41.4147],[-71.7977,41.4169],[-71.7914,41.5461],[-71.6207,41.5643],[-71.6085,41.5028],[-71.6075,41.5023]]]]}},{"type":"Feature","properties":{"leaid":"4400210","name":"Coventry School District","kind":"Unified","gradeLow":"PK","gradeHigh":"12","state":"RI"},"geometry":{"type":"Polygon","coordinates":[[[-71.5474,41.7312],[-71.546,41.7301],[-71.5343,41.7302],[-71.5334,41.6622],[-71.7872,41.6561],[-71.7897,41.7252],[-71.5474,41.73],[-71.5474,41.7312]]]}},{"type":"Feature","properties":{"leaid":"4400240","name":"Cranston School District","kind":"Unified","gradeLow":"PK","gradeHigh":"12","state":"RI"},"geometry":{"type":"MultiPolygon","coordinates":[[[[-71.3841,41.7589],[-71.3838,41.7583],[-71.3843,41.7586],[-71.3841,41.7589]]],[[[-71.3875,41.7622],[-71.3875,41.7619],[-71.3878,41.7625],[-71.3875,41.7622]]],[[[-71.4421,41.8065],[-71.4393,41.802],[-71.4393,41.7972],[-71.4368,41.7887],[-71.4342,41.7863],[-71.4206,41.7862],[-71.4238,41.7773],[-71.4194,41.7763],[-71.4149,41.7731],[-71.4119,41.7724],[-71.41,41.7738],[-71.4088,41.7781],[-71.4051,41.7793],[-71.4031,41.783],[-71.4043,41.7858],[-71.3894,41.7863],[-71.3837,41.7853],[-71.3871,41.7837],[-71.3869,41.7826],[-71.3884,41.7834],[-71.3877,41.7823],[-71.3886,41.7819],[-71.3904,41.7828],[-71.3914,41.7809],[-71.3901,41.7761],[-71.3876,41.7733],[-71.3885,41.7692],[-71.3852,41.7671],[-71.3845,41.7632],[-71.3856,41.7601],[-71.3882,41.7654],[-71.3945,41.7641],[-71.3959,41.767],[-71.3998,41.7683],[-71.4008,41.7665],[-71.4035,41.7679],[-71.4107,41.7666],[-71.414,41.7631],[-71.4197,41.7616],[-71.4187,41.7641],[-71.4209,41.7649],[-71.4273,41.7607],[-71.4306,41.7609],[-71.4331,41.7593],[-71.4338,41.7614],[-71.435,41.7599],[-71.4376,41.7598],[-71.4385,41.7579],[-71.4407,41.7578],[-71.4391,41.7564],[-71.4411,41.7549],[-71.4406,41.7522],[-71.4466,41.7499],[-71.444,41.7433],[-71.4443,41.7404],[-71.4517,41.7395],[-71.4539,41.7369],[-71.453,41.7337],[-71.4553,41.7324],[-71.5343,41.7302],[-71.546,41.7301],[-71.5474,41.7312],[-71.5593,41.7893],[-71.5473,41.7921],[-71.535,41.7933],[-71.5182,41.7887],[-71.5031,41.7891],[-71.4898,41.7915],[-71.4811,41.7966],[-71.4724,41.7964],[-71.4713,41.7985],[-71.4677,41.798],[-71.466,41.8037],[-71.4637,41.805],[-71.4421,41.8065]]]]}},{"type":"Feature","properties":{"leaid":"4400270","name":"Cumberland School District","kind":"Unified","gradeLow":"PK","gradeHigh":"12","state":"RI"},"geometry":{"type":"Polygon","coordinates":[[[-71.3814,42.0188],[-71.3813,41.9851],[-71.3815,41.8935],[-71.383,41.8971],[-71.3859,41.8996],[-71.3943,41.8977],[-71.4005,41.9014],[-71.3975,41.9114],[-71.4059,41.9112],[-71.4184,41.9188],[-71.4217,41.9221],[-71.429,41.9241],[-71.4309,41.927],[-71.4314,41.9354],[-71.4429,41.9477],[-71.4506,41.9496],[-71.4516,41.9524],[-71.4552,41.9556],[-71.4618,41.9574],[-71.465,41.966],[-71.4649,41.9691],[-71.4741,41.9726],[-71.4787,41.9771],[-71.4874,41.9791],[-71.4599,42.0076],[-71.4581,42.0178],[-71.3814,42.0188]]]}},{"type":"Feature","properties":{"leaid":"4400300","name":"East Greenwich School District","kind":"Unified","gradeLow":"PK","gradeHigh":"12","state":"RI"},"geometry":{"type":"Polygon","coordinates":[[[-71.4443,41.664],[-71.445,41.6589],[-71.4523,41.6521],[-71.4521,41.6494],[-71.4552,41.6474],[-71.4581,41.6498],[-71.4657,41.6431],[-71.4648,41.6389],[-71.4687,41.6386],[-71.4678,41.6342],[-71.4697,41.6345],[-71.4722,41.6327],[-71.4713,41.6291],[-71.4794,41.6242],[-71.4825,41.6236],[-71.4833,41.6215],[-71.4861,41.6198],[-71.486,41.6169],[-71.4877,41.6168],[-71.488,41.6152],[-71.4875,41.6135],[-71.4854,41.6129],[-71.4844,41.6026],[-71.5448,41.602],[-71.5471,41.6619],[-71.4443,41.664]]]}},{"type":"Feature","properties":{"leaid":"4400330","name":"East Providence School District","kind":"Unified","gradeLow":"PK","gradeHigh":"12","state":"RI"},"geometry":{"type":"MultiPolygon","coordinates":[[[[-71.3671,41.7777],[-71.3669,41.7766],[-71.3676,41.7774],[-71.3671,41.7777]]],[[[-71.3686,41.7774],[-71.3692,41.7772],[-71.3684,41.7781],[-71.3686,41.7774]]],[[[-71.3726,41.7889],[-71.3726,41.7887],[-71.3727,41.789],[-71.3726,41.7889]]],[[[-71.3347,41.8613],[-71.3426,41.8447],[-71.3354,41.8356],[-71.3452,41.8277],[-71.3475,41.8232],[-71.3393,41.8085],[-71.3391,41.8058],[-71.3412,41.7998],[-71.3405,41.797],[-71.3346,41.7948],[-71.3322,41.791],[-71.3327,41.7902],[-71.3295,41.7883],[-71.3304,41.7854],[-71.3285,41.7807],[-71.3179,41.7762],[-71.3199,41.7746],[-71.3213,41.7753],[-71.3216,41.7773],[-71.3232,41.7773],[-71.3206,41.774],[-71.3515,41.7526],[-71.3527,41.7544],[-71.35,41.7551],[-71.3509,41.7566],[-71.3513,41.7554],[-71.3538,41.7564],[-71.3522,41.7583],[-71.3554,41.7625],[-71.3541,41.7591],[-71.3556,41.7582],[-71.3547,41.7572],[-71.3554,41.7539],[-71.3586,41.7555],[-71.3591,41.7541],[-71.3555,41.7498],[-71.3565,41.7481],[-71.3556,41.746],[-71.3573,41.745],[-71.3592,41.7454],[-71.3616,41.7512],[-71.3619,41.7617],[-71.3643,41.7645],[-71.3693,41.7658],[-71.3656,41.7717],[-71.3649,41.7765],[-71.3718,41.7834],[-71.3697,41.7831],[-71.371,41.7883],[-71.3761,41.7939],[-71.38,41.7953],[-71.3787,41.7973],[-71.3836,41.8023],[-71.3876,41.8035],[-71.3861,41.8049],[-71.3905,41.8111],[-71.395,41.8107],[-71.3922,41.8121],[-71.3919,41.8152],[-71.387,41.8164],[-71.3833,41.8204],[-71.3822,41.8235],[-71.3741,41.8308],[-71.3688,41.8386],[-71.3722,41.8404],[-71.3674,41.849],[-71.3689,41.8501],[-71.3698,41.8491],[-71.3712,41.8509],[-71.3682,41.8528],[-71.3692,41.8547],[-71.375,41.8575],[-71.3347,41.8613]]]]}},{"type":"Feature","properties":{"leaid":"4400540","name":"Johnston School District","kind":"Unified","gradeLow":"PK","gradeHigh":"12","state":"RI"},"geometry":{"type":"Polygon","coordinates":[[[-71.4733,41.839],[-71.4724,41.8341],[-71.4649,41.8312],[-71.4619,41.8251],[-71.4718,41.8242],[-71.4666,41.8107],[-71.4687,41.8106],[-71.4668,41.8078],[-71.4692,41.8049],[-71.4671,41.8045],[-71.4647,41.8059],[-71.4637,41.805],[-71.466,41.8037],[-71.4676,41.7981],[-71.4713,41.7985],[-71.4724,41.7964],[-71.4811,41.7966],[-71.4898,41.7915],[-71.5031,41.7891],[-71.5182,41.7887],[-71.535,41.7933],[-71.5599,41.7894],[-71.5746,41.8587],[-71.4955,41.869],[-71.4883,41.8623],[-71.4856,41.8535],[-71.4811,41.8511],[-71.4808,41.846],[-71.4776,41.8415],[-71.4776,41.8382],[-71.4733,41.839]]]}},{"type":"Feature","properties":{"leaid":"4400570","name":"Lincoln School District","kind":"Unified","gradeLow":"PK","gradeHigh":"12","state":"RI"},"geometry":{"type":"Polygon","coordinates":[[[-71.3943,41.8977],[-71.4047,41.8948],[-71.4073,41.8916],[-71.4037,41.8811],[-71.4668,41.8728],[-71.4908,41.9432],[-71.4881,41.9444],[-71.4849,41.9424],[-71.484,41.9443],[-71.4843,41.9459],[-71.4874,41.9471],[-71.4867,41.9499],[-71.4881,41.9548],[-71.487,41.9563],[-71.485,41.9561],[-71.4873,41.9585],[-71.4861,41.9603],[-71.4877,41.9633],[-71.4864,41.9662],[-71.4883,41.9683],[-71.4867,41.9697],[-71.4891,41.9747],[-71.4879,41.9786],[-71.4787,41.9771],[-71.4741,41.9726],[-71.4649,41.9691],[-71.465,41.966],[-71.4618,41.9574],[-71.4552,41.9556],[-71.4516,41.9524],[-71.4506,41.9496],[-71.4429,41.9477],[-71.4314,41.9354],[-71.4309,41.927],[-71.4287,41.9238],[-71.4217,41.9221],[-71.4184,41.9188],[-71.4059,41.9112],[-71.3992,41.9121],[-71.3974,41.9113],[-71.4007,41.9017],[-71.3943,41.8977]]]}},{"type":"Feature","properties":{"leaid":"4400630","name":"Middletown School District","kind":"Unified","gradeLow":"PK","gradeHigh":"12","state":"RI"},"geometry":{"type":"Polygon","coordinates":[[[-71.2334,41.514],[-71.2348,41.5137],[-71.2365,41.5095],[-71.2406,41.5058],[-71.2397,41.5043],[-71.2417,41.4992],[-71.2467,41.4943],[-71.2479,41.4908],[-71.2466,41.4873],[-71.2442,41.4858],[-71.2373,41.4861],[-71.2375,41.4818],[-71.2396,41.4798],[-71.2408,41.4752],[-71.2437,41.4751],[-71.2478,41.4718],[-71.2454,41.4806],[-71.2499,41.4844],[-71.2566,41.4873],[-71.2672,41.4889],[-71.2698,41.4831],[-71.275,41.4795],[-71.2771,41.4801],[-71.2823,41.4882],[-71.2859,41.4892],[-71.3019,41.5061],[-71.3127,41.5215],[-71.3118,41.5222],[-71.3122,41.524],[-71.3138,41.5237],[-71.3122,41.5242],[-71.3134,41.5275],[-71.3182,41.5272],[-71.3128,41.5286],[-71.3135,41.5309],[-71.3191,41.5303],[-71.3138,41.5314],[-71.313,41.5348],[-71.3144,41.5355],[-71.3132,41.5363],[-71.3141,41.5359],[-71.3139,41.5367],[-71.3121,41.5363],[-71.3076,41.5411],[-71.3079,41.543],[-71.3106,41.5446],[-71.3106,41.5468],[-71.3049,41.5566],[-71.307,41.5572],[-71.305,41.5569],[-71.3014,41.5626],[-71.2806,41.547],[-71.2657,41.5383],[-71.2334,41.514]]]}},{"type":"Feature","properties":{"leaid":"4400660","name":"Narragansett School District","kind":"Unified","gradeLow":"PK","gradeHigh":"12","state":"RI"},"geometry":{"type":"MultiPolygon","coordinates":[[[[-71.5207,41.3785],[-71.5207,41.3785],[-71.5206,41.3786],[-71.5207,41.3785]]],[[[-71.5196,41.3798],[-71.5191,41.3794],[-71.5202,41.379],[-71.5196,41.3798]]],[[[-71.5171,41.3824],[-71.5148,41.3741],[-71.5172,41.3758],[-71.5229,41.3766],[-71.5177,41.3793],[-71.5192,41.38],[-71.5171,41.3824]]],[[[-71.4978,41.3968],[-71.5,41.396],[-71.4993,41.3952],[-71.5005,41.3943],[-71.4979,41.395],[-71.4944,41.3928],[-71.4993,41.3926],[-71.4973,41.3898],[-71.4991,41.3904],[-71.5047,41.3851],[-71.5071,41.3844],[-71.5081,41.3859],[-71.512,41.3847],[-71.5121,41.3858],[-71.5101,41.3868],[-71.5077,41.3862],[-71.5066,41.3886],[-71.5084,41.3874],[-71.5095,41.3881],[-71.5073,41.3897],[-71.5072,41.3914],[-71.5008,41.3933],[-71.5015,41.3955],[-71.503,41.3952],[-71.5037,41.3968],[-71.5011,41.3964],[-71.4978,41.3986],[-71.4978,41.3968]]],[[[-71.5022,41.4047],[-71.4968,41.4058],[-71.4958,41.4035],[-71.4982,41.3997],[-71.5005,41.4043],[-71.4992,41.4052],[-71.5017,41.4038],[-71.5022,41.4047]]],[[[-71.4684,41.4417],[-71.4695,41.4411],[-71.4697,41.4412],[-71.4684,41.4417]]],[[[-71.4666,41.4423],[-71.4673,41.442],[-71.4678,41.4419],[-71.4666,41.4423]]],[[[-71.4507,41.4493],[-71.4463,41.4425],[-71.4411,41.4418],[-71.449,41.4385],[-71.4558,41.433],[-71.4545,41.4306],[-71.4556,41.4269],[-71.455,41.4225],[-71.4527,41.4175],[-71.4527,41.4093],[-71.4565,41.4069],[-71.4562,41.4046],[-71.462,41.4015],[-71.4629,41.3959],[-71.4687,41.394],[-71.4749,41.3861],[-71.4759,41.3841],[-71.4743,41.3829],[-71.4759,41.3831],[-71.483,41.3722],[-71.4834,41.3674],[-71.4806,41.3631],[-71.4804,41.3607],[-71.4883,41.3615],[-71.4897,41.363],[-71.4886,41.3636],[-71.4995,41.3724],[-71.5076,41.3748],[-71.5134,41.3747],[-71.513,41.3772],[-71.5101,41.38],[-71.512,41.3811],[-71.5114,41.3829],[-71.5074,41.384],[-71.5055,41.3815],[-71.504,41.3824],[-71.503,41.381],[-71.5014,41.3823],[-71.5004,41.3806],[-71.4999,41.3825],[-71.4986,41.3802],[-71.4972,41.3828],[-71.4983,41.3842],[-71.4899,41.3931],[-71.4902,41.3962],[-71.4912,41.3932],[-71.492,41.393],[-71.4918,41.3976],[-71.4942,41.3968],[-71.4954,41.3981],[-71.4951,41.3992],[-71.4943,41.3981],[-71.4924,41.399],[-71.4944,41.3999],[-71.4942,41.402],[-71.4933,41.4055],[-71.4929,41.4043],[-71.4919,41.4059],[-71.4904,41.4055],[-71.4919,41.4065],[-71.49,41.408],[-71.4905,41.4092],[-71.4937,41.4082],[-71.4928,41.4074],[-71.4921,41.4083],[-71.4923,41.4068],[-71.4953,41.4075],[-71.4974,41.4066],[-71.4977,41.4096],[-71.5008,41.4112],[-71.4986,41.4121],[-71.4984,41.4135],[-71.4995,41.415],[-71.5009,41.4139],[-71.5026,41.4159],[-71.5006,41.4159],[-71.4998,41.4174],[-71.4976,41.4158],[-71.4963,41.4187],[-71.4945,41.4197],[-71.494,41.4171],[-71.4965,41.417],[-71.4936,41.4161],[-71.4947,41.4155],[-71.4935,41.4116],[-71.4922,41.4116],[-71.4925,41.41],[-71.491,41.4104],[-71.4932,41.4144],[-71.4918,41.4188],[-71.4939,41.4196],[-71.4921,41.4224],[-71.4932,41.4228],[-71.4941,41.4272],[-71.4928,41.4267],[-71.4916,41.43],[-71.4835,41.4354],[-71.4724,41.4401],[-71.4732,41.4385],[-71.4698,41.4389],[-71.4657,41.4421],[-71.4628,41.4419],[-71.4586,41.4445],[-71.458,41.443],[-71.4563,41.443],[-71.4555,41.4458],[-71.4507,41.4493]]],[[[-71.4471,41.4882],[-71.4478,41.4867],[-71.4469,41.4886],[-71.4471,41.4882]]],[[[-71.4469,41.4902],[-71.4469,41.4898],[-71.4471,41.4904],[-71.4469,41.4902]]],[[[-71.418,41.4813],[-71.4183,41.4726],[-71.4208,41.4698],[-71.423,41.4727],[-71.4307,41.4706],[-71.4297,41.4616],[-71.4267,41.4589],[-71.4259,41.4558],[-71.4305,41.4526],[-71.4324,41.445],[-71.4346,41.4446],[-71.4356,41.442],[-71.438,41.442],[-71.4376,41.4408],[-71.4392,41.4395],[-71.4411,41.4429],[-71.4443,41.4435],[-71.451,41.4508],[-71.449,41.4561],[-71.4496,41.4549],[-71.4505,41.4556],[-71.4492,41.4608],[-71.4503,41.4625],[-71.4474,41.4623],[-71.4501,41.464],[-71.4482,41.4654],[-71.4491,41.4664],[-71.4477,41.4683],[-71.449,41.4731],[-71.4476,41.4805],[-71.4458,41.4808],[-71.4474,41.4834],[-71.4465,41.4916],[-71.4475,41.4949],[-71.4465,41.4977],[-71.4482,41.5028],[-71.4198,41.5036],[-71.4213,41.4998],[-71.4211,41.4942],[-71.4189,41.4918],[-71.4207,41.4836],[-71.418,41.4813]]]]}},{"type":"Feature","properties":{"leaid":"4400690","name":"New Shoreham School District","kind":"Unified","gradeLow":"PK","gradeHigh":"12","state":"RI"},"geometry":{"type":"Polygon","coordinates":[[[-71.5686,41.2255],[-71.5618,41.2249],[-71.555,41.2168],[-71.5541,41.2129],[-71.5552,41.2087],[-71.5641,41.1954],[-71.5657,41.1844],[-71.561,41.1762],[-71.5545,41.173],[-71.5502,41.1668],[-71.5444,41.1649],[-71.5439,41.1613],[-71.5465,41.1542],[-71.5507,41.1516],[-71.5599,41.1509],[-71.5667,41.1487],[-71.5689,41.1495],[-71.5774,41.1478],[-71.5853,41.1482],[-71.5926,41.1463],[-71.6,41.1469],[-71.609,41.1511],[-71.6122,41.1541],[-71.6131,41.1587],[-71.6101,41.1709],[-71.6054,41.1824],[-71.5994,41.1848],[-71.5935,41.1899],[-71.592,41.1982],[-71.5881,41.1939],[-71.5914,41.1903],[-71.5911,41.1892],[-71.5881,41.1898],[-71.5879,41.1912],[-71.5867,41.1907],[-71.583,41.1842],[-71.5755,41.1816],[-71.5754,41.1832],[-71.5713,41.1792],[-71.5676,41.1812],[-71.5685,41.1838],[-71.5703,41.1813],[-71.5725,41.1811],[-71.5694,41.1886],[-71.5747,41.1921],[-71.5734,41.1987],[-71.5759,41.2016],[-71.574,41.2009],[-71.5745,41.2022],[-71.5776,41.2032],[-71.5776,41.2009],[-71.5818,41.2002],[-71.581,41.199],[-71.5866,41.1959],[-71.5883,41.1979],[-71.5877,41.1995],[-71.581,41.2035],[-71.5789,41.2085],[-71.5765,41.2223],[-71.5774,41.2325],[-71.5738,41.2284],[-71.5686,41.2255]]]}},{"type":"Feature","properties":{"leaid":"4400720","name":"Newport School District","kind":"Unified","gradeLow":"PK","gradeHigh":"12","state":"RI"},"geometry":{"type":"MultiPolygon","coordinates":[[[[-71.3244,41.4538],[-71.3265,41.4528],[-71.327,41.4528],[-71.326,41.4544],[-71.3244,41.4538]]],[[[-71.3263,41.4879],[-71.3253,41.4885],[-71.3279,41.483],[-71.3286,41.4915],[-71.3274,41.4932],[-71.3263,41.4879]]],[[[-71.3392,41.4955],[-71.3429,41.4952],[-71.3428,41.4968],[-71.3409,41.4985],[-71.3392,41.4955]]],[[[-71.3264,41.5146],[-71.3247,41.5137],[-71.3242,41.5107],[-71.325,41.5071],[-71.3268,41.5063],[-71.3259,41.506],[-71.3257,41.5057],[-71.3272,41.5054],[-71.3255,41.5034],[-71.3282,41.5045],[-71.3309,41.5097],[-71.3297,41.514],[-71.3264,41.5146]]],[[[-71.3302,41.5183],[-71.3308,41.5181],[-71.3302,41.5183],[-71.3302,41.5183]]],[[[-71.3194,41.5195],[-71.3149,41.5199],[-71.3126,41.5214],[-71.3019,41.5061],[-71.2861,41.4888],[-71.2972,41.4851],[-71.2967,41.4787],[-71.2979,41.4721],[-71.2965,41.469],[-71.3027,41.4657],[-71.304,41.4628],[-71.3024,41.4601],[-71.3041,41.4581],[-71.3044,41.4545],[-71.3078,41.4517],[-71.3127,41.4514],[-71.3117,41.4555],[-71.3152,41.4565],[-71.3168,41.4545],[-71.3183,41.4547],[-71.3206,41.4582],[-71.3201,41.4594],[-71.3241,41.4596],[-71.3271,41.458],[-71.3315,41.4524],[-71.3336,41.4529],[-71.3333,41.4548],[-71.3345,41.4529],[-71.3368,41.4562],[-71.3408,41.4552],[-71.3366,41.4542],[-71.3362,41.4506],[-71.3348,41.4493],[-71.3374,41.449],[-71.3374,41.4516],[-71.3401,41.4535],[-71.3409,41.4528],[-71.3409,41.4538],[-71.3428,41.4532],[-71.3433,41.4545],[-71.3551,41.449],[-71.3571,41.4516],[-71.3574,41.4558],[-71.3594,41.4575],[-71.3588,41.4596],[-71.3628,41.4604],[-71.3614,41.4649],[-71.3598,41.4648],[-71.3597,41.4623],[-71.3577,41.4659],[-71.3531,41.4695],[-71.3481,41.4706],[-71.3423,41.4755],[-71.3374,41.4817],[-71.3351,41.4787],[-71.3352,41.4757],[-71.3375,41.4731],[-71.3367,41.4692],[-71.3341,41.4718],[-71.3335,41.471],[-71.3252,41.4753],[-71.3236,41.4777],[-71.3234,41.4765],[-71.3164,41.4775],[-71.3171,41.4799],[-71.3159,41.48],[-71.3171,41.4803],[-71.3162,41.4816],[-71.3176,41.4819],[-71.3157,41.4835],[-71.3178,41.484],[-71.3163,41.4848],[-71.3179,41.485],[-71.3163,41.486],[-71.3178,41.4865],[-71.3167,41.4871],[-71.3175,41.4894],[-71.3194,41.4883],[-71.3226,41.4888],[-71.3212,41.4899],[-71.3228,41.49],[-71.3218,41.4911],[-71.3231,41.4913],[-71.3216,41.4929],[-71.3221,41.4995],[-71.3234,41.5056],[-71.3247,41.5065],[-71.3211,41.5107],[-71.323,41.5116],[-71.3224,41.5145],[-71.3236,41.5169],[-71.3283,41.5188],[-71.3243,41.5228],[-71.3194,41.5195]]]]}},{"type":"Feature","properties":{"leaid":"4400750","name":"North Kingstown School District","kind":"Unified","gradeLow":"PK","gradeHigh":"12","state":"RI"},"geometry":{"type":"MultiPolygon","coordinates":[[[[-71.4163,41.5541],[-71.4191,41.5533],[-71.4197,41.5543],[-71.417,41.5551],[-71.4163,41.5541]]],[[[-71.4464,41.5813],[-71.4433,41.5792],[-71.4473,41.5777],[-71.4479,41.5799],[-71.4464,41.5813]]],[[[-71.4555,41.5807],[-71.4525,41.5808],[-71.4533,41.5793],[-71.4555,41.5807]]],[[[-71.4328,41.6513],[-71.4321,41.651],[-71.4328,41.6513],[-71.4328,41.6513]]],[[[-71.4176,41.6544],[-71.4105,41.6507],[-71.4075,41.6515],[-71.4079,41.642],[-71.4089,41.6418],[-71.4062,41.6322],[-71.4023,41.6258],[-71.4071,41.6225],[-71.4113,41.6231],[-71.4116,41.6254],[-71.4144,41.6271],[-71.4157,41.6264],[-71.4159,41.6227],[-71.42,41.6211],[-71.4179,41.6202],[-71.4145,41.6219],[-71.4137,41.6176],[-71.4102,41.6223],[-71.4087,41.6208],[-71.4093,41.6198],[-71.4079,41.6208],[-71.4074,41.6184],[-71.4065,41.6181],[-71.4066,41.6201],[-71.4048,41.6175],[-71.4069,41.6167],[-71.4021,41.6151],[-71.4033,41.6136],[-71.4071,41.6151],[-71.4079,41.614],[-71.4042,41.6123],[-71.4048,41.6117],[-71.4083,41.6133],[-71.4107,41.6104],[-71.4131,41.6109],[-71.4165,41.6046],[-71.4146,41.6024],[-71.4041,41.6024],[-71.404,41.59],[-71.4115,41.5872],[-71.4078,41.5859],[-71.4127,41.5869],[-71.4115,41.5861],[-71.4223,41.5856],[-71.4291,41.5838],[-71.4389,41.577],[-71.4383,41.5802],[-71.4403,41.5845],[-71.4385,41.5871],[-71.441,41.5857],[-71.4407,41.5845],[-71.4446,41.5845],[-71.4436,41.5837],[-71.449,41.5798],[-71.4502,41.5805],[-71.449,41.5869],[-71.4473,41.5884],[-71.4484,41.588],[-71.45,41.5909],[-71.4494,41.5917],[-71.4492,41.5951],[-71.4507,41.5911],[-71.4493,41.5888],[-71.451,41.5852],[-71.4528,41.5829],[-71.4579,41.5825],[-71.456,41.5796],[-71.4577,41.5784],[-71.4568,41.5772],[-71.4551,41.5787],[-71.4523,41.5779],[-71.4529,41.5739],[-71.4514,41.5777],[-71.4497,41.5769],[-71.4491,41.575],[-71.4471,41.5768],[-71.4456,41.5739],[-71.4463,41.573],[-71.4448,41.5725],[-71.4472,41.5706],[-71.4558,41.5707],[-71.4555,41.5687],[-71.4541,41.57],[-71.451,41.5695],[-71.4585,41.5652],[-71.4586,41.5641],[-71.4572,41.5622],[-71.4566,41.5654],[-71.4524,41.5661],[-71.4532,41.5672],[-71.4518,41.5663],[-71.4506,41.569],[-71.4458,41.5684],[-71.4434,41.5729],[-71.4403,41.5707],[-71.4385,41.5709],[-71.4432,41.5675],[-71.4426,41.565],[-71.4416,41.5636],[-71.4371,41.5625],[-71.4362,41.5607],[-71.4338,41.5616],[-71.4354,41.5604],[-71.435,41.5571],[-71.43,41.5584],[-71.4275,41.5569],[-71.4299,41.5502],[-71.4257,41.5461],[-71.4306,41.5472],[-71.4303,41.5508],[-71.4333,41.553],[-71.4344,41.5527],[-71.4334,41.5519],[-71.4345,41.5493],[-71.4378,41.5506],[-71.4319,41.5474],[-71.4327,41.5442],[-71.4262,41.5454],[-71.4231,41.5484],[-71.4256,41.5441],[-71.4252,41.5424],[-71.4231,41.5387],[-71.4178,41.5359],[-71.418,41.5325],[-71.4144,41.5297],[-71.416,41.5275],[-71.4144,41.5177],[-71.4153,41.5143],[-71.4138,41.5127],[-71.4168,41.51],[-71.4203,41.5034],[-71.4482,41.5028],[-71.4477,41.5058],[-71.4497,41.5073],[-71.4451,41.5122],[-71.4456,41.5137],[-71.4441,41.5142],[-71.4464,41.5181],[-71.4503,41.5143],[-71.4511,41.5119],[-71.449,41.5119],[-71.4479,41.5103],[-71.4518,41.5086],[-71.4515,41.5061],[-71.4535,41.5031],[-71.4521,41.5006],[-71.4537,41.4998],[-71.4919,41.4972],[-71.5079,41.5001],[-71.5122,41.5153],[-71.5196,41.5299],[-71.5181,41.5922],[-71.5224,41.6026],[-71.4844,41.6026],[-71.4854,41.6129],[-71.4875,41.6135],[-71.488,41.6163],[-71.486,41.6169],[-71.4861,41.6198],[-71.4833,41.6215],[-71.4825,41.6236],[-71.4794,41.6242],[-71.4713,41.6291],[-71.4721,41.6328],[-71.4634,41.6365],[-71.4624,41.6384],[-71.4598,41.6381],[-71.4556,41.6351],[-71.4539,41.63],[-71.4514,41.6295],[-71.4484,41.6333],[-71.4492,41.6368],[-71.4461,41.6389],[-71.445,41.6419],[-71.442,41.6433],[-71.4425,41.6458],[-71.4321,41.6508],[-71.4285,41.65],[-71.4225,41.6535],[-71.4176,41.6544]]]]}},{"type":"Feature","properties":{"leaid":"4400780","name":"North Providence School District","kind":"Unified","gradeLow":"PK","gradeHigh":"12","state":"RI"},"geometry":{"type":"Polygon","coordinates":[[[-71.4174,41.8597],[-71.435,41.8618],[-71.4725,41.837],[-71.4733,41.839],[-71.4776,41.8382],[-71.4776,41.8415],[-71.4808,41.846],[-71.4811,41.8511],[-71.4856,41.8535],[-71.4883,41.8623],[-71.4955,41.869],[-71.4219,41.8787],[-71.4174,41.8597]]]}},{"type":"Feature","properties":{"leaid":"4400810","name":"North Smithfield School District","kind":"Unified","gradeLow":"PK","gradeHigh":"12","state":"RI"},"geometry":{"type":"Polygon","coordinates":[[[-71.4874,41.9791],[-71.4891,41.9747],[-71.4867,41.9697],[-71.4883,41.9683],[-71.4864,41.9662],[-71.4877,41.9633],[-71.4861,41.9603],[-71.4873,41.9585],[-71.485,41.9561],[-71.4871,41.9563],[-71.4882,41.9547],[-71.4867,41.9499],[-71.4874,41.9471],[-71.4842,41.9458],[-71.4849,41.9425],[-71.4882,41.9444],[-71.4909,41.9432],[-71.5903,41.9337],[-71.6067,42.0133],[-71.5289,42.0151],[-71.5298,42.0098],[-71.5401,42.0098],[-71.5317,41.9896],[-71.5172,41.9834],[-71.4874,41.9791]]]}},{"type":"Feature","properties":{"leaid":"4400840","name":"Pawtucket School District","kind":"Unified","gradeLow":"PK","gradeHigh":"12","state":"RI"},"geometry":{"type":"Polygon","coordinates":[[[-71.3347,41.8613],[-71.375,41.8575],[-71.3811,41.87],[-71.3843,41.8724],[-71.3803,41.8672],[-71.3791,41.8625],[-71.3803,41.8594],[-71.3792,41.8575],[-71.4093,41.8566],[-71.4109,41.8589],[-71.4174,41.8597],[-71.4219,41.8787],[-71.3809,41.8841],[-71.3802,41.8879],[-71.3831,41.8899],[-71.3815,41.8935],[-71.3388,41.8986],[-71.3409,41.8818],[-71.3341,41.8628],[-71.3347,41.8613]]]}},{"type":"Feature","properties":{"leaid":"4400870","name":"Portsmouth School District","kind":"Unified","gradeLow":"PK","gradeHigh":"12","state":"RI"},"geometry":{"type":"MultiPolygon","coordinates":[[[[-71.2978,41.5804],[-71.3006,41.581],[-71.3012,41.5859],[-71.2981,41.5835],[-71.2978,41.5804]]],[[[-71.3703,41.6033],[-71.3707,41.6032],[-71.3703,41.6036],[-71.3703,41.6033]]],[[[-71.3621,41.607],[-71.362,41.6068],[-71.3624,41.6069],[-71.3621,41.607]]],[[[-71.3692,41.5989],[-71.3732,41.5978],[-71.3677,41.6039],[-71.3669,41.6065],[-71.3644,41.607],[-71.3643,41.6029],[-71.3692,41.5989]]],[[[-71.3625,41.6074],[-71.3626,41.6071],[-71.3628,41.6071],[-71.3625,41.6074]]],[[[-71.3616,41.6079],[-71.3609,41.608],[-71.3615,41.6078],[-71.3616,41.6079]]],[[[-71.2229,41.6291],[-71.2238,41.6284],[-71.224,41.6286],[-71.2229,41.6291]]],[[[-71.2241,41.6336],[-71.2227,41.6317],[-71.2258,41.6332],[-71.2241,41.6336]]],[[[-71.2285,41.6343],[-71.2281,41.6341],[-71.2285,41.6341],[-71.2285,41.6343]]],[[[-71.2866,41.6475],[-71.2833,41.6458],[-71.2854,41.6465],[-71.2879,41.6442],[-71.2866,41.6475]]],[[[-71.2814,41.6484],[-71.2782,41.6472],[-71.2758,41.6438],[-71.2765,41.6419],[-71.2751,41.6381],[-71.2724,41.6387],[-71.2724,41.637],[-71.2809,41.6383],[-71.2855,41.6371],[-71.2858,41.6414],[-71.2881,41.6428],[-71.288,41.6438],[-71.286,41.6424],[-71.2838,41.6434],[-71.2814,41.6484]]],[[[-71.2195,41.6541],[-71.2213,41.6492],[-71.2179,41.6469],[-71.217,41.6396],[-71.2141,41.6389],[-71.2186,41.637],[-71.2183,41.6307],[-71.2203,41.631],[-71.2199,41.6326],[-71.2229,41.6379],[-71.2258,41.6378],[-71.2294,41.6368],[-71.2267,41.6366],[-71.2306,41.6343],[-71.232,41.6319],[-71.2351,41.6313],[-71.2362,41.629],[-71.232,41.6301],[-71.2343,41.6288],[-71.2329,41.628],[-71.2337,41.627],[-71.2317,41.6265],[-71.2298,41.6293],[-71.2278,41.6293],[-71.2295,41.6277],[-71.2275,41.6242],[-71.2265,41.625],[-71.2229,41.6244],[-71.2198,41.6289],[-71.2185,41.6276],[-71.2199,41.6261],[-71.218,41.6254],[-71.2218,41.6233],[-71.237,41.6212],[-71.2403,41.6197],[-71.2407,41.6065],[-71.2423,41.6037],[-71.2434,41.5954],[-71.243,41.5858],[-71.2362,41.575],[-71.2346,41.5763],[-71.2356,41.5766],[-71.2339,41.5765],[-71.2365,41.5739],[-71.2363,41.5673],[-71.2384,41.56],[-71.2372,41.5547],[-71.2339,41.552],[-71.2358,41.5458],[-71.2354,41.542],[-71.2367,41.5363],[-71.2346,41.5324],[-71.2311,41.5302],[-71.2286,41.5307],[-71.2291,41.529],[-71.2278,41.5284],[-71.2294,41.5215],[-71.2333,41.5149],[-71.2331,41.5136],[-71.2657,41.5383],[-71.2806,41.547],[-71.3014,41.5626],[-71.298,41.5653],[-71.2945,41.5714],[-71.2884,41.5732],[-71.2852,41.5766],[-71.2846,41.5791],[-71.2858,41.5832],[-71.2874,41.5841],[-71.2874,41.5887],[-71.2867,41.5909],[-71.2843,41.5891],[-71.2828,41.5918],[-71.2854,41.5914],[-71.2865,41.5925],[-71.2806,41.5936],[-71.2737,41.6068],[-71.2724,41.6143],[-71.2749,41.6168],[-71.274,41.6175],[-71.2752,41.6196],[-71.272,41.6241],[-71.2659,41.6252],[-71.2646,41.6216],[-71.2654,41.6251],[-71.2619,41.6278],[-71.2594,41.6332],[-71.2501,41.6392],[-71.2463,41.6391],[-71.2444,41.6376],[-71.2447,41.6362],[-71.2461,41.6372],[-71.245,41.6351],[-71.2459,41.6334],[-71.2451,41.6298],[-71.244,41.6299],[-71.2433,41.6342],[-71.2402,41.6361],[-71.2418,41.6377],[-71.2439,41.6373],[-71.2418,41.638],[-71.245,41.639],[-71.2358,41.639],[-71.2327,41.6413],[-71.2321,41.6437],[-71.2272,41.6456],[-71.2242,41.6493],[-71.2231,41.6485],[-71.2248,41.6506],[-71.2227,41.6512],[-71.2206,41.655],[-71.2195,41.6541]]],[[[-71.3671,41.6605],[-71.3555,41.6602],[-71.3535,41.658],[-71.3563,41.6526],[-71.3605,41.6501],[-71.3626,41.6512],[-71.3671,41.6605]]],[[[-71.3374,41.6573],[-71.3387,41.6555],[-71.3384,41.6522],[-71.3329,41.645],[-71.3327,41.6427],[-71.3364,41.6421],[-71.3346,41.6433],[-71.3367,41.6466],[-71.3356,41.6466],[-71.336,41.6484],[-71.3436,41.6433],[-71.3433,41.6401],[-71.3406,41.6403],[-71.3391,41.6377],[-71.3289,41.6326],[-71.3167,41.6313],[-71.3138,41.6283],[-71.308,41.626],[-71.3042,41.6191],[-71.3043,41.6083],[-71.3027,41.606],[-71.3047,41.6052],[-71.3078,41.5977],[-71.3165,41.584],[-71.3224,41.5815],[-71.3219,41.5801],[-71.3232,41.5807],[-71.326,41.5788],[-71.3306,41.5803],[-71.3353,41.5854],[-71.3371,41.592],[-71.3341,41.6058],[-71.3296,41.6088],[-71.3297,41.6121],[-71.3268,41.6172],[-71.3256,41.6254],[-71.3326,41.6297],[-71.3443,41.6326],[-71.3483,41.6317],[-71.3515,41.6345],[-71.3529,41.6395],[-71.3532,41.6489],[-71.3474,41.649],[-71.3491,41.6513],[-71.3468,41.6535],[-71.3457,41.6531],[-71.3467,41.6531],[-71.3455,41.6512],[-71.3461,41.6503],[-71.3444,41.6495],[-71.3447,41.6524],[-71.3429,41.6537],[-71.344,41.6551],[-71.35,41.657],[-71.351,41.6585],[-71.3512,41.6599],[-71.3473,41.6631],[-71.3486,41.6655],[-71.3443,41.667],[-71.3437,41.6619],[-71.3374,41.6573]]]]}},{"type":"Feature","properties":{"leaid":"4400900","name":"Providence School District","kind":"Unified","gradeLow":"PK","gradeHigh":"12","state":"RI"},"geometry":{"type":"MultiPolygon","coordinates":[[[[-71.3699,41.7837],[-71.3718,41.7834],[-71.3703,41.7863],[-71.3701,41.7862],[-71.3699,41.7837]]],[[[-71.3718,41.7893],[-71.371,41.7883],[-71.3705,41.7873],[-71.372,41.7893],[-71.3722,41.7878],[-71.3729,41.7896],[-71.3718,41.7893]]],[[[-71.3732,41.7903],[-71.3732,41.7903],[-71.3732,41.7903],[-71.3732,41.7903]]],[[[-71.3744,41.7919],[-71.3733,41.7911],[-71.3742,41.7906],[-71.3744,41.7919]]],[[[-71.3744,41.7922],[-71.3749,41.7925],[-71.3749,41.7926],[-71.3744,41.7922]]],[[[-71.3761,41.7939],[-71.3752,41.7929],[-71.3769,41.7943],[-71.3761,41.7939]]],[[[-71.38,41.7953],[-71.3773,41.7947],[-71.38,41.7953],[-71.38,41.7953]]],[[[-71.3876,41.8035],[-71.3876,41.8035],[-71.3876,41.8035],[-71.3876,41.8035]]],[[[-71.3949,41.8106],[-71.395,41.8106],[-71.395,41.8107],[-71.3949,41.8106]]],[[[-71.3916,41.8153],[-71.3916,41.8156],[-71.391,41.8154],[-71.3916,41.8153]]],[[[-71.3848,41.821],[-71.3848,41.8204],[-71.3851,41.8207],[-71.3848,41.821]]],[[[-71.3831,41.8223],[-71.3834,41.8234],[-71.3811,41.8245],[-71.3822,41.8235],[-71.3831,41.8223]]],[[[-71.3736,41.8325],[-71.3739,41.8322],[-71.3736,41.8326],[-71.3736,41.8325]]],[[[-71.3748,41.8572],[-71.375,41.857],[-71.375,41.8574],[-71.3748,41.8572]]],[[[-71.4114,41.8589],[-71.4093,41.8566],[-71.3792,41.8575],[-71.3791,41.8504],[-71.3768,41.8489],[-71.379,41.8462],[-71.3776,41.8415],[-71.3795,41.8386],[-71.3772,41.8339],[-71.3775,41.8319],[-71.3804,41.8268],[-71.3874,41.8231],[-71.3884,41.8211],[-71.3879,41.8168],[-71.3952,41.8174],[-71.3992,41.8144],[-71.4076,41.8237],[-71.4011,41.8123],[-71.4029,41.8114],[-71.4009,41.8107],[-71.402,41.8091],[-71.3986,41.8084],[-71.3983,41.8076],[-71.4003,41.8071],[-71.399,41.8069],[-71.3998,41.8065],[-71.3987,41.8032],[-71.3965,41.8035],[-71.3994,41.8016],[-71.3947,41.8025],[-71.3967,41.8005],[-71.3961,41.7995],[-71.3926,41.8006],[-71.3825,41.7925],[-71.3801,41.7892],[-71.3804,41.7855],[-71.4043,41.7858],[-71.4031,41.783],[-71.4038,41.781],[-71.4088,41.7781],[-71.41,41.7738],[-71.4119,41.7724],[-71.4194,41.7763],[-71.4238,41.7773],[-71.4206,41.7862],[-71.4342,41.7863],[-71.4368,41.7887],[-71.4393,41.7972],[-71.4393,41.802],[-71.4422,41.8072],[-71.4692,41.8049],[-71.4668,41.8078],[-71.4687,41.8106],[-71.4666,41.8107],[-71.4718,41.8242],[-71.4619,41.8251],[-71.4649,41.8312],[-71.4725,41.8343],[-71.4717,41.8356],[-71.4725,41.837],[-71.435,41.8618],[-71.4114,41.8589]]]]}},{"type":"Feature","properties":{"leaid":"4400960","name":"Scituate School District","kind":"Unified","gradeLow":"PK","gradeHigh":"12","state":"RI"},"geometry":{"type":"Polygon","coordinates":[[[-71.5746,41.8587],[-71.5474,41.73],[-71.6684,41.7275],[-71.691,41.8565],[-71.5746,41.8587]]]}},{"type":"Feature","properties":{"leaid":"4400990","name":"Smithfield School District","kind":"Unified","gradeLow":"PK","gradeHigh":"12","state":"RI"},"geometry":{"type":"Polygon","coordinates":[[[-71.4668,41.8728],[-71.5746,41.8587],[-71.5903,41.9337],[-71.4908,41.9432],[-71.4668,41.8728]]]}},{"type":"Feature","properties":{"leaid":"4401020","name":"South Kingstown School District","kind":"Unified","gradeLow":"PK","gradeHigh":"12","state":"RI"},"geometry":{"type":"MultiPolygon","coordinates":[[[[-71.6219,41.3699],[-71.6198,41.3683],[-71.621,41.3667],[-71.6226,41.3667],[-71.6206,41.3679],[-71.622,41.3689],[-71.6237,41.3662],[-71.6219,41.3699]]],[[[-71.5174,41.3827],[-71.5188,41.3808],[-71.5201,41.3849],[-71.5184,41.3853],[-71.5174,41.3827]]],[[[-71.5305,41.5038],[-71.4919,41.4972],[-71.458,41.4991],[-71.4521,41.5006],[-71.4509,41.4975],[-71.4494,41.4969],[-71.4497,41.4922],[-71.4468,41.4888],[-71.4486,41.4834],[-71.4475,41.4824],[-71.4486,41.4762],[-71.4505,41.4718],[-71.449,41.4686],[-71.4532,41.4621],[-71.4518,41.458],[-71.4524,41.4532],[-71.4552,41.4523],[-71.4557,41.4508],[-71.4578,41.4515],[-71.4575,41.4502],[-71.4608,41.4484],[-71.4655,41.443],[-71.4875,41.4333],[-71.4924,41.4287],[-71.4977,41.427],[-71.4973,41.4257],[-71.4995,41.4279],[-71.4993,41.425],[-71.4977,41.4239],[-71.4975,41.4216],[-71.4989,41.4203],[-71.4976,41.4178],[-71.5001,41.4186],[-71.5019,41.4222],[-71.5038,41.4226],[-71.5046,41.4207],[-71.5061,41.4217],[-71.5059,41.4203],[-71.5119,41.4228],[-71.5097,41.4215],[-71.5096,41.419],[-71.507,41.418],[-71.5081,41.4141],[-71.5113,41.415],[-71.5125,41.414],[-71.5112,41.4119],[-71.5066,41.4114],[-71.5061,41.4097],[-71.5089,41.4093],[-71.5097,41.4064],[-71.5107,41.4078],[-71.5124,41.4065],[-71.5128,41.4046],[-71.5114,41.4043],[-71.5136,41.3982],[-71.5144,41.3968],[-71.5164,41.3966],[-71.5164,41.3904],[-71.5147,41.39],[-71.517,41.3883],[-71.5169,41.3868],[-71.5196,41.3855],[-71.525,41.3858],[-71.5233,41.3835],[-71.5206,41.384],[-71.5201,41.3832],[-71.522,41.381],[-71.5208,41.3805],[-71.5214,41.3802],[-71.5228,41.3805],[-71.5229,41.3803],[-71.5215,41.379],[-71.5196,41.3798],[-71.5229,41.3766],[-71.5323,41.3759],[-71.5409,41.3727],[-71.5449,41.3738],[-71.5554,41.3733],[-71.5819,41.3686],[-71.5979,41.3642],[-71.6257,41.3605],[-71.6238,41.3646],[-71.6183,41.364],[-71.6122,41.3667],[-71.6122,41.3648],[-71.6082,41.3657],[-71.6062,41.3648],[-71.6047,41.3677],[-71.6022,41.366],[-71.6012,41.3672],[-71.6026,41.3717],[-71.6056,41.3711],[-71.6032,41.3697],[-71.6043,41.3694],[-71.6075,41.3716],[-71.6086,41.3711],[-71.6082,41.3683],[-71.6093,41.3685],[-71.6104,41.3726],[-71.6058,41.3756],[-71.607,41.3769],[-71.608,41.3756],[-71.6088,41.3782],[-71.6148,41.3769],[-71.6147,41.375],[-71.6135,41.3747],[-71.6152,41.374],[-71.6147,41.3723],[-71.616,41.3729],[-71.6154,41.3747],[-71.6177,41.3749],[-71.6175,41.3741],[-71.6211,41.3733],[-71.6222,41.3705],[-71.5951,41.4462],[-71.5982,41.4496],[-71.6013,41.4503],[-71.6029,41.4494],[-71.6089,41.4522],[-71.5986,41.458],[-71.5968,41.4618],[-71.5992,41.4668],[-71.6056,41.4742],[-71.6056,41.4765],[-71.6012,41.4778],[-71.6008,41.4805],[-71.6044,41.4866],[-71.6089,41.4877],[-71.6079,41.4902],[-71.6086,41.4929],[-71.6072,41.4941],[-71.6089,41.4954],[-71.6095,41.4979],[-71.6074,41.5021],[-71.6085,41.5028],[-71.613,41.5251],[-71.5305,41.5038]]]]}},{"type":"Feature","properties":{"leaid":"4401050","name":"Tiverton School District","kind":"Unified","gradeLow":"PK","gradeHigh":"12","state":"RI"},"geometry":{"type":"Polygon","coordinates":[[[-71.1383,41.6037],[-71.1316,41.5937],[-71.1278,41.5632],[-71.2115,41.5455],[-71.2163,41.5474],[-71.2158,41.553],[-71.2136,41.5557],[-71.2157,41.5581],[-71.2209,41.5591],[-71.2212,41.5616],[-71.2191,41.563],[-71.2173,41.5621],[-71.2161,41.5596],[-71.218,41.5617],[-71.2176,41.5597],[-71.2125,41.5585],[-71.2112,41.5559],[-71.2105,41.5579],[-71.212,41.558],[-71.2104,41.5589],[-71.2108,41.5671],[-71.2086,41.5714],[-71.2091,41.5816],[-71.2045,41.5788],[-71.2001,41.5792],[-71.1993,41.5779],[-71.2001,41.5772],[-71.2003,41.5766],[-71.1989,41.5779],[-71.2,41.5798],[-71.2041,41.5798],[-71.2056,41.5817],[-71.204,41.5827],[-71.2066,41.5815],[-71.2109,41.5825],[-71.2147,41.5841],[-71.2134,41.5853],[-71.2139,41.5869],[-71.2151,41.5855],[-71.2099,41.5927],[-71.2069,41.5933],[-71.2101,41.5928],[-71.2097,41.5947],[-71.2065,41.5944],[-71.204,41.5962],[-71.2028,41.5954],[-71.2051,41.594],[-71.2048,41.593],[-71.2028,41.5924],[-71.2033,41.5935],[-71.2017,41.5938],[-71.2031,41.5943],[-71.2025,41.5956],[-71.2077,41.6],[-71.2075,41.6015],[-71.2108,41.605],[-71.2126,41.6095],[-71.2126,41.6184],[-71.2081,41.6182],[-71.2078,41.6157],[-71.2015,41.6053],[-71.1982,41.6022],[-71.1963,41.6053],[-71.1974,41.6084],[-71.1954,41.6074],[-71.1957,41.6094],[-71.1984,41.6113],[-71.1967,41.6124],[-71.1994,41.6136],[-71.2008,41.6165],[-71.2108,41.6201],[-71.2125,41.6237],[-71.2156,41.6257],[-71.2114,41.6303],[-71.2126,41.6351],[-71.2114,41.6386],[-71.2134,41.6389],[-71.2118,41.6395],[-71.2103,41.6455],[-71.2072,41.6503],[-71.2063,41.6571],[-71.198,41.6689],[-71.1958,41.6755],[-71.1758,41.6715],[-71.1761,41.6682],[-71.1326,41.6604],[-71.1353,41.6285],[-71.1402,41.6239],[-71.142,41.6125],[-71.1403,41.6048],[-71.1383,41.6037]]]}},{"type":"Feature","properties":{"leaid":"4401110","name":"Warwick School District","kind":"Unified","gradeLow":"PK","gradeHigh":"12","state":"RI"},"geometry":{"type":"MultiPolygon","coordinates":[[[[-71.4257,41.671],[-71.4174,41.6652],[-71.4088,41.6629],[-71.4106,41.66],[-71.4093,41.6571],[-71.4243,41.6555],[-71.4291,41.6514],[-71.4345,41.6517],[-71.4366,41.649],[-71.4426,41.6457],[-71.442,41.6433],[-71.445,41.6419],[-71.4461,41.6389],[-71.4492,41.6368],[-71.4484,41.6333],[-71.4514,41.6295],[-71.4539,41.63],[-71.4552,41.6346],[-71.4592,41.638],[-71.4624,41.6384],[-71.4634,41.6366],[-71.4678,41.6342],[-71.4687,41.6386],[-71.4648,41.6389],[-71.4657,41.6431],[-71.4581,41.6498],[-71.4558,41.6475],[-71.4513,41.6479],[-71.451,41.6468],[-71.449,41.652],[-71.4425,41.6561],[-71.4407,41.6609],[-71.4402,41.6657],[-71.4413,41.6665],[-71.4351,41.6663],[-71.4298,41.6677],[-71.4257,41.671]]],[[[-71.3781,41.7326],[-71.3782,41.7307],[-71.3799,41.734],[-71.3781,41.7326]]],[[[-71.38,41.754],[-71.3796,41.7503],[-71.3807,41.7503],[-71.38,41.754]]],[[[-71.3956,41.7667],[-71.3945,41.7641],[-71.3886,41.7637],[-71.3849,41.7551],[-71.3818,41.7539],[-71.3819,41.7484],[-71.3876,41.745],[-71.3907,41.7456],[-71.3892,41.7444],[-71.3858,41.7446],[-71.3827,41.7468],[-71.3754,41.7446],[-71.3807,41.7383],[-71.3808,41.735],[-71.383,41.7361],[-71.3837,41.7393],[-71.3884,41.7365],[-71.3894,41.7371],[-71.3886,41.7339],[-71.3933,41.7333],[-71.3888,41.7317],[-71.3861,41.7338],[-71.3851,41.7304],[-71.3804,41.7271],[-71.3783,41.7233],[-71.3704,41.7185],[-71.3557,41.7174],[-71.3636,41.7127],[-71.3652,41.7163],[-71.364,41.7129],[-71.3659,41.7119],[-71.3658,41.713],[-71.3703,41.7155],[-71.3718,41.7152],[-71.37,41.7144],[-71.3706,41.7129],[-71.3741,41.7121],[-71.3675,41.7125],[-71.3662,41.7114],[-71.364,41.7027],[-71.3658,41.6953],[-71.3643,41.6925],[-71.3629,41.6922],[-71.3642,41.6886],[-71.3692,41.6862],[-71.3726,41.6807],[-71.373,41.6726],[-71.376,41.668],[-71.3781,41.6664],[-71.3824,41.6675],[-71.3864,41.671],[-71.39,41.672],[-71.3905,41.6743],[-71.3903,41.6828],[-71.3883,41.6839],[-71.3897,41.6849],[-71.3886,41.6845],[-71.3889,41.6868],[-71.3916,41.6865],[-71.3893,41.6876],[-71.3912,41.6878],[-71.3916,41.6895],[-71.3889,41.6919],[-71.3889,41.6947],[-71.3871,41.6957],[-71.386,41.6944],[-71.386,41.6962],[-71.3808,41.6977],[-71.383,41.6994],[-71.3853,41.6992],[-71.3854,41.6979],[-71.3874,41.6973],[-71.3906,41.6986],[-71.3887,41.6972],[-71.3912,41.6962],[-71.3934,41.6979],[-71.3906,41.6951],[-71.3912,41.6927],[-71.3929,41.6926],[-71.3941,41.6949],[-71.3961,41.6957],[-71.3929,41.6909],[-71.3942,41.6892],[-71.393,41.6848],[-71.3919,41.6845],[-71.3955,41.6833],[-71.4011,41.6847],[-71.4033,41.6914],[-71.4063,41.6948],[-71.4058,41.6962],[-71.4087,41.6954],[-71.4087,41.6965],[-71.4095,41.6958],[-71.4124,41.698],[-71.4142,41.6979],[-71.4169,41.7007],[-71.4164,41.6985],[-71.4212,41.6983],[-71.4154,41.6976],[-71.4079,41.694],[-71.4043,41.6888],[-71.4081,41.6869],[-71.4104,41.6891],[-71.4133,41.6884],[-71.4161,41.6894],[-71.4098,41.686],[-71.4023,41.6852],[-71.4064,41.6838],[-71.4172,41.684],[-71.4241,41.6858],[-71.442,41.6867],[-71.444,41.6883],[-71.4411,41.6902],[-71.4425,41.6922],[-71.445,41.6927],[-71.4465,41.6954],[-71.4511,41.6961],[-71.4515,41.6971],[-71.4532,41.6961],[-71.4516,41.6932],[-71.447,41.6918],[-71.4473,41.6903],[-71.4463,41.6901],[-71.4494,41.6878],[-71.4497,41.6855],[-71.4468,41.6777],[-71.444,41.6738],[-71.4408,41.6744],[-71.4407,41.672],[-71.443,41.6731],[-71.4463,41.6701],[-71.4443,41.664],[-71.4992,41.6629],[-71.5017,41.6965],[-71.5189,41.6959],[-71.5128,41.7067],[-71.5052,41.7113],[-71.4974,41.713],[-71.4929,41.7178],[-71.4911,41.7175],[-71.4902,41.7177],[-71.4902,41.7221],[-71.4855,41.7263],[-71.4839,41.7316],[-71.4537,41.733],[-71.4528,41.7343],[-71.4538,41.7372],[-71.4517,41.7395],[-71.4441,41.7406],[-71.4466,41.7499],[-71.4406,41.7522],[-71.4411,41.7549],[-71.4391,41.7564],[-71.4407,41.7578],[-71.4382,41.7581],[-71.4376,41.7598],[-71.435,41.7599],[-71.4338,41.7614],[-71.4331,41.7593],[-71.4306,41.7609],[-71.4273,41.7607],[-71.4213,41.7649],[-71.4187,41.7641],[-71.42,41.7617],[-71.4144,41.763],[-71.4112,41.7663],[-71.4072,41.7674],[-71.403,41.7678],[-71.4008,41.7665],[-71.3996,41.7683],[-71.3956,41.7667]]]]}},{"type":"Feature","properties":{"leaid":"4401140","name":"West Warwick School District","kind":"Unified","gradeLow":"PK","gradeHigh":"12","state":"RI"},"geometry":{"type":"Polygon","coordinates":[[[-71.4992,41.6629],[-71.5334,41.6622],[-71.5343,41.7302],[-71.4839,41.7316],[-71.4855,41.7263],[-71.4902,41.7221],[-71.4901,41.7178],[-71.4929,41.7178],[-71.4974,41.713],[-71.5052,41.7113],[-71.5126,41.7068],[-71.5189,41.6959],[-71.5017,41.6965],[-71.4992,41.6629]]]}},{"type":"Feature","properties":{"leaid":"4401170","name":"Westerly School District","kind":"Unified","gradeLow":"PK","gradeHigh":"12","state":"RI"},"geometry":{"type":"MultiPolygon","coordinates":[[[[-71.892,41.3301],[-71.8888,41.326],[-71.8793,41.32],[-71.8831,41.3211],[-71.893,41.3277],[-71.892,41.3301]]],[[[-71.807,41.4167],[-71.8037,41.4174],[-71.8014,41.4155],[-71.7977,41.4169],[-71.7963,41.4162],[-71.7969,41.4115],[-71.7986,41.4101],[-71.7981,41.408],[-71.796,41.4073],[-71.7988,41.405],[-71.8035,41.4041],[-71.8006,41.4012],[-71.7997,41.3986],[-71.7941,41.3973],[-71.7983,41.3965],[-71.7972,41.3932],[-71.7921,41.3921],[-71.7905,41.3928],[-71.7867,41.3897],[-71.7838,41.3897],[-71.7847,41.3884],[-71.7837,41.3865],[-71.7814,41.389],[-71.7796,41.3868],[-71.7788,41.3896],[-71.7811,41.3932],[-71.7789,41.3946],[-71.7768,41.3933],[-71.7762,41.3935],[-71.7737,41.395],[-71.7732,41.396],[-71.7754,41.3941],[-71.7734,41.396],[-71.7714,41.3972],[-71.7723,41.4007],[-71.7707,41.4014],[-71.7676,41.3998],[-71.7674,41.399],[-71.7693,41.3996],[-71.7705,41.3982],[-71.7676,41.3949],[-71.7657,41.3963],[-71.7635,41.4012],[-71.7583,41.4041],[-71.7555,41.4079],[-71.7482,41.4073],[-71.7481,41.4046],[-71.743,41.4014],[-71.7394,41.4017],[-71.7374,41.4],[-71.731,41.4007],[-71.7351,41.3995],[-71.7312,41.3983],[-71.7304,41.343],[-71.7319,41.3418],[-71.7333,41.3368],[-71.7365,41.3352],[-71.7386,41.3386],[-71.7443,41.3335],[-71.7462,41.3351],[-71.7481,41.3349],[-71.7479,41.3366],[-71.7511,41.3361],[-71.7495,41.3301],[-71.751,41.3287],[-71.7502,41.3281],[-71.746,41.3308],[-71.739,41.3323],[-71.7335,41.3323],[-71.7328,41.3337],[-71.7341,41.3328],[-71.734,41.3343],[-71.7324,41.3346],[-71.7308,41.3339],[-71.7315,41.3324],[-71.7299,41.3326],[-71.7299,41.3314],[-71.7475,41.3276],[-71.7525,41.3254],[-71.7626,41.3284],[-71.7626,41.3297],[-71.7645,41.3328],[-71.7682,41.3364],[-71.7691,41.3353],[-71.7709,41.3356],[-71.7708,41.3344],[-71.7773,41.3341],[-71.7788,41.3389],[-71.7801,41.3358],[-71.7842,41.3348],[-71.7862,41.3383],[-71.7882,41.3338],[-71.786,41.3339],[-71.7862,41.3326],[-71.7949,41.3324],[-71.7967,41.331],[-71.7988,41.3314],[-71.8006,41.3296],[-71.802,41.3311],[-71.8062,41.3298],[-71.8096,41.3235],[-71.7992,41.3272],[-71.7902,41.3261],[-71.788,41.3271],[-71.7899,41.3277],[-71.7884,41.3289],[-71.78,41.3314],[-71.7706,41.3303],[-71.7693,41.3326],[-71.7734,41.3328],[-71.7689,41.3337],[-71.7681,41.3353],[-71.764,41.3313],[-71.7635,41.3286],[-71.7751,41.3277],[-71.8338,41.3156],[-71.8551,41.307],[-71.858,41.3033],[-71.8579,41.3082],[-71.865,41.3109],[-71.8714,41.3104],[-71.8831,41.3061],[-71.8863,41.3064],[-71.8833,41.3099],[-71.8797,41.3115],[-71.8799,41.3104],[-71.8827,41.3097],[-71.8817,41.308],[-71.8682,41.3119],[-71.862,41.312],[-71.8605,41.3102],[-71.858,41.3104],[-71.857,41.3118],[-71.8592,41.3133],[-71.8585,41.3153],[-71.8558,41.3143],[-71.8548,41.3153],[-71.8554,41.3166],[-71.8596,41.3172],[-71.8553,41.3201],[-71.8533,41.3202],[-71.854,41.3196],[-71.8529,41.3188],[-71.8501,41.3195],[-71.85,41.3209],[-71.8513,41.3208],[-71.8504,41.3223],[-71.8423,41.3244],[-71.8407,41.3259],[-71.8411,41.3276],[-71.8473,41.3261],[-71.8463,41.3289],[-71.8368,41.3338],[-71.8349,41.336],[-71.832,41.3363],[-71.8325,41.3346],[-71.8298,41.3349],[-71.8293,41.3368],[-71.8303,41.3378],[-71.8278,41.3383],[-71.8273,41.3359],[-71.8263,41.3363],[-71.826,41.3381],[-71.8272,41.3382],[-71.8276,41.3399],[-71.8263,41.3423],[-71.8239,41.3432],[-71.8261,41.3432],[-71.8288,41.3459],[-71.8267,41.3488],[-71.8296,41.351],[-71.8298,41.3534],[-71.8341,41.3542],[-71.8366,41.3593],[-71.8366,41.366],[-71.8315,41.37],[-71.8325,41.3762],[-71.8306,41.3788],[-71.8335,41.3823],[-71.8331,41.3878],[-71.8387,41.3911],[-71.8422,41.3954],[-71.8411,41.3997],[-71.8416,41.403],[-71.8436,41.4053],[-71.8426,41.4098],[-71.8393,41.4124],[-71.8341,41.4116],[-71.8254,41.4147],[-71.8237,41.4173],[-71.8194,41.4196],[-71.8129,41.4194],[-71.807,41.4167]]]]}},{"type":"Feature","properties":{"leaid":"4401200","name":"Woonsocket School District","kind":"Unified","gradeLow":"PK","gradeHigh":"12","state":"RI"},"geometry":{"type":"Polygon","coordinates":[[[-71.4874,41.9791],[-71.5172,41.9834],[-71.5317,41.9896],[-71.5401,42.0098],[-71.5298,42.0098],[-71.5289,42.0151],[-71.4983,42.0173],[-71.4581,42.0178],[-71.4599,42.0076],[-71.4874,41.9791]]]}},{"type":"Feature","properties":{"leaid":"4499997","name":"School District Not Defined","kind":"Unified","gradeLow":"PK","gradeHigh":"12","state":"RI"},"geometry":{"type":"MultiPolygon","coordinates":[[[[-71.3376,41.4492],[-71.3377,41.4489],[-71.3379,41.4494],[-71.3376,41.4492]]],[[[-71.352,41.4499],[-71.3528,41.4493],[-71.3551,41.449],[-71.354,41.4497],[-71.352,41.4499]]],[[[-71.3103,41.4512],[-71.3114,41.4508],[-71.3104,41.4514],[-71.3103,41.4512]]],[[[-71.3563,41.4511],[-71.3563,41.4499],[-71.357,41.4515],[-71.3563,41.4511]]],[[[-71.3492,41.4518],[-71.3514,41.4501],[-71.3515,41.4511],[-71.3492,41.4518]]],[[[-71.3386,41.4518],[-71.3373,41.4513],[-71.3378,41.4495],[-71.3386,41.4518]]],[[[-71.3089,41.4521],[-71.3079,41.4515],[-71.3096,41.4516],[-71.3089,41.4521]]],[[[-71.3572,41.4526],[-71.3572,41.4524],[-71.3573,41.4528],[-71.3572,41.4526]]],[[[-71.348,41.4528],[-71.3467,41.4526],[-71.349,41.4519],[-71.348,41.4528]]],[[[-71.307,41.4529],[-71.3077,41.4519],[-71.3076,41.4524],[-71.307,41.4529]]],[[[-71.3063,41.4534],[-71.306,41.4529],[-71.3067,41.4532],[-71.3063,41.4534]]],[[[-71.3573,41.4532],[-71.3573,41.4532],[-71.3573,41.4534],[-71.3573,41.4532]]],[[[-71.3405,41.453],[-71.3395,41.4531],[-71.3394,41.4522],[-71.3405,41.453]]],[[[-71.3574,41.4541],[-71.3574,41.454],[-71.3575,41.4542],[-71.3574,41.4541]]],[[[-71.3056,41.4542],[-71.3057,41.454],[-71.3058,41.4536],[-71.3059,41.4537],[-71.3057,41.4541],[-71.3056,41.4542]]],[[[-71.3428,41.4532],[-71.341,41.4538],[-71.3407,41.4534],[-71.3429,41.4529],[-71.3433,41.4544],[-71.3428,41.4532]]],[[[-71.3434,41.4544],[-71.3441,41.4531],[-71.3462,41.4525],[-71.3455,41.4534],[-71.3434,41.4544]]],[[[-71.3046,41.4544],[-71.3048,41.4544],[-71.3047,41.4544],[-71.3046,41.4544]]],[[[-71.3042,41.4561],[-71.3043,41.4558],[-71.3043,41.4559],[-71.3042,41.4561]]],[[[-71.3042,41.4564],[-71.3042,41.4563],[-71.3042,41.4564],[-71.3042,41.4564]]],[[[-71.3589,41.457],[-71.3574,41.4557],[-71.3575,41.4547],[-71.3589,41.457]]],[[[-71.359,41.4574],[-71.3592,41.4573],[-71.359,41.4576],[-71.359,41.4574]]],[[[-71.3592,41.4576],[-71.3594,41.4575],[-71.3592,41.4576],[-71.3592,41.4576]]],[[[-71.359,41.4578],[-71.3591,41.4577],[-71.3589,41.4579],[-71.359,41.4578]]],[[[-71.3587,41.4589],[-71.3588,41.4581],[-71.3588,41.4591],[-71.3587,41.4589]]],[[[-71.304,41.4582],[-71.3041,41.4574],[-71.303,41.4592],[-71.304,41.4582]]],[[[-71.3599,41.46],[-71.3592,41.4599],[-71.359,41.4597],[-71.3599,41.46]]],[[[-71.3028,41.4597],[-71.3022,41.46],[-71.3029,41.4593],[-71.3028,41.4597]]],[[[-71.3611,41.4601],[-71.3619,41.4595],[-71.3613,41.4602],[-71.3611,41.4601]]],[[[-71.3601,41.4602],[-71.3599,41.46],[-71.3607,41.4603],[-71.3601,41.4602]]],[[[-71.3627,41.4604],[-71.3627,41.4604],[-71.3628,41.4604],[-71.3627,41.4604]]],[[[-71.304,41.4628],[-71.3032,41.4603],[-71.3035,41.4607],[-71.304,41.4628]]],[[[-71.3618,41.4644],[-71.3627,41.4626],[-71.3615,41.4651],[-71.3618,41.4644]]],[[[-71.3009,41.4672],[-71.2988,41.467],[-71.3012,41.467],[-71.304,41.4628],[-71.3019,41.4667],[-71.3009,41.4672]]],[[[-71.2965,41.4687],[-71.2974,41.4681],[-71.2965,41.469],[-71.2965,41.4687]]],[[[-71.2966,41.4697],[-71.2966,41.4698],[-71.2967,41.4699],[-71.2966,41.4697]]],[[[-71.2972,41.4707],[-71.2968,41.47],[-71.2972,41.4709],[-71.2972,41.4707]]],[[[-71.2971,41.4758],[-71.2979,41.4743],[-71.2979,41.4743],[-71.298,41.4745],[-71.2978,41.4749],[-71.2971,41.4758]]],[[[-71.2967,41.4784],[-71.2971,41.476],[-71.2967,41.4787],[-71.2967,41.4784]]],[[[-71.2967,41.4791],[-71.2967,41.4789],[-71.2967,41.479],[-71.2967,41.4791]]],[[[-71.2772,41.4804],[-71.2771,41.4801],[-71.2776,41.4808],[-71.2772,41.4804]]],[[[-71.2776,41.481],[-71.2777,41.4809],[-71.2778,41.481],[-71.2776,41.481]]],[[[-71.2778,41.4812],[-71.2778,41.4811],[-71.2778,41.4813],[-71.2778,41.4812]]],[[[-71.2779,41.4816],[-71.2779,41.4816],[-71.2779,41.4816],[-71.2779,41.4816]]],[[[-71.2712,41.4822],[-71.2746,41.4792],[-71.2767,41.4797],[-71.2771,41.4801],[-71.275,41.4795],[-71.2712,41.4822]]],[[[-71.2705,41.4834],[-71.2698,41.4831],[-71.2709,41.4817],[-71.2705,41.4834]]],[[[-71.2795,41.4835],[-71.2784,41.4835],[-71.2782,41.4829],[-71.2795,41.4835]]],[[[-71.2797,41.4851],[-71.2802,41.485],[-71.28,41.4853],[-71.2797,41.4851]]],[[[-71.2823,41.4882],[-71.2803,41.4852],[-71.2842,41.4886],[-71.2823,41.4882]]],[[[-71.2971,41.4851],[-71.2967,41.4809],[-71.2973,41.4844],[-71.2973,41.485],[-71.2969,41.4854],[-71.2919,41.4876],[-71.2861,41.4888],[-71.2971,41.4851]]],[[[-71.2659,41.4891],[-71.2566,41.4873],[-71.2529,41.486],[-71.246,41.4815],[-71.2453,41.4804],[-71.2479,41.4719],[-71.2437,41.4751],[-71.2427,41.475],[-71.2463,41.472],[-71.2482,41.4718],[-71.246,41.4813],[-71.2527,41.4859],[-71.2581,41.4876],[-71.2671,41.4889],[-71.269,41.4834],[-71.2698,41.4831],[-71.2676,41.4887],[-71.2672,41.489],[-71.2659,41.4891]]],[[[-71.2858,41.4892],[-71.2857,41.4891],[-71.2859,41.4892],[-71.2858,41.4892]]],[[[-71.2418,41.4991],[-71.2464,41.4939],[-71.2474,41.4909],[-71.2459,41.4875],[-71.2433,41.4859],[-71.2386,41.4867],[-71.2368,41.4864],[-71.2369,41.4834],[-71.2393,41.4762],[-71.2408,41.4749],[-71.2424,41.4751],[-71.2398,41.4765],[-71.2396,41.4798],[-71.2375,41.482],[-71.2373,41.4861],[-71.2442,41.4858],[-71.2466,41.4873],[-71.2479,41.4908],[-71.2467,41.4943],[-71.2418,41.4991]]],[[[-71.2328,41.5146],[-71.2327,41.5133],[-71.2336,41.5137],[-71.2381,41.507],[-71.24,41.5059],[-71.2392,41.5042],[-71.2419,41.4993],[-71.2397,41.5043],[-71.2406,41.5058],[-71.2365,41.5095],[-71.2348,41.5137],[-71.2336,41.5141],[-71.233,41.5136],[-71.2328,41.5146]]]]}}]}