{"type":"FeatureCollection","features":[{"type":"Feature","properties":{"leaid":"7800030","name":"Virgin Islands Department of Education","kind":"Unified","gradeLow":"PK","gradeHigh":"12","state":"VI"},"geometry":{"type":"MultiPolygon","coordinates":[[[[-64.7783,17.7837],[-64.7675,17.7802],[-64.7532,17.7814],[-64.7484,17.7836],[-64.742,17.775],[-64.7384,17.774],[-64.7396,17.7726],[-64.7374,17.7713],[-64.736,17.7666],[-64.7317,17.7626],[-64.7247,17.7594],[-64.719,17.7534],[-64.7136,17.752],[-64.7142,17.7512],[-64.7088,17.7469],[-64.7039,17.7474],[-64.7032,17.7506],[-64.6944,17.7554],[-64.6849,17.7546],[-64.6819,17.7574],[-64.682,17.7603],[-64.6735,17.7594],[-64.6726,17.762],[-64.667,17.7649],[-64.6659,17.7683],[-64.6643,17.7691],[-64.6549,17.7658],[-64.6548,17.7634],[-64.6532,17.7622],[-64.6469,17.7619],[-64.6428,17.7592],[-64.6386,17.7589],[-64.6373,17.7603],[-64.6325,17.7588],[-64.6307,17.7612],[-64.6271,17.759],[-64.6212,17.7591],[-64.6165,17.7614],[-64.6135,17.7602],[-64.612,17.7611],[-64.6101,17.7571],[-64.602,17.7545],[-64.6002,17.7551],[-64.6001,17.7572],[-64.5926,17.7561],[-64.5854,17.7588],[-64.5832,17.7619],[-64.5794,17.7591],[-64.5745,17.7603],[-64.5714,17.7576],[-64.5664,17.7569],[-64.5652,17.7551],[-64.567,17.7543],[-64.5681,17.7513],[-64.5709,17.7514],[-64.5779,17.7455],[-64.5809,17.7472],[-64.5858,17.7449],[-64.5894,17.7469],[-64.5961,17.7467],[-64.5982,17.7452],[-64.6023,17.7458],[-64.6089,17.7369],[-64.6099,17.7328],[-64.6126,17.735],[-64.6176,17.7346],[-64.6211,17.7313],[-64.6255,17.7313],[-64.6277,17.7293],[-64.6306,17.7288],[-64.6342,17.7241],[-64.6385,17.7219],[-64.6499,17.7237],[-64.6575,17.7214],[-64.6627,17.7186],[-64.6646,17.7138],[-64.6688,17.7129],[-64.6716,17.7143],[-64.6804,17.7106],[-64.6836,17.711],[-64.6863,17.7068],[-64.6933,17.7053],[-64.6972,17.7063],[-64.703,17.7031],[-64.7043,17.7054],[-64.7073,17.7052],[-64.7165,17.7002],[-64.7178,17.6983],[-64.7274,17.7036],[-64.7352,17.7041],[-64.7402,17.7005],[-64.7403,17.6967],[-64.7429,17.6946],[-64.7402,17.6878],[-64.7613,17.6824],[-64.7636,17.6833],[-64.7663,17.6898],[-64.7788,17.6959],[-64.7812,17.6934],[-64.7811,17.696],[-64.7835,17.6963],[-64.787,17.695],[-64.7899,17.6958],[-64.7944,17.6932],[-64.8033,17.6938],[-64.8138,17.6892],[-64.8202,17.6883],[-64.8221,17.6862],[-64.8264,17.6865],[-64.8306,17.6832],[-64.8349,17.6824],[-64.8391,17.6797],[-64.8396,17.6846],[-64.844,17.6872],[-64.8606,17.6853],[-64.8672,17.6865],[-64.8785,17.684],[-64.8839,17.6858],[-64.9009,17.6741],[-64.9036,17.6806],[-64.8918,17.6929],[-64.8841,17.7062],[-64.8838,17.7135],[-64.8853,17.714],[-64.8838,17.7162],[-64.8845,17.7196],[-64.8943,17.7457],[-64.8932,17.7489],[-64.8914,17.7502],[-64.8916,17.7525],[-64.8886,17.7608],[-64.8823,17.764],[-64.8816,17.7676],[-64.8779,17.7699],[-64.8749,17.7693],[-64.8721,17.7712],[-64.8697,17.7695],[-64.8673,17.7696],[-64.8648,17.7671],[-64.8562,17.7645],[-64.8501,17.7636],[-64.8483,17.7649],[-64.8446,17.7627],[-64.8429,17.7641],[-64.8399,17.7616],[-64.8339,17.7619],[-64.8195,17.7674],[-64.8111,17.7723],[-64.8067,17.7785],[-64.7969,17.7786],[-64.7825,17.7837],[-64.7783,17.7837]]],[[[-64.7492,17.7871],[-64.7493,17.787],[-64.7493,17.7872],[-64.7492,17.7871]]],[[[-64.6239,17.7901],[-64.6137,17.7884],[-64.6112,17.7872],[-64.6222,17.7836],[-64.6267,17.7861],[-64.6284,17.7888],[-64.6239,17.7901]]],[[[-64.8537,18.2321],[-64.8511,18.2316],[-64.8508,18.2305],[-64.8537,18.2321]]],[[[-64.8904,18.2761],[-64.8905,18.2758],[-64.8905,18.276],[-64.8904,18.2761]]],[[[-64.8857,18.2766],[-64.8868,18.2739],[-64.8902,18.276],[-64.8865,18.2769],[-64.8857,18.2766]]],[[[-64.8937,18.2798],[-64.8914,18.2788],[-64.8903,18.2765],[-64.8937,18.2766],[-64.8944,18.2749],[-64.8969,18.2743],[-64.8989,18.2772],[-64.8939,18.278],[-64.8937,18.2798]]],[[[-65.1013,18.2833],[-65.1004,18.2834],[-65.1003,18.2828],[-65.1013,18.2833]]],[[[-64.8164,18.2938],[-64.8164,18.2938],[-64.8164,18.2938],[-64.8164,18.2938]]],[[[-64.8161,18.2939],[-64.8162,18.2939],[-64.8161,18.294],[-64.8161,18.2939]]],[[[-64.8121,18.2946],[-64.8121,18.2945],[-64.8122,18.2946],[-64.8121,18.2946]]],[[[-64.8125,18.2946],[-64.8125,18.2945],[-64.8126,18.2946],[-64.8125,18.2946]]],[[[-64.8127,18.2949],[-64.8127,18.2948],[-64.8128,18.2949],[-64.8127,18.2949]]],[[[-65.0093,18.3019],[-65.0095,18.3018],[-65.0095,18.3019],[-65.0093,18.3019]]],[[[-64.7101,18.3024],[-64.7096,18.3022],[-64.7099,18.3019],[-64.7101,18.3024]]],[[[-64.8364,18.3026],[-64.8363,18.3027],[-64.8363,18.3026],[-64.8364,18.3026]]],[[[-64.8361,18.3028],[-64.8362,18.3027],[-64.8362,18.3027],[-64.8361,18.3028]]],[[[-64.8361,18.3029],[-64.8362,18.3028],[-64.8362,18.3029],[-64.8361,18.3029]]],[[[-64.8359,18.3031],[-64.8359,18.3031],[-64.8359,18.3031],[-64.8359,18.3031]]],[[[-64.8356,18.3033],[-64.8356,18.3034],[-64.8356,18.3034],[-64.8356,18.3033]]],[[[-64.8357,18.3035],[-64.8358,18.3034],[-64.8358,18.3035],[-64.8357,18.3035]]],[[[-64.8353,18.3036],[-64.8352,18.3035],[-64.8353,18.3035],[-64.8353,18.3036]]],[[[-64.8477,18.3037],[-64.8477,18.3036],[-64.8477,18.3037],[-64.8477,18.3037]]],[[[-64.8454,18.3039],[-64.8455,18.3039],[-64.8455,18.304],[-64.8454,18.3039]]],[[[-64.8217,18.3061],[-64.8218,18.306],[-64.8218,18.3061],[-64.8217,18.3061]]],[[[-64.8213,18.3062],[-64.8213,18.3061],[-64.8213,18.3061],[-64.8213,18.3062]]],[[[-64.9576,18.3061],[-64.9574,18.3062],[-64.9574,18.3061],[-64.9576,18.3061]]],[[[-64.8211,18.3063],[-64.8211,18.3062],[-64.8211,18.3062],[-64.8211,18.3063]]],[[[-64.8213,18.3064],[-64.8213,18.3063],[-64.8214,18.3063],[-64.8213,18.3064]]],[[[-64.8215,18.3064],[-64.8215,18.3063],[-64.8216,18.3064],[-64.8215,18.3064]]],[[[-64.8221,18.3065],[-64.8222,18.3065],[-64.8222,18.3065],[-64.8221,18.3065]]],[[[-64.9745,18.3069],[-64.9744,18.3068],[-64.9745,18.3068],[-64.9745,18.3069]]],[[[-65.0016,18.3067],[-64.998,18.3051],[-65.0023,18.3036],[-65.0016,18.3067]]],[[[-64.9711,18.3089],[-64.9711,18.3088],[-64.9712,18.3089],[-64.9711,18.3089]]],[[[-64.971,18.3091],[-64.9711,18.309],[-64.9711,18.3091],[-64.971,18.3091]]],[[[-65.0003,18.3092],[-65.0007,18.3079],[-65.0012,18.3089],[-65.0003,18.3092]]],[[[-64.9081,18.3093],[-64.9078,18.3093],[-64.9082,18.3092],[-64.9081,18.3093]]],[[[-64.9084,18.3097],[-64.9078,18.31],[-64.9081,18.3095],[-64.9084,18.3097]]],[[[-64.9181,18.3132],[-64.9182,18.3131],[-64.9182,18.3132],[-64.9181,18.3132]]],[[[-64.9895,18.3173],[-64.9893,18.316],[-64.9897,18.3156],[-64.9904,18.3169],[-64.9895,18.3173]]],[[[-64.6913,18.3168],[-64.6888,18.3171],[-64.6859,18.3158],[-64.688,18.3147],[-64.6882,18.3159],[-64.6913,18.3168]]],[[[-64.9426,18.3178],[-64.9427,18.3175],[-64.9427,18.3178],[-64.9426,18.3178]]],[[[-64.9886,18.3178],[-64.9889,18.3178],[-64.9889,18.3179],[-64.9886,18.3178]]],[[[-64.9466,18.3179],[-64.9467,18.3179],[-64.9467,18.318],[-64.9466,18.3179]]],[[[-64.8008,18.3257],[-64.8008,18.3257],[-64.8009,18.3258],[-64.8008,18.3257]]],[[[-64.8049,18.3284],[-64.805,18.3284],[-64.8049,18.3285],[-64.8049,18.3284]]],[[[-64.6493,18.3284],[-64.6488,18.3274],[-64.6502,18.324],[-64.6518,18.3263],[-64.6512,18.328],[-64.6493,18.3284]]],[[[-64.808,18.3311],[-64.8069,18.3303],[-64.8068,18.3286],[-64.808,18.3311]]],[[[-65.0856,18.3346],[-65.0857,18.3346],[-65.0857,18.3346],[-65.0856,18.3346]]],[[[-65.0845,18.3349],[-65.0846,18.335],[-65.0846,18.335],[-65.0845,18.3349]]],[[[-64.8447,18.3376],[-64.8444,18.3372],[-64.8452,18.3369],[-64.8447,18.3376]]],[[[-65.0708,18.3414],[-65.0709,18.3412],[-65.0712,18.3409],[-65.0708,18.3414]]],[[[-65.0715,18.3412],[-65.0718,18.3413],[-65.0716,18.3415],[-65.0715,18.3412]]],[[[-65.0727,18.3418],[-65.0728,18.3418],[-65.0728,18.3418],[-65.0727,18.3418]]],[[[-64.8173,18.343],[-64.8172,18.3426],[-64.8176,18.3425],[-64.8173,18.343]]],[[[-64.8167,18.3435],[-64.8171,18.3433],[-64.8171,18.3437],[-64.8167,18.3435]]],[[[-65.0492,18.3446],[-65.0493,18.3445],[-65.0493,18.3446],[-65.0492,18.3446]]],[[[-64.8583,18.3465],[-64.8584,18.3464],[-64.8585,18.3465],[-64.8583,18.3465]]],[[[-65.0752,18.3468],[-65.0745,18.3458],[-65.0754,18.344],[-65.0737,18.3419],[-65.0743,18.3395],[-65.0777,18.3363],[-65.0803,18.337],[-65.0853,18.3354],[-65.0847,18.3391],[-65.0821,18.339],[-65.0823,18.3415],[-65.0752,18.3468]]],[[[-65.0582,18.3516],[-65.0571,18.3499],[-65.0575,18.3494],[-65.0582,18.3516]]],[[[-64.7853,18.3539],[-64.7847,18.3539],[-64.7847,18.3539],[-64.7853,18.3539]]],[[[-64.7773,18.3542],[-64.7767,18.354],[-64.7771,18.3537],[-64.7773,18.3542]]],[[[-64.7934,18.3545],[-64.7917,18.352],[-64.7945,18.353],[-64.7934,18.3545]]],[[[-65.0429,18.3556],[-65.043,18.3555],[-65.043,18.3555],[-65.0429,18.3556]]],[[[-64.7682,18.354],[-64.7691,18.3551],[-64.7687,18.3558],[-64.7683,18.3554],[-64.7682,18.354]]],[[[-65.0416,18.3555],[-65.041,18.3554],[-65.0414,18.3552],[-65.0416,18.3555]]],[[[-64.7902,18.3554],[-64.7886,18.3548],[-64.7889,18.3544],[-64.7902,18.3554]]],[[[-64.7971,18.356],[-64.7964,18.3561],[-64.797,18.3555],[-64.7971,18.356]]],[[[-64.757,18.3564],[-64.7562,18.3566],[-64.7555,18.3562],[-64.757,18.3564]]],[[[-64.8026,18.3597],[-64.8026,18.3596],[-64.8027,18.3596],[-64.8026,18.3597]]],[[[-64.8342,18.3598],[-64.8264,18.3598],[-64.8338,18.3571],[-64.8399,18.3569],[-64.8342,18.3598]]],[[[-64.8759,18.3609],[-64.8763,18.3605],[-64.8765,18.3608],[-64.8759,18.3609]]],[[[-64.8254,18.3602],[-64.8155,18.3605],[-64.8151,18.3592],[-64.8166,18.3581],[-64.8254,18.3602]]],[[[-65.0471,18.3614],[-65.0459,18.3594],[-65.0447,18.3605],[-65.0432,18.3593],[-65.0438,18.3557],[-65.0463,18.3567],[-65.0464,18.3593],[-65.0493,18.3604],[-65.0471,18.3614]]],[[[-64.7959,18.3641],[-64.796,18.3641],[-64.796,18.3641],[-64.7959,18.3641]]],[[[-64.7956,18.3641],[-64.7957,18.3641],[-64.7957,18.3641],[-64.7956,18.3641]]],[[[-65.0514,18.3641],[-65.0492,18.3617],[-65.0508,18.3588],[-65.0569,18.3632],[-65.0542,18.364],[-65.0516,18.3626],[-65.0514,18.3641]]],[[[-64.7958,18.3642],[-64.7959,18.3642],[-64.7959,18.3642],[-64.7958,18.3642]]],[[[-64.7954,18.3643],[-64.7954,18.3642],[-64.7955,18.3643],[-64.7954,18.3643]]],[[[-64.7977,18.3691],[-64.7978,18.3636],[-64.8016,18.3603],[-64.8068,18.3609],[-64.8097,18.3585],[-64.8134,18.3616],[-64.808,18.3672],[-64.7977,18.3691]]],[[[-64.7947,18.3695],[-64.7938,18.3698],[-64.7944,18.3695],[-64.7947,18.3695]]],[[[-64.7571,18.3712],[-64.7551,18.3707],[-64.7555,18.3693],[-64.7604,18.3695],[-64.7571,18.3712]]],[[[-64.7513,18.3724],[-64.7387,18.3719],[-64.7336,18.3696],[-64.7204,18.3678],[-64.7175,18.3662],[-64.7116,18.3671],[-64.7039,18.3615],[-64.6943,18.3621],[-64.691,18.3612],[-64.6873,18.3587],[-64.6873,18.3545],[-64.6841,18.3525],[-64.672,18.3499],[-64.6606,18.3435],[-64.6614,18.3417],[-64.6605,18.3398],[-64.6613,18.3401],[-64.6626,18.3363],[-64.662,18.3337],[-64.6702,18.3302],[-64.6741,18.3302],[-64.6753,18.3325],[-64.6797,18.3322],[-64.6921,18.3391],[-64.7001,18.3302],[-64.6995,18.3268],[-64.7005,18.3242],[-64.6976,18.3225],[-64.6973,18.321],[-64.7022,18.3176],[-64.6992,18.3128],[-64.7017,18.3127],[-64.7025,18.3114],[-64.6998,18.3031],[-64.702,18.301],[-64.7014,18.299],[-64.7028,18.2982],[-64.7039,18.3042],[-64.7213,18.3072],[-64.7325,18.3151],[-64.7392,18.3174],[-64.7473,18.3244],[-64.7563,18.3166],[-64.766,18.3105],[-64.7679,18.3122],[-64.7795,18.3119],[-64.7815,18.3105],[-64.783,18.3111],[-64.7835,18.3135],[-64.7871,18.3149],[-64.7912,18.3144],[-64.7919,18.3175],[-64.7947,18.3202],[-64.7962,18.3254],[-64.7998,18.3265],[-64.7984,18.328],[-64.799,18.3369],[-64.7918,18.3398],[-64.7901,18.3417],[-64.7872,18.342],[-64.7873,18.3445],[-64.7892,18.3453],[-64.787,18.3476],[-64.7885,18.3507],[-64.7868,18.3529],[-64.7772,18.3535],[-64.7753,18.3525],[-64.7736,18.3534],[-64.7738,18.3518],[-64.7716,18.3514],[-64.769,18.3523],[-64.7662,18.3562],[-64.763,18.3552],[-64.7632,18.3539],[-64.7606,18.3526],[-64.7578,18.3528],[-64.7533,18.3555],[-64.7516,18.3575],[-64.7512,18.3692],[-64.7526,18.3706],[-64.7513,18.3724]]],[[[-64.9535,18.3771],[-64.9537,18.3769],[-64.9537,18.3773],[-64.9535,18.3771]]],[[[-65.0641,18.3782],[-65.064,18.3778],[-65.0644,18.3779],[-65.0641,18.3782]]],[[[-65.0601,18.3819],[-65.0592,18.381],[-65.0606,18.3786],[-65.0633,18.3784],[-65.064,18.3805],[-65.0601,18.3819]]],[[[-64.876,18.3606],[-64.8706,18.361],[-64.8708,18.3634],[-64.8652,18.3604],[-64.8543,18.3603],[-64.8537,18.3631],[-64.853,18.3605],[-64.8494,18.3606],[-64.8476,18.3571],[-64.8626,18.3494],[-64.8613,18.3436],[-64.8574,18.3399],[-64.8511,18.3403],[-64.8476,18.333],[-64.8449,18.3305],[-64.8332,18.3265],[-64.8227,18.3131],[-64.8269,18.3054],[-64.8236,18.3029],[-64.8241,18.3014],[-64.8216,18.2972],[-64.8174,18.297],[-64.8142,18.2952],[-64.8162,18.2954],[-64.8165,18.2944],[-64.8167,18.2942],[-64.8253,18.2988],[-64.8292,18.2978],[-64.829,18.299],[-64.8452,18.3118],[-64.8785,18.3027],[-64.8801,18.3075],[-64.8852,18.3083],[-64.8904,18.3136],[-64.8983,18.3097],[-64.9018,18.3105],[-64.9026,18.3121],[-64.9061,18.3109],[-64.9073,18.3144],[-64.9101,18.3146],[-64.9179,18.3198],[-64.9227,18.3196],[-64.9328,18.323],[-64.9405,18.3172],[-64.9462,18.3191],[-64.9512,18.3171],[-64.9536,18.3076],[-64.9577,18.3062],[-64.9602,18.3077],[-64.9612,18.3134],[-64.9588,18.3185],[-64.9653,18.3267],[-64.9724,18.3293],[-64.9748,18.3353],[-64.9839,18.3356],[-64.9862,18.3456],[-64.9857,18.3479],[-64.9883,18.3501],[-64.9953,18.3516],[-65.0016,18.3459],[-65.0071,18.3453],[-65.0113,18.3422],[-65.0208,18.3443],[-65.0224,18.3414],[-65.0266,18.3411],[-65.0311,18.346],[-65.0344,18.3466],[-65.0408,18.3514],[-65.0405,18.3525],[-65.042,18.3525],[-65.0412,18.3549],[-65.0336,18.36],[-65.028,18.36],[-65.0273,18.362],[-65.0207,18.3616],[-65.0189,18.3602],[-65.0156,18.3618],[-65.0123,18.3613],[-65.0067,18.3681],[-65.0029,18.3658],[-64.9929,18.3653],[-64.9908,18.372],[-64.9834,18.3707],[-64.9823,18.3726],[-64.9753,18.3716],[-64.9739,18.3725],[-64.9657,18.3689],[-64.9637,18.3714],[-64.9601,18.3714],[-64.9529,18.377],[-64.9406,18.3833],[-64.9355,18.3792],[-64.9256,18.375],[-64.9232,18.3716],[-64.9158,18.3684],[-64.9131,18.3653],[-64.9121,18.3663],[-64.9038,18.3653],[-64.8979,18.3619],[-64.8926,18.363],[-64.8907,18.362],[-64.8896,18.3581],[-64.8834,18.355],[-64.8797,18.3546],[-64.876,18.3606]]],[[[-64.9011,18.385],[-64.9013,18.3846],[-64.9013,18.3849],[-64.9011,18.385]]],[[[-64.99,18.3852],[-64.9901,18.3851],[-64.9901,18.3852],[-64.99,18.3852]]],[[[-64.9903,18.3853],[-64.9903,18.3852],[-64.9904,18.3853],[-64.9903,18.3853]]],[[[-64.9905,18.3854],[-64.9905,18.3852],[-64.9905,18.3854],[-64.9905,18.3854]]],[[[-64.9911,18.3854],[-64.9913,18.3853],[-64.9913,18.3854],[-64.9911,18.3854]]],[[[-64.9909,18.3855],[-64.9905,18.3856],[-64.9907,18.3854],[-64.9909,18.3855]]],[[[-64.971,18.3849],[-64.9673,18.3844],[-64.9682,18.3816],[-64.9656,18.3779],[-64.9662,18.3763],[-64.9734,18.381],[-64.9761,18.3859],[-64.9732,18.3867],[-64.971,18.3849]]],[[[-64.967,18.3932],[-64.9672,18.3926],[-64.9675,18.3926],[-64.967,18.3932]]],[[[-64.9754,18.4018],[-64.9728,18.4004],[-64.9714,18.3973],[-64.9674,18.3936],[-64.968,18.3924],[-64.9711,18.3916],[-64.9743,18.3935],[-64.9751,18.3951],[-64.9735,18.3963],[-64.9754,18.4018]]],[[[-65.0593,18.4062],[-65.0575,18.4032],[-65.0605,18.403],[-65.0625,18.4042],[-65.0593,18.4062]]],[[[-65.0502,18.4093],[-65.0491,18.4088],[-65.0496,18.4074],[-65.0502,18.4093]]],[[[-64.9025,18.41],[-64.9029,18.4099],[-64.9029,18.4101],[-64.9025,18.41]]],[[[-64.9074,18.4127],[-64.9047,18.4119],[-64.9027,18.4096],[-64.9057,18.4031],[-64.8992,18.3933],[-64.8998,18.3921],[-64.9038,18.3916],[-64.9052,18.3879],[-64.9071,18.3873],[-64.9127,18.3944],[-64.9127,18.4004],[-64.9158,18.4017],[-64.9175,18.4043],[-64.9155,18.4059],[-64.9106,18.405],[-64.909,18.4082],[-64.9104,18.4114],[-64.9074,18.4127]]],[[[-64.905,18.4133],[-64.9041,18.4129],[-64.9054,18.4128],[-64.905,18.4133]]],[[[-64.9096,18.4144],[-64.9079,18.415],[-64.9082,18.4137],[-64.9096,18.4144]]]]}}]}